{
"type": "FeatureCollection",
"features": [{"type": "Feature", "properties": {"id": "4a583ea9-4196-4c78-8f3b-35fe6b0c6c24", "sources": [{"property":"","dataset":"doi:10.5281/zenodo.8174931","update_time":"2024-11-01T00:00:00.000Z"}], "is_underground": false, "has_parts": false, "version": 1, "bbox": {"xmin":114.29908752441406,"xmax":114.29916381835938,"ymin":30.589380264282227,"ymax":30.589441299438477}}, "geometry": {"type": "MultiPolygon", "coordinates": [[[[114.2991353,30.5893834],[114.2991602,30.5894212],[114.2991222,30.5894384],[114.2990993,30.5894006],[114.2991353,30.5893834]]]]}},
{"type": "Feature", "properties": {"id": "03dc40ff-7395-4e25-9d70-a35da7f166b7", "sources": [{"property":"","dataset":"OpenStreetMap","license":"ODbL-1.0","record_id":"w1095192315@1","update_time":"2022-09-16T15:58:28.000Z"}], "is_underground": false, "has_parts": false, "version": 1, "bbox": {"xmin":114.30043029785156,"xmax":114.30097961425781,"ymin":30.59665298461914,"ymax":30.59710693359375}}, "geometry": {"type": "MultiPolygon", "coordinates": [[[[114.3009795,30.5969535],[114.3006125,30.5971064],[114.300444,30.5968068],[114.300811,30.5966539],[114.3009795,30.5969535]]]]}},
{"type": "Feature", "properties": {"id": "42bd6d1d-ad33-4b09-89a6-bc60671acac0", "sources": [{"property":"","dataset":"OpenStreetMap","license":"ODbL-1.0","record_id":"w766549502@1","update_time":"2022-09-16T15:58:28.000Z"}], "is_underground": false, "has_parts": false, "version": 1, "bbox": {"xmin":114.29985809326172,"xmax":114.30076599121094,"ymin":30.596220016479492,"ymax":30.596813201904297}}, "geometry": {"type": "MultiPolygon", "coordinates": [[[[114.3005889,30.5962231],[114.300752,30.5965038],[114.3000331,30.5968132],[114.2998701,30.5965325],[114.3005889,30.5962231]]]]}},
{"type": "Feature", "properties": {"id": "39a94c70-b443-45eb-b89b-5d83eb64823d", "sources": [{"property":"","dataset":"OpenStreetMap","license":"ODbL-1.0","record_id":"w1095192328@1","update_time":"2022-09-16T15:58:28.000Z"}], "is_underground": false, "has_parts": false, "version": 1, "bbox": {"xmin":114.30010223388672,"xmax":114.30048370361328,"ymin":30.59591293334961,"ymax":30.596261978149414}}, "geometry": {"type": "MultiPolygon", "coordinates": [[[[114.3004156,30.596181],[114.3002343,30.5962591],[114.3001957,30.5961926],[114.300104,30.5960347],[114.3002853,30.5959566],[114.3003786,30.5959164],[114.3004703,30.5960744],[114.300377,30.5961145],[114.3004156,30.596181]]]]}},
{"type": "Feature", "properties": {"id": "f4a83ae7-8d74-4548-9df9-abc205cb5dd2", "sources": [{"property":"","dataset":"doi:10.5281/zenodo.8174931","update_time":"2024-11-01T00:00:00.000Z"}], "is_underground": false, "has_parts": false, "version": 1, "bbox": {"xmin":114.30015563964844,"xmax":114.30028533935547,"ymin":30.593944549560547,"ymax":30.594030380249023}}, "geometry": {"type": "MultiPolygon", "coordinates": [[[[114.300158,30.5939537],[114.3002794,30.5939483],[114.3002839,30.5940247],[114.3001625,30.5940301],[114.300158,30.5939537]]]]}},
{"type": "Feature", "properties": {"id": "e3e90add-c001-48f6-bdd1-23e1551e0fb0", "sources": [{"property":"","dataset":"doi:10.5281/zenodo.8174931","update_time":"2024-11-01T00:00:00.000Z"}], "is_underground": false, "has_parts": false, "version": 1, "bbox": {"xmin":114.30049896240234,"xmax":114.30065155029297,"ymin":30.59501075744629,"ymax":30.595117568969727}}, "geometry": {"type": "MultiPolygon", "coordinates": [[[[114.3006249,30.5950109],[114.3006498,30.5950836],[114.3005278,30.5951175],[114.3005008,30.5950447],[114.3006249,30.5950109]]]]}},
{"type": "Feature", "properties": {"id": "d6a1a7cc-ce0c-4d98-b0f2-ca80e34d532a", "names": {"primary":"武汉市人民政府"}, "sources": [{"property":"","dataset":"OpenStreetMap","license":"ODbL-1.0","record_id":"w766549507@3","update_time":"2022-09-16T15:58:28.000Z"}], "is_underground": false, "subtype": "civic", "has_parts": false, "version": 1, "bbox": {"xmin":114.2998275756836,"xmax":114.30023956298828,"ymin":30.59542465209961,"ymax":30.59590721130371}}, "geometry": {"type": "MultiPolygon", "coordinates": [[[[114.2998399,30.5954925],[114.299993,30.5954249],[114.3002377,30.595836],[114.3000846,30.5959034],[114.2998539,30.5955156],[114.2998399,30.5954925]]]]}},
{"type": "Feature", "properties": {"id": "834dec8b-ce0f-4b14-b928-d4513e2fcd2b", "names": {"primary":"武汉市人民政府礼堂"}, "sources": [{"property":"","dataset":"OpenStreetMap","license":"ODbL-1.0","record_id":"w1095192329@2","update_time":"2023-04-10T17:21:56.000Z"}], "is_underground": false, "has_parts": false, "version": 1, "bbox": {"xmin":114.29899597167969,"xmax":114.29963684082031,"ymin":30.594043731689453,"ymax":30.59449577331543}}, "geometry": {"type": "MultiPolygon", "coordinates": [[[[114.2996347,30.5943151],[114.29914,30.5944928],[114.2990101,30.594225],[114.2995048,30.5940472],[114.2996347,30.5943151]]]]}},
{"type": "Feature", "properties": {"id": "9231942a-a068-4a93-897a-0d410bd0fc77", "sources": [{"property":"","dataset":"OpenStreetMap","license":"ODbL-1.0","record_id":"w1095192331@1","update_time":"2022-09-16T15:58:28.000Z"}], "is_underground": false, "has_parts": false, "version": 1, "bbox": {"xmin":114.29914093017578,"xmax":114.29947662353516,"ymin":30.593692779541016,"ymax":30.594066619873047}}, "geometry": {"type": "MultiPolygon", "coordinates": [[[[114.2994754,30.5940007],[114.2993009,30.5940634],[114.2991533,30.593759],[114.2993277,30.5936963],[114.2994754,30.5940007]]]]}},
{"type": "Feature", "properties": {"id": "eeb68d4b-fa0b-4e04-902e-28f5bc660783", "sources": [{"property":"","dataset":"doi:10.5281/zenodo.8174931","update_time":"2024-11-01T00:00:00.000Z"}], "is_underground": false, "has_parts": false, "version": 1, "bbox": {"xmin":114.2990493774414,"xmax":114.2990951538086,"ymin":30.593990325927734,"ymax":30.594074249267578}}, "geometry": {"type": "MultiPolygon", "coordinates": [[[[114.299061,30.5939907],[114.2990931,30.5940552],[114.299061,30.5940738],[114.299061,30.5939907]]]]}},
{"type": "Feature", "properties": {"id": "c0e13f7c-6b8c-4656-a66c-91a6ec9b320d", "names": {"primary":"汉口德国领事馆旧址","common":{"en":"Former German Consulate","zh":"汉口德国领事馆旧址"}}, "sources": [{"property":"","dataset":"OpenStreetMap","license":"ODbL-1.0","record_id":"w766549506@2","update_time":"2025-11-05T01:38:59.000Z"}], "is_underground": false, "has_parts": false, "version": 2, "bbox": {"xmin":114.29923248291016,"xmax":114.29959106445312,"ymin":30.59498405456543,"ymax":30.595293045043945}}, "geometry": {"type": "MultiPolygon", "coordinates": [[[[114.2994651,30.5949841],[114.299588,30.5951838],[114.2993564,30.5952894],[114.2992336,30.5950897],[114.2994651,30.5949841]]]]}},
{"type": "Feature", "properties": {"id": "986f3229-0865-4b7b-a193-2f128814998d", "sources": [{"property":"","dataset":"doi:10.5281/zenodo.8174931","update_time":"2024-11-01T00:00:00.000Z"}], "is_underground": false, "has_parts": false, "version": 1, "bbox": {"xmin":114.3000717163086,"xmax":114.30023956298828,"ymin":30.595869064331055,"ymax":30.595951080322266}}, "geometry": {"type": "MultiPolygon", "coordinates": [[[[114.3002358,30.5959113],[114.3000853,30.5959476],[114.3000727,30.5959085],[114.3002232,30.5958723],[114.3002358,30.5959113]]]]}},
{"type": "Feature", "properties": {"id": "f0b9fbeb-d491-4ba0-9644-7f065cb0dec4", "sources": [{"property":"","dataset":"OpenStreetMap","license":"ODbL-1.0","record_id":"w766549503@1","update_time":"2022-09-16T15:58:28.000Z"}], "is_underground": false, "has_parts": false, "version": 1, "bbox": {"xmin":114.29953002929688,"xmax":114.29997253417969,"ymin":30.59661293029785,"ymax":30.596973419189453}}, "geometry": {"type": "MultiPolygon", "coordinates": [[[[114.2998219,30.596616],[114.2999607,30.5968386],[114.2996711,30.5969725],[114.2995322,30.5967499],[114.2998219,30.596616]]]]}},
{"type": "Feature", "properties": {"id": "66b905a7-893e-42e4-8d4e-142c9273bafe", "sources": [{"property":"","dataset":"doi:10.5281/zenodo.8174931","update_time":"2024-11-01T00:00:00.000Z"}], "is_underground": false, "has_parts": false, "version": 1, "bbox": {"xmin":114.29916381835938,"xmax":114.29944610595703,"ymin":30.596710205078125,"ymax":30.596988677978516}}, "geometry": {"type": "MultiPolygon", "coordinates": [[[[114.2993523,30.5967132],[114.2994455,30.596854],[114.2993506,30.596901],[114.2993817,30.5969479],[114.2993003,30.5969883],[114.299176,30.5968006],[114.2993523,30.5967132]]]]}},
{"type": "Feature", "properties": {"id": "d129a305-99f7-42e1-8405-273ed9f83e3a", "sources": [{"property":"","dataset":"OpenStreetMap","license":"ODbL-1.0","record_id":"w766549505@1","update_time":"2022-09-16T15:58:28.000Z"}], "is_underground": false, "has_parts": false, "version": 1, "bbox": {"xmin":114.2982177734375,"xmax":114.29862976074219,"ymin":30.595796585083008,"ymax":30.596298217773438}}, "geometry": {"type": "MultiPolygon", "coordinates": [[[[114.2982328,30.5958559],[114.2983648,30.5957973],[114.2986277,30.596236],[114.2984957,30.5962946],[114.2982328,30.5958559]]]]}},
{"type": "Feature", "properties": {"id": "cd92a55e-f3b3-43e0-bb70-03791c119a4a", "sources": [{"property":"","dataset":"doi:10.5281/zenodo.8174931","update_time":"2024-11-01T00:00:00.000Z"}], "is_underground": false, "has_parts": false, "version": 1, "bbox": {"xmin":114.29795837402344,"xmax":114.29822540283203,"ymin":30.595998764038086,"ymax":30.596302032470703}}, "geometry": {"type": "MultiPolygon", "coordinates": [[[[114.2980653,30.5959992],[114.298211,30.5962513],[114.298103,30.5963018],[114.2979613,30.5960527],[114.2979622,30.5960522],[114.2979613,30.5960507],[114.2980653,30.5959992]]]]}},
{"type": "Feature", "properties": {"id": "40b243c3-765f-4493-8823-e200bc22e7a0", "sources": [{"property":"","dataset":"doi:10.5281/zenodo.8174931","update_time":"2024-11-01T00:00:00.000Z"}], "is_underground": false, "has_parts": false, "version": 1, "bbox": {"xmin":114.2979965209961,"xmax":114.29821014404297,"ymin":30.596479415893555,"ymax":30.59665298461914}}, "geometry": {"type": "MultiPolygon", "coordinates": [[[[114.2981985,30.5965945],[114.2980928,30.5966523],[114.2980094,30.5965379],[114.2981151,30.5964802],[114.2981985,30.5965945]]]]}},
{"type": "Feature", "properties": {"id": "76b9cf73-a491-494a-8e2a-e3bd7087f499", "sources": [{"property":"","dataset":"doi:10.5281/zenodo.8174931","update_time":"2024-11-01T00:00:00.000Z"}], "is_underground": false, "has_parts": false, "version": 1, "bbox": {"xmin":114.2979736328125,"xmax":114.2982406616211,"ymin":30.596630096435547,"ymax":30.59680938720703}}, "geometry": {"type": "MultiPolygon", "coordinates": [[[[114.2981906,30.5966301],[114.2982375,30.5967188],[114.2980265,30.5968088],[114.2979746,30.5967202],[114.2981906,30.5966301]]]]}},
{"type": "Feature", "properties": {"id": "2cb30977-031d-4d4b-9d20-08e25e42459f", "sources": [{"property":"","dataset":"doi:10.5281/zenodo.8174931","update_time":"2024-11-01T00:00:00.000Z"}], "is_underground": false, "has_parts": false, "version": 1, "bbox": {"xmin":114.29816436767578,"xmax":114.2984848022461,"ymin":30.596717834472656,"ymax":30.59699821472168}}, "geometry": {"type": "MultiPolygon", "coordinates": [[[[114.2982397,30.5967549],[114.2983076,30.5967214],[114.2984699,30.5969682],[114.2984155,30.596995],[114.2983692,30.5969244],[114.2982469,30.5969846],[114.2981774,30.5968788],[114.298286,30.5968254],[114.2982397,30.5967549]]]]}},
{"type": "Feature", "properties": {"id": "ceeaf66a-69df-43e8-8fde-d4ae515af7be", "sources": [{"property":"","dataset":"doi:10.5281/zenodo.8174931","update_time":"2024-11-01T00:00:00.000Z"}], "is_underground": false, "has_parts": false, "version": 1, "bbox": {"xmin":114.2982177734375,"xmax":114.29834747314453,"ymin":30.5946044921875,"ymax":30.5947265625}}, "geometry": {"type": "MultiPolygon", "coordinates": [[[[114.2982702,30.5946075],[114.2983448,30.5946942],[114.2982947,30.5947265],[114.29822,30.5946397],[114.2982702,30.5946075]]]]}},
{"type": "Feature", "properties": {"id": "cd55e178-5cb4-4f3f-93f5-336979356ee2", "sources": [{"property":"","dataset":"doi:10.5281/zenodo.8174931","update_time":"2024-11-01T00:00:00.000Z"}], "is_underground": false, "has_parts": false, "version": 1, "bbox": {"xmin":114.29795837402344,"xmax":114.29823303222656,"ymin":30.594463348388672,"ymax":30.594633102416992}}, "geometry": {"type": "MultiPolygon", "coordinates": [[[[114.2979965,30.5946326],[114.2979594,30.5945731],[114.2981931,30.5944638],[114.2982302,30.5945233],[114.2979965,30.5946326]]]]}},
{"type": "Feature", "properties": {"id": "0781dc91-c29d-4a4d-8982-955956a8e8f5", "sources": [{"property":"","dataset":"doi:10.5281/zenodo.8174931","update_time":"2024-11-01T00:00:00.000Z"}], "is_underground": false, "has_parts": false, "version": 1, "bbox": {"xmin":114.2979965209961,"xmax":114.29823303222656,"ymin":30.59469223022461,"ymax":30.59495735168457}}, "geometry": {"type": "MultiPolygon", "coordinates": [[[[114.2980108,30.5947287],[114.298112,30.5946929],[114.2982185,30.5949181],[114.2981173,30.5949539],[114.2980108,30.5947287]]]]}},
{"type": "Feature", "properties": {"id": "f1083c31-e045-4baf-b0de-c52179b4e370", "names": {"primary":"武汉市卫生局","rules":[{"variant":"alternate","value":"汉口美最时洋行大楼"},{"variant":"alternate","language":"en","value":"Hankou Melchers & Company Building Former Site"}]}, "sources": [{"property":"","dataset":"OpenStreetMap","license":"ODbL-1.0","record_id":"w1092815748@1","update_time":"2022-09-08T07:57:37.000Z"}], "is_underground": false, "subtype": "civic", "class": "public", "has_parts": false, "version": 1, "bbox": {"xmin":114.29794311523438,"xmax":114.29837036132812,"ymin":30.5952091217041,"ymax":30.59552001953125}}, "geometry": {"type": "MultiPolygon", "coordinates": [[[[114.2981804,30.595441],[114.2980031,30.5955171],[114.297954,30.5954321],[114.2979818,30.5954202],[114.2979439,30.5953548],[114.2982756,30.5952126],[114.2982862,30.5952308],[114.2983022,30.595224],[114.2983684,30.5953384],[114.2982469,30.5953905],[114.2982665,30.5954244],[114.2981898,30.5954573],[114.2981804,30.595441]]]]}},
{"type": "Feature", "properties": {"id": "81314891-ef58-426a-b9fc-b84e43b8d36f", "sources": [{"property":"","dataset":"OpenStreetMap","license":"ODbL-1.0","record_id":"w766549504@1","update_time":"2022-09-08T07:57:37.000Z"}], "is_underground": false, "has_parts": false, "version": 1, "bbox": {"xmin":114.29812622070312,"xmax":114.29840087890625,"ymin":30.595590591430664,"ymax":30.595796585083008}}, "geometry": {"type": "MultiPolygon", "coordinates": [[[[114.2983251,30.5955942],[114.2983876,30.5957269],[114.2981891,30.5957962],[114.2981266,30.5956635],[114.2983251,30.5955942]]]]}},
{"type": "Feature", "properties": {"id": "6d154391-7b8e-4948-aa66-8d04d610a80b", "sources": [{"property":"","dataset":"doi:10.5281/zenodo.8174931","update_time":"2024-11-01T00:00:00.000Z"}], "is_underground": false, "has_parts": false, "version": 1, "bbox": {"xmin":114.2980728149414,"xmax":114.29843139648438,"ymin":30.59539222717285,"ymax":30.595617294311523}}, "geometry": {"type": "MultiPolygon", "coordinates": [[[[114.2983751,30.5953951],[114.2983859,30.5954135],[114.2984287,30.5954873],[114.2981501,30.595617],[114.2980858,30.5955248],[114.2983323,30.5954136],[114.2983751,30.5953951]]]]}},
{"type": "Feature", "properties": {"id": "4fb6750c-ce16-42a7-8c30-f8b2b7cbacdf", "sources": [{"property":"","dataset":"doi:10.5281/zenodo.8174931","update_time":"2024-11-01T00:00:00.000Z"}], "is_underground": false, "has_parts": false, "version": 1, "bbox": {"xmin":114.29886627197266,"xmax":114.29893493652344,"ymin":30.5955867767334,"ymax":30.595638275146484}}, "geometry": {"type": "MultiPolygon", "coordinates": [[[[114.2988664,30.5956103],[114.2988986,30.5955872],[114.29892,30.5956195],[114.2988932,30.595638],[114.2988664,30.5956103]]]]}},
{"type": "Feature", "properties": {"id": "1c4a355f-9271-49de-8cc0-33c1d27296cf", "sources": [{"property":"","dataset":"doi:10.5281/zenodo.8174931","update_time":"2024-11-01T00:00:00.000Z"}], "is_underground": false, "has_parts": false, "version": 1, "bbox": {"xmin":114.29862213134766,"xmax":114.29899597167969,"ymin":30.594968795776367,"ymax":30.59527587890625}}, "geometry": {"type": "MultiPolygon", "coordinates": [[[[114.2989832,30.5951215],[114.298897,30.5951534],[114.2989216,30.5952031],[114.2987347,30.5952722],[114.2986365,30.5950732],[114.2989096,30.5949723],[114.2989832,30.5951215]]]]}},
{"type": "Feature", "properties": {"id": "90e23f46-3156-4117-84cb-cff939aaa7bd", "sources": [{"property":"","dataset":"doi:10.5281/zenodo.8174931","update_time":"2024-11-01T00:00:00.000Z"}], "is_underground": false, "has_parts": false, "version": 1, "bbox": {"xmin":114.29871368408203,"xmax":114.29887390136719,"ymin":30.594411849975586,"ymax":30.594593048095703}}, "geometry": {"type": "MultiPolygon", "coordinates": [[[[114.2987676,30.5944154],[114.2988735,30.5945547],[114.2988065,30.5945921],[114.2987156,30.5944457],[114.2987676,30.5944154]]]]}},
{"type": "Feature", "properties": {"id": "48927a1f-03e4-4d11-9833-5ce948de12cb", "sources": [{"property":"","dataset":"doi:10.5281/zenodo.8174931","update_time":"2024-11-01T00:00:00.000Z"}], "is_underground": false, "has_parts": false, "version": 1, "bbox": {"xmin":114.2983169555664,"xmax":114.29882049560547,"ymin":30.594480514526367,"ymax":30.59491539001465}}, "geometry": {"type": "MultiPolygon", "coordinates": [[[[114.2983308,30.5947673],[114.2986945,30.5946107],[114.2986318,30.5945017],[114.2986738,30.5944837],[114.29882,30.5947378],[114.2984143,30.5949125],[114.2983308,30.5947673]]]]}},
{"type": "Feature", "properties": {"id": "b04b79a2-1b39-47c4-91b7-edc04678748b", "sources": [{"property":"","dataset":"doi:10.5281/zenodo.8174931","update_time":"2024-11-01T00:00:00.000Z"}], "is_underground": false, "has_parts": false, "version": 1, "bbox": {"xmin":114.29844665527344,"xmax":114.2985610961914,"ymin":30.59426498413086,"ymax":30.5943603515625}}, "geometry": {"type": "MultiPolygon", "coordinates": [[[[114.2985594,30.5943121],[114.2984836,30.5943599],[114.2984468,30.5943162],[114.2985225,30.5942684],[114.2985594,30.5943121]]]]}},
{"type": "Feature", "properties": {"id": "9e27783b-cf6d-482c-a8ff-902af884e616", "sources": [{"property":"","dataset":"doi:10.5281/zenodo.8174931","update_time":"2024-11-01T00:00:00.000Z"}], "is_underground": false, "has_parts": false, "version": 1, "bbox": {"xmin":114.29856872558594,"xmax":114.29867553710938,"ymin":30.59441375732422,"ymax":30.594486236572266}}, "geometry": {"type": "MultiPolygon", "coordinates": [[[[114.2986337,30.5944829],[114.2985824,30.5944466],[114.2986104,30.594417],[114.2986617,30.5944533],[114.2986337,30.5944829]]]]}},
{"type": "Feature", "properties": {"id": "cde4f3c0-cccb-4f32-be13-af42ea70c2e5", "names": {"primary":"洞庭苑"}, "sources": [{"property":"","dataset":"OpenStreetMap","license":"ODbL-1.0","record_id":"w1095192330@2","update_time":"2023-04-10T17:21:56.000Z"}], "is_underground": false, "has_parts": false, "version": 1, "bbox": {"xmin":114.29862976074219,"xmax":114.29903411865234,"ymin":30.593624114990234,"ymax":30.59412384033203}}, "geometry": {"type": "MultiPolygon", "coordinates": [[[[114.2988053,30.5936244],[114.2990193,30.5940657],[114.2988578,30.5941237],[114.2986438,30.5936824],[114.2988053,30.5936244]]]]}},
{"type": "Feature", "properties": {"id": "bd2e3a69-bb6a-4690-8eed-dc20c7644bb9", "names": {"primary":"江城明珠豪生大酒店"}, "sources": [{"property":"","dataset":"OpenStreetMap","license":"ODbL-1.0","record_id":"w1095192334@1","update_time":"2022-09-16T15:58:28.000Z"}], "is_underground": false, "has_parts": false, "version": 1, "bbox": {"xmin":114.29824829101562,"xmax":114.29901123046875,"ymin":30.592878341674805,"ymax":30.5935001373291}}, "geometry": {"type": "MultiPolygon", "coordinates": [[[[114.2989964,30.5933097],[114.2984989,30.5935],[114.2984735,30.5934508],[114.2984232,30.59347],[114.2982517,30.5931377],[114.2983019,30.5931185],[114.2982777,30.5930716],[114.2987752,30.5928813],[114.2988387,30.592927],[114.2989899,30.5932198],[114.2989964,30.5933097]]]]}},
{"type": "Feature", "properties": {"id": "0ead8972-3abf-485e-afd7-2cc03ec8e7f0", "sources": [{"property":"","dataset":"OpenStreetMap","license":"ODbL-1.0","record_id":"w1095192342@1","update_time":"2022-09-16T15:58:28.000Z"}], "is_underground": false, "has_parts": false, "version": 1, "bbox": {"xmin":114.29830932617188,"xmax":114.2986831665039,"ymin":30.592021942138672,"ymax":30.592369079589844}}, "geometry": {"type": "MultiPolygon", "coordinates": [[[[114.2986815,30.5922824],[114.298456,30.5923687],[114.2983985,30.5922573],[114.2985035,30.5922171],[114.2984835,30.5921785],[114.2983786,30.5922187],[114.2983217,30.5921086],[114.2985472,30.5920224],[114.2986815,30.5922824]]]]}},
{"type": "Feature", "properties": {"id": "3128d642-3408-4b20-b010-ef093baf0f38", "sources": [{"property":"","dataset":"OpenStreetMap","license":"ODbL-1.0","record_id":"w1095192344@1","update_time":"2022-09-16T15:58:28.000Z"}], "is_underground": false, "has_parts": false, "version": 1, "bbox": {"xmin":114.29833984375,"xmax":114.2985610961914,"ymin":30.592405319213867,"ymax":30.59256935119629}}, "geometry": {"type": "MultiPolygon", "coordinates": [[[[114.2984046,30.5925664],[114.2983514,30.5924634],[114.298494,30.5924088],[114.2985472,30.5925118],[114.2984046,30.5925664]]]]}},
{"type": "Feature", "properties": {"id": "738fcecb-7852-4a2d-9d35-095bc8773eb6", "sources": [{"property":"","dataset":"OpenStreetMap","license":"ODbL-1.0","record_id":"w1095192346@1","update_time":"2022-09-16T15:58:28.000Z"}], "is_underground": false, "has_parts": false, "version": 1, "bbox": {"xmin":114.29843139648438,"xmax":114.29864501953125,"ymin":30.59256935119629,"ymax":30.59278106689453}}, "geometry": {"type": "MultiPolygon", "coordinates": [[[[114.2986431,30.5927294],[114.2985177,30.5927774],[114.2984352,30.5926176],[114.2985606,30.5925696],[114.2986431,30.5927294]]]]}},
{"type": "Feature", "properties": {"id": "86b619ea-0d88-4b39-b31b-16575db77988", "sources": [{"property":"","dataset":"OpenStreetMap","license":"ODbL-1.0","record_id":"w1095192345@1","update_time":"2022-09-16T15:58:28.000Z"}], "is_underground": false, "has_parts": false, "version": 1, "bbox": {"xmin":114.29850769042969,"xmax":114.29878997802734,"ymin":30.592330932617188,"ymax":30.592599868774414}}, "geometry": {"type": "MultiPolygon", "coordinates": [[[[114.2986276,30.5925994],[114.2985204,30.5923918],[114.2986707,30.5923343],[114.2987779,30.5925419],[114.2986276,30.5925994]]]]}},
{"type": "Feature", "properties": {"id": "b75f25ff-b620-43f7-8139-ce999a80ab91", "sources": [{"property":"","dataset":"OpenStreetMap","license":"ODbL-1.0","record_id":"w1095192347@1","update_time":"2022-09-16T15:58:28.000Z"}], "is_underground": false, "has_parts": false, "version": 1, "bbox": {"xmin":114.2982406616211,"xmax":114.2984848022461,"ymin":30.592626571655273,"ymax":30.59286117553711}}, "geometry": {"type": "MultiPolygon", "coordinates": [[[[114.2984827,30.5928008],[114.2983326,30.5928582],[114.2982443,30.592687],[114.2983943,30.5926296],[114.2984827,30.5928008]]]]}},
{"type": "Feature", "properties": {"id": "28818132-d979-4019-8709-e3032bcd1f93", "sources": [{"property":"","dataset":"OpenStreetMap","license":"ODbL-1.0","record_id":"w1095192348@1","update_time":"2022-09-16T15:58:28.000Z"}], "is_underground": false, "has_parts": false, "version": 1, "bbox": {"xmin":114.29813385009766,"xmax":114.29837036132812,"ymin":30.592514038085938,"ymax":30.592683792114258}}, "geometry": {"type": "MultiPolygon", "coordinates": [[[[114.2981368,30.5925788],[114.2983058,30.5925142],[114.2983582,30.5926157],[114.2981893,30.5926803],[114.2981368,30.5925788]]]]}},
{"type": "Feature", "properties": {"id": "286ed9c4-bd7d-4e93-854e-f2877ac0295f", "sources": [{"property":"","dataset":"OpenStreetMap","license":"ODbL-1.0","record_id":"w1095192343@1","update_time":"2022-09-16T15:58:28.000Z"}], "is_underground": false, "has_parts": false, "version": 1, "bbox": {"xmin":114.29823303222656,"xmax":114.29842376708984,"ymin":30.5921630859375,"ymax":30.592369079589844}}, "geometry": {"type": "MultiPolygon", "coordinates": [[[[114.2984217,30.5923305],[114.2983219,30.5923687],[114.298298,30.5923224],[114.2983401,30.5923063],[114.2983064,30.5922412],[114.2982644,30.5922573],[114.2982355,30.5922014],[114.2983353,30.5921632],[114.2984217,30.5923305]]]]}},
{"type": "Feature", "properties": {"id": "679329fa-0012-4db1-be7d-b414e55cad95", "sources": [{"property":"","dataset":"OpenStreetMap","license":"ODbL-1.0","record_id":"w1095192355@1","update_time":"2022-09-16T15:58:28.000Z"}], "is_underground": false, "has_parts": false, "version": 1, "bbox": {"xmin":114.29792785644531,"xmax":114.29827117919922,"ymin":30.592151641845703,"ymax":30.592496871948242}}, "geometry": {"type": "MultiPolygon", "coordinates": [[[[114.2982689,30.5924115],[114.2981073,30.5924934],[114.2979296,30.5922336],[114.2980912,30.5921517],[114.2982689,30.5924115]]]]}},
{"type": "Feature", "properties": {"id": "ac178f78-faf3-4ee9-8341-a75e3128f7a9", "sources": [{"property":"","dataset":"OpenStreetMap","license":"ODbL-1.0","record_id":"w1095192333@1","update_time":"2022-09-16T15:58:28.000Z"}], "is_underground": false, "has_parts": false, "version": 1, "bbox": {"xmin":114.29788970947266,"xmax":114.29827880859375,"ymin":30.59272003173828,"ymax":30.592971801757812}}, "geometry": {"type": "MultiPolygon", "coordinates": [[[[114.2979792,30.5929612],[114.2979628,30.5929476],[114.2979048,30.592857],[114.2981918,30.5927208],[114.2982782,30.5928556],[114.2980432,30.5929672],[114.2980218,30.5929713],[114.2979999,30.5929694],[114.2979792,30.5929612]]]]}},
{"type": "Feature", "properties": {"id": "974b7ec2-0983-41c4-b4ad-cec817938d29", "sources": [{"property":"","dataset":"doi:10.5281/zenodo.8174931","update_time":"2024-11-01T00:00:00.000Z"}], "is_underground": false, "has_parts": false, "version": 1, "bbox": {"xmin":114.2980728149414,"xmax":114.29840850830078,"ymin":30.593687057495117,"ymax":30.593921661376953}}, "geometry": {"type": "MultiPolygon", "coordinates": [[[[114.2983217,30.5936873],[114.2983967,30.5937887],[114.298161,30.5939183],[114.298086,30.5938169],[114.2983217,30.5936873]]]]}},
{"type": "Feature", "properties": {"id": "8706cf4c-eefa-405b-aa67-e4d55f12515e", "names": {"primary":"法国东方汇理银行旧址","common":{"en":"History Site of Banque de I'Indochine in Hankou"}}, "sources": [{"property":"","dataset":"OpenStreetMap","license":"ODbL-1.0","record_id":"w1091893005@2","update_time":"2025-11-13T01:42:25.000Z"}], "is_underground": false, "num_floors": 3, "subtype": "commercial", "class": "commercial", "has_parts": false, "version": 1, "bbox": {"xmin":114.29801177978516,"xmax":114.29826354980469,"ymin":30.59140396118164,"ymax":30.591663360595703}}, "geometry": {"type": "MultiPolygon", "coordinates": [[[[114.2982119,30.591504],[114.2982616,30.5916091],[114.2981006,30.5916633],[114.2980309,30.5915109],[114.2980456,30.591504],[114.2980238,30.5914578],[114.2981623,30.5914044],[114.2982119,30.591504]]]]}},
{"type": "Feature", "properties": {"id": "a3b872c7-7ddb-46bb-b49a-d57f97844e21", "sources": [{"property":"","dataset":"OpenStreetMap","license":"ODbL-1.0","record_id":"w1095192340@1","update_time":"2022-09-16T15:58:28.000Z"}], "is_underground": false, "has_parts": false, "version": 1, "bbox": {"xmin":114.29806518554688,"xmax":114.29825592041016,"ymin":30.591835021972656,"ymax":30.592041015625}}, "geometry": {"type": "MultiPolygon", "coordinates": [[[[114.2982543,30.5920027],[114.2981545,30.5920408],[114.2981306,30.5919946],[114.2981726,30.5919785],[114.298139,30.5919133],[114.2980969,30.5919294],[114.2980681,30.5918735],[114.2981679,30.5918353],[114.2982543,30.5920027]]]]}},
{"type": "Feature", "properties": {"id": "bbf6a5ce-1c43-492c-b75b-32825413f3a3", "sources": [{"property":"","dataset":"OpenStreetMap","license":"ODbL-1.0","record_id":"w1095192341@1","update_time":"2022-09-16T15:58:28.000Z"}], "is_underground": false, "has_parts": false, "version": 1, "bbox": {"xmin":114.29814147949219,"xmax":114.29851531982422,"ymin":30.591693878173828,"ymax":30.592041015625}}, "geometry": {"type": "MultiPolygon", "coordinates": [[[[114.298514,30.5919546],[114.2982886,30.5920408],[114.2982311,30.5919294],[114.298336,30.5918893],[114.2983161,30.5918507],[114.2982111,30.5918908],[114.2981543,30.5917808],[114.2983798,30.5916945],[114.298514,30.5919546]]]]}},
{"type": "Feature", "properties": {"id": "99f710e8-1ade-4555-a383-3b86dcbe3176", "sources": [{"property":"","dataset":"doi:10.5281/zenodo.8174931","update_time":"2024-11-01T00:00:00.000Z"}], "is_underground": false, "has_parts": false, "version": 1, "bbox": {"xmin":114.29891967773438,"xmax":114.29906463623047,"ymin":30.591785430908203,"ymax":30.591917037963867}}, "geometry": {"type": "MultiPolygon", "coordinates": [[[[114.2989961,30.5917887],[114.29905,30.5918824],[114.298978,30.5919138],[114.2989231,30.5918211],[114.2989961,30.5917887]]]]}},
{"type": "Feature", "properties": {"id": "53977b5c-3f2e-4eb0-b21d-257337ecda48", "sources": [{"property":"","dataset":"doi:10.5281/zenodo.8174931","update_time":"2024-11-01T00:00:00.000Z"}], "is_underground": false, "has_parts": false, "version": 1, "bbox": {"xmin":114.2987289428711,"xmax":114.29883575439453,"ymin":30.591264724731445,"ymax":30.591358184814453}}, "geometry": {"type": "MultiPolygon", "coordinates": [[[[114.2987887,30.5912683],[114.2988206,30.59134],[114.2987736,30.5913553],[114.2987417,30.5912845],[114.2987887,30.5912683]]]]}},
{"type": "Feature", "properties": {"id": "9a9d33b5-412e-40a1-9301-2a2433f700da", "sources": [{"property":"","dataset":"doi:10.5281/zenodo.8174931","update_time":"2024-11-01T00:00:00.000Z"}], "is_underground": false, "has_parts": false, "version": 1, "bbox": {"xmin":114.29934692382812,"xmax":114.29964447021484,"ymin":30.590862274169922,"ymax":30.5910587310791}}, "geometry": {"type": "MultiPolygon", "coordinates": [[[[114.2994609,30.5908625],[114.2996439,30.5908893],[114.2996278,30.5909433],[114.2995628,30.5909697],[114.2995037,30.5910581],[114.2993488,30.5909671],[114.2994609,30.5908625]]]]}},
{"type": "Feature", "properties": {"id": "c667e943-a20e-4af2-aecb-2053f430185d", "sources": [{"property":"","dataset":"doi:10.5281/zenodo.8174931","update_time":"2024-11-01T00:00:00.000Z"}], "is_underground": false, "has_parts": false, "version": 1, "bbox": {"xmin":114.29923248291016,"xmax":114.2993392944336,"ymin":30.592477798461914,"ymax":30.59254264831543}}, "geometry": {"type": "MultiPolygon", "coordinates": [[[[114.2993084,30.5924784],[114.2993264,30.5925193],[114.2992654,30.5925396],[114.2992474,30.5924988],[114.2993084,30.5924784]]]]}},
{"type": "Feature", "properties": {"id": "d22d07d5-6131-4e2d-8aca-c946e7b80e2b", "sources": [{"property":"","dataset":"doi:10.5281/zenodo.8174931","update_time":"2024-11-01T00:00:00.000Z"}], "is_underground": false, "has_parts": false, "version": 1, "bbox": {"xmin":114.2989730834961,"xmax":114.29911804199219,"ymin":30.592973709106445,"ymax":30.593143463134766}}, "geometry": {"type": "MultiPolygon", "coordinates": [[[[114.299019,30.5929739],[114.2991048,30.5931213],[114.2990618,30.5931405],[114.298975,30.5929931],[114.299019,30.5929739]]]]}},
{"type": "Feature", "properties": {"id": "066e5f78-a68f-4956-a4fc-353c3fef821c", "sources": [{"property":"","dataset":"doi:10.5281/zenodo.8174931","update_time":"2024-11-01T00:00:00.000Z"}], "is_underground": false, "has_parts": false, "version": 1, "bbox": {"xmin":114.2990493774414,"xmax":114.2990951538086,"ymin":30.593156814575195,"ymax":30.593252182006836}}, "geometry": {"type": "MultiPolygon", "coordinates": [[[[114.2990611,30.5931598],[114.2990932,30.5932244],[114.299061,30.5932521],[114.2990611,30.5931598]]]]}},
{"type": "Feature", "properties": {"id": "82a520a3-c327-4280-aa7c-5ec90833be00", "names": {"primary":"立兴洋行汉口分行旧办公楼及仓库旧址"}, "sources": [{"property":"","dataset":"OpenStreetMap","license":"ODbL-1.0","record_id":"w1095192332@2","update_time":"2022-10-06T15:35:13.000Z"}], "is_underground": false, "has_parts": false, "version": 1, "bbox": {"xmin":114.2989730834961,"xmax":114.2992935180664,"ymin":30.5933780670166,"ymax":30.593690872192383}}, "geometry": {"type": "MultiPolygon", "coordinates": [[[[114.2992922,30.5936188],[114.2991024,30.5936871],[114.2989871,30.5934492],[114.2991769,30.593381],[114.2992922,30.5936188]]]]}},
{"type": "Feature", "properties": {"id": "2e8a98d8-068d-4779-98b1-e54186536f38", "sources": [{"property":"","dataset":"doi:10.5281/zenodo.8174931","update_time":"2024-11-01T00:00:00.000Z"}], "is_underground": false, "has_parts": false, "version": 1, "bbox": {"xmin":114.30010223388672,"xmax":114.30020904541016,"ymin":30.59300994873047,"ymax":30.593076705932617}}, "geometry": {"type": "MultiPolygon", "coordinates": [[[[114.3001828,30.5930103],[114.3001938,30.5930642],[114.3001128,30.5930758],[114.3001038,30.5930199],[114.3001828,30.5930103]]]]}},
{"type": "Feature", "properties": {"id": "ef4b724d-61ac-4773-97e0-fd5d5dec643a", "sources": [{"property":"","dataset":"doi:10.5281/zenodo.8174931","update_time":"2024-11-01T00:00:00.000Z"}], "is_underground": false, "has_parts": false, "version": 1, "bbox": {"xmin":114.2995834350586,"xmax":114.2996826171875,"ymin":30.5920467376709,"ymax":30.592151641845703}}, "geometry": {"type": "MultiPolygon", "coordinates": [[[[114.2996088,30.5920468],[114.2996807,30.5921363],[114.2996587,30.5921484],[114.2995868,30.5920609],[114.2996088,30.5920468]]]]}},
{"type": "Feature", "properties": {"id": "09234b8d-ef4c-4561-b335-ef6c0b4ac437", "sources": [{"property":"","dataset":"doi:10.5281/zenodo.8174931","update_time":"2024-11-01T00:00:00.000Z"}], "is_underground": false, "has_parts": false, "version": 1, "bbox": {"xmin":114.30217742919922,"xmax":114.30227661132812,"ymin":30.59351348876953,"ymax":30.59360694885254}}, "geometry": {"type": "MultiPolygon", "coordinates": [[[[114.302243,30.5935143],[114.3022752,30.5935604],[114.3022109,30.5936067],[114.3021788,30.5935698],[114.302243,30.5935143]]]]}},
{"type": "Feature", "properties": {"id": "a0261a76-76b6-4b8a-b19b-9738d0c6bd35", "sources": [{"property":"","dataset":"doi:10.5281/zenodo.8174931","update_time":"2024-11-01T00:00:00.000Z"}], "is_underground": false, "has_parts": false, "version": 1, "bbox": {"xmin":114.30194091796875,"xmax":114.30206298828125,"ymin":30.593612670898438,"ymax":30.593767166137695}}, "geometry": {"type": "MultiPolygon", "coordinates": [[[[114.3019966,30.5936163],[114.3020609,30.593727],[114.3020073,30.593764],[114.301943,30.5936533],[114.3019966,30.5936163]]]]}},
{"type": "Feature", "properties": {"id": "c7558555-31c2-4e04-b40a-d04ca821b5d4", "sources": [{"property":"","dataset":"OpenStreetMap","license":"ODbL-1.0","record_id":"w1056629970@1","update_time":"2022-05-02T13:32:24.000Z"}], "is_underground": false, "has_parts": false, "version": 1, "bbox": {"xmin":114.30186462402344,"xmax":114.30229949951172,"ymin":30.592992782592773,"ymax":30.593320846557617}}, "geometry": {"type": "MultiPolygon", "coordinates": [[[[114.3021803,30.5933203],[114.3019693,30.5933079],[114.3018762,30.5931443],[114.3019942,30.5929932],[114.3022053,30.5930056],[114.3022983,30.5931691],[114.3021803,30.5933203]]]]}},
{"type": "Feature", "properties": {"id": "c19da7c3-bc35-4c6f-9ef4-641343c355de", "sources": [{"property":"","dataset":"doi:10.5281/zenodo.8174931","update_time":"2024-11-01T00:00:00.000Z"}], "is_underground": false, "has_parts": false, "version": 1, "bbox": {"xmin":114.30207061767578,"xmax":114.3021469116211,"ymin":30.593326568603516,"ymax":30.593395233154297}}, "geometry": {"type": "MultiPolygon", "coordinates": [[[[114.3021359,30.5933299],[114.3021466,30.5933945],[114.3020823,30.5933946],[114.3020824,30.5933392],[114.3021359,30.5933299]]]]}},
{"type": "Feature", "properties": {"id": "05b9fb56-fc14-4619-9079-412e23e209fb", "sources": [{"property":"","dataset":"doi:10.5281/zenodo.8174931","update_time":"2024-11-01T00:00:00.000Z"}], "is_underground": false, "has_parts": false, "version": 1, "bbox": {"xmin":114.30181121826172,"xmax":114.3019027709961,"ymin":30.593210220336914,"ymax":30.593284606933594}}, "geometry": {"type": "MultiPolygon", "coordinates": [[[[114.3018788,30.5932103],[114.3019002,30.5932657],[114.3018359,30.5932842],[114.3018145,30.5932381],[114.3018788,30.5932103]]]]}},
{"type": "Feature", "properties": {"id": "e2093805-0009-481c-a701-acf74eed4903", "sources": [{"property":"","dataset":"doi:10.5281/zenodo.8174931","update_time":"2024-11-01T00:00:00.000Z"}], "is_underground": false, "has_parts": false, "version": 1, "bbox": {"xmin":114.30168151855469,"xmax":114.30177307128906,"ymin":30.59372901916504,"ymax":30.59380340576172}}, "geometry": {"type": "MultiPolygon", "coordinates": [[[[114.3017324,30.5937319],[114.3017594,30.5937876],[114.3017234,30.5937999],[114.3016964,30.5937442],[114.3017324,30.5937319]]]]}},
{"type": "Feature", "properties": {"id": "9adf947e-93f1-44f3-9be9-b9f3b544b797", "sources": [{"property":"","dataset":"doi:10.5281/zenodo.8174931","update_time":"2024-11-01T00:00:00.000Z"}], "is_underground": false, "has_parts": false, "version": 1, "bbox": {"xmin":114.30155181884766,"xmax":114.30170440673828,"ymin":30.595815658569336,"ymax":30.59598159790039}}, "geometry": {"type": "MultiPolygon", "coordinates": [[[[114.3016333,30.5958164],[114.3017022,30.5959477],[114.3016211,30.5959784],[114.3015522,30.5958471],[114.3016333,30.5958164]]]]}},
{"type": "Feature", "properties": {"id": "03a20d93-e7cb-4f2f-81ca-da127678f9fa", "sources": [{"property":"","dataset":"doi:10.5281/zenodo.8174931","update_time":"2024-11-01T00:00:00.000Z"}], "is_underground": false, "has_parts": false, "version": 1, "bbox": {"xmin":114.3014144897461,"xmax":114.30155944824219,"ymin":30.59665298461914,"ymax":30.596769332885742}}, "geometry": {"type": "MultiPolygon", "coordinates": [[[[114.3015084,30.5966539],[114.3015573,30.5967184],[114.3014652,30.5967692],[114.3014173,30.5967026],[114.3015084,30.5966539]]]]}},
{"type": "Feature", "properties": {"id": "f4a44105-948d-4ecd-ae15-b0832617076d", "sources": [{"property":"","dataset":"doi:10.5281/zenodo.8174931","update_time":"2024-11-01T00:00:00.000Z"}], "is_underground": false, "has_parts": false, "version": 1, "bbox": {"xmin":114.30195617675781,"xmax":114.30207824707031,"ymin":30.595735549926758,"ymax":30.5958309173584}}, "geometry": {"type": "MultiPolygon", "coordinates": [[[[114.3020415,30.595736],[114.3020775,30.5957896],[114.3019944,30.5958303],[114.3019584,30.5957787],[114.3020415,30.595736]]]]}}]}