{"type":"FeatureCollection","features":[{"type":"Feature","geometry":{"bbox":[113.69685363800022,29.985942840000007,115.07062530400003,31.36400032200004],"type":"Polygon","coordinates":[[[114.56293487500034,30.49972152700019],[114.5728225700002,30.495500565000157],[114.57894897500023,30.488870621000164],[114.5809478760001,30.479345322000086],[114.57481384300002,30.45099258400006],[114.57483673200022,30.44076347400011],[114.57582092300004,30.42062187300007],[114.58026123100001,30.41341209500001],[114.57727050800031,30.405866624],[114.58705902200006,30.33786583000006],[114.5852127080002,30.308101653000165],[114.57728576700003,30.29089546200004],[114.56256103400005,30.27596855200005],[114.550498962,30.259885789000123],[114.54249572700007,30.25306510900015],[114.53747558600014,30.24469757200012],[114.53474426300022,30.22538757300015],[114.52744293100022,30.207689285000015],[114.50556945900018,30.186765670000113],[114.49947357300005,30.168647766000106],[114.49556732200006,30.129491806000093],[114.4966506960002,30.119621276000146],[114.51882171700015,30.09724998500019],[114.52945709300025,30.080778121000098],[114.53590393000015,30.06556892300006],[114.53277587900004,30.056512834000106],[114.53633880600023,30.038225174000107],[114.5333480830003,30.034696579000073],[114.53206634500009,30.03537941100012],[114.5294494630001,30.03460693500011],[114.52875518800022,30.032289506000158],[114.52938079900002,30.02964401200012],[114.5219955440001,30.012889862000122],[114.51969909600018,29.994655610000052],[114.51799011300022,29.99317932100007],[114.51390838700001,29.98983573900017],[114.51108551000016,29.987909317000117],[114.5069351200001,29.985942840000007],[114.49868011600006,29.98751068100017],[114.48685455400005,29.99240303000005],[114.48073578000003,29.993354797000162],[114.47334289600008,29.993341446000045],[114.4669723500001,29.994052887000006],[114.46367645300029,29.9945755010001],[114.45585632400014,30.00046157800011],[114.44877624500009,30.003145218000157],[114.44618225100021,30.004386901000085],[114.44532775800008,30.004724502000045],[114.42962646500007,30.01715087900016],[114.41992950500003,30.02140235900003],[114.39864349300001,30.02577781600013],[114.39630126900022,30.026552200000086],[114.39526367200006,30.02703094500015],[114.39012908900008,30.02961540300015],[114.38479614200014,30.030815125000117],[114.38307189900002,30.030929565000175],[114.37841796800001,30.03247070300012],[114.3560562130001,30.034450530000072],[114.30125427200005,30.0263118740001],[114.27008819600007,30.017908097000088],[114.26046752900015,30.013437271000047],[114.25482177700019,30.005239486000054],[114.24585723900009,30.000558854000186],[114.24325561500007,29.998048782000183],[114.24225616500019,29.997570037000063],[114.23892211900024,29.995391845000142],[114.23580169700006,29.994367599000157],[114.23266601600005,29.993570327000104],[114.22949981700003,29.993463517000126],[114.2265319830002,29.9947376240001],[114.22437286400009,29.99581146200012],[114.21675872800006,30.000593186000174],[114.21104431200024,30.004299165000134],[114.20700073300009,30.005996704000154],[114.20385742100007,30.007787705000116],[114.20320892300003,30.008157730000107],[114.20348358100023,30.00901794400005],[114.20621490400003,30.017440796000074],[114.20568847600009,30.023384094000168],[114.20495605500003,30.027717590000066],[114.2031707760002,30.03224563700013],[114.20004272400001,30.036956787000065],[114.19696807800017,30.040748595000082],[114.1947937010001,30.042051316000144],[114.19231414700016,30.044260025000025],[114.18955230800009,30.046918869000084],[114.18787383900008,30.048923493000018],[114.18641662600022,30.05185508800003],[114.18614959800016,30.052579880000163],[114.18550872800006,30.05434799200009],[114.1855392450002,30.054479599000047],[114.18638610900007,30.058277131000185],[114.18652343800035,30.061035156000003],[114.18851470900017,30.06385994100009],[114.19074249300013,30.067148210000088],[114.19246673700013,30.069957734000013],[114.19392395000035,30.072763443000103],[114.19480895900017,30.076465607000163],[114.19524383500004,30.078544616000162],[114.19592285100009,30.081089019999983],[114.19602203400007,30.08476448000016],[114.1953353890002,30.088182449999977],[114.19335937600022,30.090866089000087],[114.19063568100012,30.092607498000007],[114.18796539300001,30.09320259100014],[114.1783676140002,30.094936372000173],[114.17558288600003,30.098049165000077],[114.1707839960003,30.09880256600013],[114.16776275700033,30.101217271000166],[114.16423034600018,30.103393556000185],[114.16332244900013,30.10588455200008],[114.1575851450001,30.10981369100017],[114.15393829400023,30.114278793000153],[114.1532135000001,30.115499496000155],[114.15193176300022,30.11764526400009],[114.14888000500014,30.12075042700002],[114.14547729500009,30.125680923000118],[114.14453125100022,30.129087447000078],[114.1440887450002,30.132974624000095],[114.14495086800002,30.137132644000076],[114.14557647700019,30.1391448980001],[114.14610290500002,30.14084243800005],[114.146202087,30.14451789800006],[114.14577484100005,30.147945404000154],[114.14323425300017,30.15152549800007],[114.14016723600014,30.154859543000157],[114.13545990000023,30.158803940000098],[114.13438415500013,30.159704209000093],[114.12884521500008,30.165018081000085],[114.12523651100014,30.170349121000132],[114.12429809500009,30.171741486000144],[114.12169647300016,30.176469803000092],[114.11936187700007,30.181205749000075],[114.1173629750001,30.18434333900018],[114.11479187000009,30.188386918000162],[114.11333465600012,30.191316606000104],[114.11155700800009,30.19538116400014],[114.10983276500019,30.198303223000043],[114.10783386100002,30.20144653300008],[114.10530853300008,30.204568864000066],[114.10258484000008,30.20607757500011],[114.09959411500019,30.20780944900002],[114.09564972000021,30.20721054100005],[114.09147644000006,30.205915452000117],[114.08786010800031,30.203952790000073],[114.0846481320001,30.204757691000115],[114.08056640600012,30.207138062000183],[114.07803344700005,30.210258483000192],[114.0742187510001,30.212648392999995],[114.07099151700004,30.213682174000045],[114.06699371300022,30.21422767700011],[114.06248474100016,30.21429443500017],[114.05655670100009,30.210874557000185],[114.05321502700019,30.20869064300013],[114.04853820800008,30.206918717000068],[114.04557800400006,30.20795822100007],[114.0422973630001,30.210136412999987],[114.04110717700007,30.212846757000076],[114.04047393700012,30.21512031600002],[114.03982543900008,30.217618943000048],[114.0394668580002,30.22037315500006],[114.03940582200005,30.220817566000107],[114.03660583600004,30.224157334000044],[114.03437805200008,30.226375581000188],[114.03245544400022,30.227909088000164],[114.02994537400002,30.230573655000057],[114.02821350000022,30.232093811000087],[114.0271835320001,30.23299789400005],[114.0249023450001,30.236360549000153],[114.02343749900001,30.239288331000125],[114.02251434300001,30.24201011600019],[114.02129364100007,30.245407105000144],[114.01954650900018,30.248786926000097],[114.01750183100023,30.252840041000127],[114.01517486600017,30.25711822400018],[114.0149536140002,30.257644654000046],[114.01367950400005,30.260734559000184],[114.01168823300009,30.26364517200005],[114.00914764400011,30.266994477000143],[114.00634765600012,30.27010536300014],[114.00000000000011,30.273965836000063],[113.99472045800007,30.277500152000133],[113.9905929570001,30.28087043700003],[113.98692321800013,30.283983231000146],[113.98271179300014,30.28670883300009],[113.97898101800025,30.289178849000166],[113.97461700400015,30.29278564499998],[113.96987152100019,30.295118332000186],[113.9660491950001,30.296726228000185],[113.95944976800001,30.29812622100008],[113.9520416260001,30.29893875099998],[113.94554901100014,30.29941940400005],[113.94156646700014,30.29932785000011],[113.93551635700011,30.29874992500004],[113.93093109100016,30.297813416000054],[113.9246673580003,30.295282365000162],[113.91819763200021,30.292795181000088],[113.91327667200005,30.290519714000027],[113.91132354800004,30.28852272100005],[113.90804290700032,30.28634262100019],[113.9058380130001,30.284582139000182],[113.90387725900007,30.282583237000154],[113.90247345000023,30.28056717000004],[113.90049743600014,30.27811050500009],[113.89878082300015,30.275417328999993],[113.89736175600001,30.273399352000126],[113.89592742900015,30.271154404000182],[113.89475250100008,30.268671036000054],[113.89302063000004,30.26574897800003],[113.8914184570001,30.26217079100019],[113.88929748600003,30.25865173400007],[113.88800811800024,30.255937576000008],[113.88670349100006,30.253005981],[113.88545990100023,30.250719072000095],[113.88419342100019,30.24822044500019],[113.88287353500004,30.245075224999994],[113.88194274900013,30.241029740000045],[113.88020324700007,30.236398698000016],[113.87866211000005,30.231319428000063],[113.87503051700004,30.227706909000005],[113.87011718700012,30.223764419000137],[113.86820984000009,30.222181320000175],[113.86644745000012,30.219722747000052],[113.86434936400008,30.216417312000033],[113.86280059900014,30.213230133000025],[113.86155700600013,30.20937156700012],[113.86165618800021,30.20592689500006],[113.8587265010002,30.205566406000173],[113.85582733200022,30.205667496000164],[113.85208129900013,30.20487785400002],[113.84729004000008,30.204351426000187],[113.84187316800023,30.201782226000034],[113.8358001710002,30.196481705000167],[113.8321533200002,30.19178771999998],[113.82714843800011,30.18690872200006],[113.82666015600023,30.186649322000104],[113.82227325500025,30.184320450000143],[113.82185363800012,30.18447113000019],[113.82018280000023,30.18507766800008],[113.81810760500002,30.186067582000135],[113.81530761600004,30.188455582000188],[113.81371307400013,30.19401931699997],[113.81251525800019,30.197853089000088],[113.81140136800002,30.201440810000065],[113.81079864500009,30.2043819430001],[113.80988311700003,30.20883560200014],[113.80774688700001,30.214185715000042],[113.80354309000029,30.220525742000117],[113.79824066100002,30.226213455999982],[113.79148864700005,30.22919464100005],[113.78742981000005,30.233232498000064],[113.7843551630001,30.234283447000053],[113.78221893300008,30.23501586900011],[113.77710723900009,30.23931884800004],[113.77416229300002,30.244234085000077],[113.77417755100021,30.250431061000146],[113.7768478390002,30.25676536500004],[113.78002166800013,30.262395859000147],[113.78020477300026,30.26293373200014],[113.78156280500002,30.266933442000155],[113.7835006710003,30.274671554000008],[113.78457641600005,30.281059266000113],[113.78273010200007,30.286861420000037],[113.77694702100018,30.287973405000116],[113.77031707800006,30.287965774999975],[113.76328277600021,30.290496826000094],[113.75878143200009,30.29064560000012],[113.7565460200002,30.29351997499998],[113.75602722100018,30.294181824000134],[113.75434112600021,30.29790878300003],[113.75392150900007,30.3061866760001],[113.75417327900004,30.311637879000045],[113.75422668400017,30.312828065000076],[113.75408935500002,30.321554184000092],[113.75357055600023,30.32753944400008],[113.75192260800009,30.332183839000034],[113.74864959700005,30.335964204000106],[113.74394226200026,30.33749961800009],[113.74208068900032,30.338106156000038],[113.7384567250001,30.339288711999988],[113.73547363300008,30.343517303],[113.7353668200002,30.347421646000043],[113.73587799100017,30.352682115000164],[113.73800659100004,30.358577728000117],[113.7382507330002,30.359157563000053],[113.73979187000022,30.362880707000045],[113.73976898100024,30.368158340000036],[113.73780059900002,30.37166404700008],[113.73207092300004,30.373920440000177],[113.72577667300015,30.375507354000035],[113.71885681100025,30.375278473000037],[113.71135711700003,30.379428863000044],[113.70570373500017,30.383285524000026],[113.70044708300009,30.39057350300004],[113.69880676200012,30.39521789500009],[113.69825744600018,30.396263122000168],[113.69685363800022,30.39895248499999],[113.70014953700003,30.40159606900011],[113.7014465330002,30.402675630000147],[113.70704650800019,30.407337188000046],[113.71103668200011,30.41340065000009],[113.71231842000009,30.418405532000122],[113.71231079200015,30.424142837999966],[113.71199798500017,30.42897415200008],[113.71552276500006,30.430465699000077],[113.72141265900018,30.431646347000083],[113.72701263400018,30.432149888000087],[113.73172760000034,30.430845260000126],[113.73623657300016,30.430694580000136],[113.74083709700007,30.43157768200018],[113.7413330070001,30.431669236000122],[113.74616241400008,30.433120729000052],[113.75251007100007,30.43841362000018],[113.75308990500014,30.43894386400018],[113.75998687600031,30.445278169000172],[113.76612091100003,30.451499940000073],[113.7765884390002,30.459867477000103],[113.78488922100007,30.467163087000134],[113.78963470500014,30.471408843000066],[113.79660034200015,30.479391097000075],[113.79817199800016,30.481533050000113],[113.80284118700003,30.487901688000193],[113.81330871500018,30.496038437000095],[113.82227325500025,30.506061554000098],[113.82730865600024,30.511629105000054],[113.82996368500005,30.517274857000185],[113.83180999700005,30.52271843000005],[113.83379364000018,30.525409699000022],[113.83954620400004,30.52934265100004],[113.84359741200012,30.530580521000104],[113.84641265900007,30.53392791800007],[113.85025787400014,30.536550523000074],[113.85266113400007,30.536928178000156],[113.85576629700006,30.535213471000137],[113.85881805500014,30.532127381000066],[113.86189269900012,30.52972793600003],[113.86657714800003,30.52750205900014],[113.87156677200007,30.5264148710001],[113.87320709200004,30.533014297000083],[113.87433624200003,30.540088654000158],[113.87486267200006,30.545579911000065],[113.87558746300012,30.5496845240001],[113.87637329000017,30.55493354700019],[113.87904358000014,30.561037063000185],[113.88114166300011,30.56624603200015],[113.88478851400009,30.570251465000187],[113.88893127400024,30.573551179000162],[113.89372253300007,30.573617935000186],[113.89842224100016,30.57242584200003],[113.89969635000011,30.572101594000063],[113.90001678500006,30.57202148500005],[113.90585327100018,30.57159233000016],[113.90962982100018,30.57283973600016],[113.91474914600019,30.574270248000065],[113.91999053900021,30.57764053400001],[113.92500305100009,30.582866669000172],[113.92949676400008,30.58821678200007],[113.93209838900009,30.592487335000044],[113.93386077900004,30.596097946000043],[113.93547058200011,30.602006913000025],[113.93359374900001,30.60712242200009],[113.93199157600009,30.612684251000076],[113.93109130900007,30.61615753100006],[113.93128967300015,30.620281219000052],[113.93316650400027,30.626411439000098],[113.93679809600019,30.629959107000165],[113.93984222400002,30.632377624000185],[113.94138336100002,30.636915206000086],[113.93697357200017,30.639131545000055],[113.93096923800022,30.63978386000014],[113.93059539800005,30.64006805400004],[113.92709350700012,30.642755510000143],[113.92352294900002,30.645641327000078],[113.92362213200033,30.647703172000092],[113.92519378700013,30.652458192000044],[113.92828369200004,30.655557632000182],[113.93225860600013,30.660453797000173],[113.93560028000002,30.66330909800007],[113.93708038200009,30.666236878000003],[113.93990325900018,30.669343948000066],[113.94053649900002,30.670234680000082],[113.94275665300017,30.673362732000047],[113.94379425000011,30.676496505999978],[113.95111084000018,30.690565110000197],[113.94077301000027,30.694877625],[113.94027710000012,30.695301057000048],[113.93837738000013,30.696466447000034],[113.93682098500005,30.697444915000176],[113.93395233100023,30.698236465000093],[113.93183898900008,30.698545456000033],[113.928123475,30.69868469300007],[113.92529297000021,30.698791503000056],[113.91967010400003,30.699922561000168],[113.91866302400001,30.700874328000165],[113.91694641100003,30.70392036400011],[113.91352844300002,30.709783553000193],[113.91158294700017,30.713293075000134],[113.90991210900006,30.717029573000048],[113.90148925700021,30.713674546000163],[113.89862060500002,30.712968827000168],[113.89745330800021,30.712678909000143],[113.89367675800031,30.71190071200016],[113.8919067380001,30.71357154800017],[113.89092254700006,30.715215683000057],[113.8892288200002,30.71848869400009],[113.88941955600001,30.72215080300009],[113.88897705100021,30.724006652000128],[113.88976287800017,30.728790284000127],[113.88983154300001,30.730163575000176],[113.89466858000014,30.731132508000147],[113.89781189000018,30.729011537000073],[113.89826965300007,30.72870254500009],[113.90081024200003,30.726314545000037],[113.90583038300008,30.72566795300014],[113.90965271000005,30.727361679000126],[113.91216278000002,30.729560852000137],[113.91356659000007,30.731342316000053],[113.91397094700005,30.733848571000067],[113.91414642300016,30.737285614000147],[113.91513824400022,30.740917207000162],[113.915733337,30.74731826700008],[113.91771698000002,30.754814148000037],[113.91817474400011,30.756286622],[113.91996002200005,30.762067796000167],[113.92150879000008,30.76447105400007],[113.92469024700017,30.7673721320001],[113.93128967300015,30.771732331000184],[113.93544769300013,30.775260926000048],[113.93932342500011,30.778339386000027],[113.9466171270001,30.78038024900019],[113.95163726900012,30.77951812800018],[113.95716857900015,30.778179168000065],[113.96434021000016,30.77769851800008],[113.9710311880001,30.778385163000166],[113.97891998300008,30.78178215000014],[113.98223114000007,30.784189225000034],[113.9879684440001,30.78720283600012],[113.99346923900009,30.790679932000042],[113.99697113100012,30.7914752960001],[113.99960327200017,30.790607453000177],[114.00000000000011,30.790477752000186],[114.00843811100015,30.78931808500005],[114.01275634800004,30.78809356800008],[114.01813507000031,30.786909105000063],[114.0221710200001,30.78613662800018],[114.02779388500007,30.785419465000075],[114.03314971900033,30.78492355400016],[114.03823852500022,30.78418541000019],[114.04411316000005,30.783933640000154],[114.04570007200005,30.783901214000142],[114.05237579300001,30.783767700000116],[114.05561065600011,30.782962800000124],[114.06283569300001,30.782304764000177],[114.06764984100016,30.781784056999978],[114.07164001500007,30.78192520100015],[114.07566070600012,30.78137779300016],[114.08019256600005,30.781309127000156],[114.08500671400009,30.780788423000043],[114.09064483600002,30.77983856300017],[114.09497070300006,30.778385163000166],[114.09655761800002,30.77796745300003],[114.09955596800012,30.77717018099997],[114.10490417400013,30.775110244000185],[114.10569763100011,30.772630691000078],[114.11049652100019,30.770589828000087],[114.11342620800008,30.769910813000138],[114.11713409400024,30.772676468000043],[114.12113189700017,30.771545410000105],[114.13122558500004,30.774333953000166],[114.1382827750001,30.773479463000175],[114.1495895380001,30.772111894000087],[114.16043853800034,30.76823043900015],[114.16291046200001,30.767347336],[114.16843414300013,30.763246536000164],[114.16799926800013,30.771289825000167],[114.16858673100012,30.775896073000073],[114.16886901900023,30.781181336000145],[114.1694030760001,30.783262254000196],[114.16999816900022,30.78558159000005],[114.17039489800004,30.788578033000082],[114.17049408000014,30.79224968000005],[114.17059326200001,30.795923232000064],[114.17173767100007,30.79986000100013],[114.17369079700006,30.803827285000068],[114.17482757500011,30.806449890000124],[114.17561340200007,30.808252335000134],[114.17733764600007,30.81129455500013],[114.17948150600012,30.816871644000173],[114.17956543000004,30.822227477000183],[114.17573547300026,30.824655533000165],[114.1680450450001,30.82953071700013],[114.16609954900002,30.834310531000025],[114.16649627700019,30.842332840000036],[114.1653900150003,30.84460258600012],[114.16294097800005,30.863113403000057],[114.15774536200014,30.886621474999966],[114.1576843270001,30.88982391500008],[114.16159820500015,30.89468193000016],[114.15969085600011,30.897405625000037],[114.16045379700006,30.89947319000009],[114.1585311890002,30.90265464800007],[114.14939880400016,30.907112122000115],[114.15243530300006,30.916305543000075],[114.14990997300004,30.92382812600016],[114.15486908000014,30.929840087999995],[114.16004181000005,30.93860626300011],[114.15295410100009,30.947898866000116],[114.1547241210003,30.95364570600009],[114.16024017400014,30.95806312500008],[114.16153717000009,30.960367203000146],[114.1696624760001,30.968252182000185],[114.17064666700003,30.97045326300014],[114.1732559190001,30.97631073000008],[114.17469787700009,30.985712051000178],[114.1743850700002,30.988225938000088],[114.17300415000011,30.98940277100019],[114.16355896000005,30.99747085600012],[114.16137695300006,31.000417710000026],[114.1583251950002,31.00747680800004],[114.15827179000007,31.010450362000032],[114.15119171100002,31.018825532000054],[114.14978790200018,31.022928237000144],[114.14970398000004,31.02773475700013],[114.15152740600001,31.03027534600011],[114.15813446100005,31.03402137700016],[114.15996551400008,31.036104202000104],[114.16458892800006,31.04646110500005],[114.16719055200019,31.050157548000076],[114.17086792000009,31.05340957800019],[114.17488098100011,31.055469514000098],[114.17589569100005,31.055988311000135],[114.18350982700008,31.063182831000177],[114.18378448500016,31.07315063500016],[114.18383789000018,31.075086594000027],[114.17704009900001,31.098344803000145],[114.17559814400022,31.108163834000152],[114.17536163300008,31.10977935900019],[114.17660522400001,31.111684799000102],[114.17954254100016,31.11617469900017],[114.18162536600005,31.117393494000165],[114.18662262000021,31.119171142000027],[114.19033813500005,31.11975669900005],[114.1950454700001,31.12198257400007],[114.19972229000018,31.124891282000075],[114.20252990800009,31.127740861000007],[114.20511627200005,31.12966537599999],[114.20867919900002,31.13345336900017],[114.21359252900015,31.137060164999983],[114.21709442100018,31.14222526500015],[114.22140503000003,31.14741706800009],[114.22976684500009,31.157333375000178],[114.23255920300006,31.16063881000002],[114.23428344700005,31.163909913000055],[114.23574066200013,31.167167663000097],[114.23735809300013,31.172727584000146],[114.23877716000004,31.17667198100014],[114.23995971700003,31.180152894000116],[114.2396926880001,31.185874940000133],[114.24028778000013,31.19048118600006],[114.2401275630001,31.193916322000064],[114.23834228400007,31.197982788000104],[114.23601532000009,31.20203399700017],[114.2326736460002,31.204900742000124],[114.22808837900016,31.205892563000024],[114.22377777100019,31.206434251000076],[114.21950530900017,31.20628738400012],[114.21770477200016,31.206140519000144],[114.21471405000011,31.205898286000096],[114.20938110400016,31.20548629899997],[114.20584869400011,31.206739425000137],[114.20249939000007,31.209838868000134],[114.19883728000013,31.21384239300005],[114.19430542000009,31.219190598000125],[114.18975830000011,31.224996567999995],[114.18759918100011,31.22727584800015],[114.18385314900013,31.231216430000018],[114.18068695000011,31.23615264900019],[114.17886352500011,31.240905761000135],[114.17750549300001,31.247051239000086],[114.17568206800001,31.251806259000034],[114.17595672600022,31.25731849800002],[114.175498962,31.261428833000025],[114.17564392100019,31.26184272699999],[114.17716217000009,31.266073228000042],[114.1815872200001,31.268747331000043],[114.18556213300008,31.269569397000172],[114.18794250500002,31.270111085000053],[114.19188690200019,31.271623611000166],[114.19264984100006,31.272188187000154],[114.19448089600007,31.273544311000084],[114.19541168200021,31.276557922000105],[114.19501495400004,31.2792930600001],[114.19425964300001,31.28408432000009],[114.19382476800013,31.28774070800012],[114.1938705450001,31.290182113000014],[114.19390106200002,31.29187011700009],[114.19506835900006,31.29557991100006],[114.19708252000021,31.298400880000145],[114.1999130260001,31.300788880000027],[114.20278167800018,31.30249023500005],[114.20622253400006,31.303295134999985],[114.20992279000018,31.304340363000165],[114.21240997400014,31.304853440000045],[114.21257781900022,31.30488777200009],[114.21599578900009,31.30614852900004],[114.2183074950002,31.308294296000042],[114.22007751500007,31.31064605699999],[114.22160339400011,31.31230545000005],[114.22303771900022,31.316019058000048],[114.22362518200009,31.318416596000194],[114.22394561700004,31.31971931400011],[114.2271270760001,31.326248170000156],[114.22957611100014,31.33114624000007],[114.2318038950001,31.33511924800013],[114.23403167700019,31.33909416200004],[114.23764800900005,31.34196662900013],[114.24070739700028,31.34380912800009],[114.24208068900009,31.34464264000013],[114.24571228000002,31.34728241100015],[114.25088500900006,31.351356507000048],[114.25595092700019,31.35175514299999],[114.25985717700007,31.354181289000053],[114.26560974200004,31.356092454000137],[114.26830291800013,31.356985093000052],[114.27452087400002,31.36155128500019],[114.27923584000007,31.36400032200004],[114.28356933600014,31.363000870000125],[114.29021454000019,31.358177186000148],[114.29700470000012,31.3501472480001],[114.30051422200006,31.343616486000144],[114.30532074000007,31.336921693000136],[114.3056564330002,31.336450576000175],[114.31182861300033,31.33023452700019],[114.3135757450001,31.327083587000065],[114.31745147600009,31.32423019300006],[114.32316589400023,31.322126389000065],[114.32718658500005,31.322029115000195],[114.3308715820001,31.322044373000043],[114.3349533090002,31.32205772400016],[114.33997344900025,31.323600769000056],[114.34764099100016,31.32568740900018],[114.35272979700007,31.325624466000022],[114.3583908070002,31.324895859000094],[114.36659240700021,31.321037293000188],[114.3684387200001,31.320421220000128],[114.37474060100011,31.318321229000162],[114.37882232700008,31.316850662000096],[114.38506317200006,31.31499290500011],[114.3901824940001,31.31423950200008],[114.3963546760001,31.313983918000023],[114.40171051000004,31.31392860500017],[114.4119491570001,31.312427520000025],[114.42245483400029,31.310932160000164],[114.42568206800001,31.310487747000025],[114.43188476600017,31.30963325400012],[114.42861938500005,31.304714204000103],[114.42591857900027,31.299123764000118],[114.42524719200003,31.29812240700011],[114.4221496570002,31.293497086000116],[114.4177856450001,31.28923034800005],[114.41318512000021,31.28426361100009],[114.41043853800011,31.27981948900009],[114.40849304200003,31.275398255000027],[114.40705108700001,31.271684646000153],[114.40563964900002,31.26727867200009],[114.40449524000007,31.262886048000098],[114.40282440200019,31.25824737600016],[114.40114593500016,31.253835677000097],[114.4005661010001,31.248771667000142],[114.40052032400001,31.247081756],[114.39897155800008,31.244939805000175],[114.39682769800015,31.23546218900009],[114.40280914300013,31.22733497600007],[114.43972015300005,31.20468139600013],[114.44618225100021,31.19674491900008],[114.44445037700007,31.176935196000162],[114.45003509600008,31.168743135000113],[114.46746063300009,31.155250550000062],[114.47747802700007,31.15138626100014],[114.49550628700013,31.139328004000163],[114.50557708700012,31.13559341400003],[114.51432037400025,31.129009248000102],[114.51976013100013,31.120782852000104],[114.52197265700022,31.101055145000036],[114.51545715400016,31.0829906460001],[114.49652862500011,31.049621583000036],[114.49401855500014,31.030151368000134],[114.49855804500021,31.021587372000113],[114.50666809000006,31.014795303000085],[114.54248809900002,30.99032592899999],[114.56172943000001,30.980987549000076],[114.56394195600012,30.980169296000152],[114.5660934450002,30.978664398000152],[114.5688705450001,30.976228714000058],[114.57239532500012,30.974735261000035],[114.57622528000002,30.972560882000156],[114.57923126300011,30.970823288000076],[114.58355712800017,30.969583511999986],[114.58403015100032,30.969404220999994],[114.586349487,30.96483421400018],[114.58635711700015,30.954597473000035],[114.59012603800011,30.94575691300008],[114.609092712,30.93173217800006],[114.62020874100006,30.930622101000157],[114.6303405760002,30.934167863000084],[114.63636779800026,30.937616349000113],[114.6424713140001,30.93838882500006],[114.6477661140001,30.939241410000193],[114.65278625500015,30.94031334000005],[114.65752410900008,30.941835404000074],[114.66201019200004,30.943119050000064],[114.66752624500019,30.945123673000072],[114.6681976320001,30.945577622000087],[114.67021179100004,30.945123673000072],[114.6926803590003,30.94523620600006],[114.6936874390001,30.94454956100003],[114.69559478800011,30.943456650000087],[114.69802093400016,30.94284439200004],[114.7022476200001,30.943891526000183],[114.70079040400014,30.946825028000095],[114.6982650760001,30.94996261500006],[114.69706726000027,30.953134537000153],[114.69505310000012,30.956741333000142],[114.69496154800015,30.95903205800005],[114.69506835900017,30.96293449300009],[114.69546508700013,30.966157914000068],[114.69616699200004,30.968700409000064],[114.69736480600021,30.971946716000165],[114.69912719600018,30.974523544000192],[114.70191955500002,30.978046417000083],[114.70641327000008,30.979099273000145],[114.70809936400019,30.97974205100007],[114.710350037,30.980594636000145],[114.71434020900006,30.98094558700018],[114.71598053100014,30.981185913000157],[114.71831512500034,30.981527329000134],[114.72177887000032,30.981630326000076],[114.72545623700024,30.983118057000127],[114.72938537600031,30.98484039200008],[114.73280334400033,30.9860935210001],[114.7351379390002,30.987766267000158],[114.73696899400021,30.98873901500019],[114.74014282300004,30.98929214600003],[114.74334716800001,30.989387513000167],[114.74969482300003,30.990726471000134],[114.75531005900017,30.99043846199999],[114.75759887600007,30.986606598000037],[114.7588043200002,30.983203888000048],[114.7600250250001,30.979343415000127],[114.76042175300019,30.976144790000035],[114.76107788100023,30.972953797000063],[114.7609176640002,30.970424652000133],[114.76075744700007,30.96767044000018],[114.76140594500022,30.96493721000013],[114.76306915300019,30.96338272200012],[114.76549530100033,30.962766648000127],[114.76996612600033,30.9642772680001],[114.77146911600016,30.966615678000096],[114.77166748000002,30.968456269000114],[114.77339172400026,30.971944809999968],[114.77712249800004,30.978708267000115],[114.7787017820001,30.985862732000104],[114.77953338600003,30.99184990000009],[114.77989196800003,30.996217728000147],[114.78056335500003,30.99944686900011],[114.78202056800014,31.00292968700012],[114.78352355900006,31.003694535000193],[114.7846908580001,31.003330231000067],[114.79941558800023,30.989393235000133],[114.79969787600011,30.987863541000028],[114.79985046400009,30.98419570900012],[114.79891967700009,30.980730057000073],[114.79801941000018,30.97657585200017],[114.79763794000019,30.972669602000114],[114.79835510300006,30.96810150300007],[114.79957580600012,30.96423912200015],[114.80155944800015,30.961318970000093],[114.80385589600007,30.959640504000106],[114.80494690000013,30.957574845000185],[114.80796813900008,30.95639610400008],[114.8084335330002,30.956020356000067],[114.81283569400034,30.95270919900014],[114.81823730500027,30.951034546000017],[114.8227996840002,30.95025253400019],[114.82678222600019,30.95082855300012],[114.82900238000003,30.951652527000082],[114.84728240900007,30.94707107500011],[114.85172271700024,30.949312210000187],[114.85485839900002,30.948902131000068],[114.85914611700002,30.948337553999977],[114.86486816500008,30.95217514100017],[114.86842346200002,30.95663452299999],[114.87144470300018,30.96130752700014],[114.87319946300022,30.964113236000173],[114.87378692600022,30.969633102000046],[114.87441253700001,30.97400856000002],[114.87430572500011,30.97675514300016],[114.87311553900018,30.97993087700001],[114.87037658600015,30.981683732000196],[114.86657714800005,30.98340797500015],[114.86254119900013,30.984209060000072],[114.85959625300019,30.984582900000078],[114.85578155500001,30.986534119000172],[114.85354614200001,30.988325120000127],[114.85277557400026,30.992120743000047],[114.86062622100006,30.99908828700006],[114.86806488000002,31.00225448600014],[114.87303924600019,31.00240135200005],[114.87412261900023,31.00231170600006],[114.88117217900015,31.000228883000148],[114.89040374700028,30.99472236700018],[114.90039062500011,30.995574950000105],[114.90827178900008,30.998306275000065],[114.90869903600013,30.997930528000158],[114.90985107300004,30.995666504000045],[114.91205596900035,30.99389839200012],[114.91475677500034,30.993059160000147],[114.9173202510002,30.99565505900006],[114.91747284000007,30.99864196900012],[114.91832733200012,31.000345231000153],[114.93260192900006,31.002645494000145],[114.94477081200012,30.99611282300009],[114.9470291130002,30.993297576000145],[114.9497756960002,30.99131202800015],[114.9524993890002,30.98978424100017],[114.95546722300003,30.98895073000017],[114.96022796600006,30.990003586000057],[114.96413421700005,30.992637635000165],[114.96751403800022,30.99479675399999],[114.96958160400006,30.99669075000003],[114.97057342600021,30.99855232200008],[114.97075653200012,31.000850677000074],[114.97116851900013,31.00407409600007],[114.97129058900009,31.007745742999983],[114.97009277300016,31.011150360000048],[114.96813201900012,31.01361656300008],[114.96748352100006,31.016580582000135],[114.96609497100009,31.019208908000167],[114.97079467900016,31.019565581999984],[114.98055267300015,30.992477417000035],[114.98159027200008,30.986089706000087],[114.98119354300003,30.986013412000148],[114.97888946600027,30.983425141000172],[114.97788238600025,30.981792450000174],[114.97770691000017,30.979494094000074],[114.97834777800006,30.976531983000033],[114.98110962000011,30.97408676100002],[114.98387145900028,30.971643449000165],[114.98394775500003,30.97158432100008],[114.98525238100002,30.963537216000137],[114.98850250300018,30.960336686000176],[114.98860168500018,30.95939636200018],[114.99082946800002,30.956937790000154],[114.99207305900018,30.956821442000088],[114.99281311100013,30.95608711200009],[115.00005340500003,30.938301086000024],[115.00527954200017,30.929992677000143],[115.01271057100007,30.92450714200004],[115.02223205600002,30.921819687000152],[115.02311706600005,30.920930862000034],[115.02591705400005,30.917566300000036],[115.02919769300001,30.915363312000185],[115.03295898400008,30.91455268900018],[115.03591156000017,30.913948060000163],[115.0396652210003,30.913366318000158],[115.04238128600002,30.912063599000078],[115.0461502070001,30.911022185999972],[115.04942321800003,30.90905189600005],[115.05324554500021,30.906635284999997],[115.05577087300026,30.903266907000045],[115.05824279900013,30.901271821000137],[115.06124878000027,30.899290086000065],[115.06448364200004,30.898233414],[115.06758117700008,30.897005081000092],[115.0676879890001,30.89690017700013],[115.07062530400003,30.893913269000052],[115.06043243400006,30.877195358000165],[115.05286407500012,30.87015914900019],[115.0509796140001,30.86852645900007],[115.04884338400007,30.86753082300015],[115.04520416300011,30.86491012499999],[115.04264831600028,30.862085342000174],[115.04252624500009,30.861955644000087],[115.02616119300014,30.852989196000184],[115.02140045200008,30.85296249499999],[115.0208587650002,30.85345268300006],[115.0162124640002,30.856531142000104],[115.01211547800018,30.859167098000114],[115.00832367000011,30.860895157000186],[115.00450897100008,30.863080979000188],[115.00128936800003,30.863679886999993],[114.99736022900026,30.861961364000024],[114.9961929320001,30.860410691000027],[114.99578857500012,30.860565186000144],[114.98634338500005,30.85696411200007],[114.98287963800021,30.83781242500004],[114.98408508400007,30.827945710000165],[114.98040008600003,30.81906318700004],[114.96293640100009,30.807170869000174],[114.95275116100005,30.803756714000034],[114.95203399700006,30.801252365000042],[114.95145416300022,30.80126762500004],[114.94886016800022,30.799358368000075],[114.9492645270001,30.79570388900015],[114.94995117200006,30.79182434000001],[114.95116424600008,30.78796005200002],[114.95205688600004,30.785463334000045],[114.95207977200006,30.784761429000127],[114.95213317900006,30.783401490000184],[114.9487533560001,30.781238556000062],[114.94529724100005,30.781141282000192],[114.94485473600014,30.781333924000137],[114.9398803700001,30.78350830100004],[114.93838501000005,30.787822723000147],[114.93582916300022,30.792106628000116],[114.93408203100012,30.79595565900018],[114.93156433100012,30.799093246000155],[114.92681884800017,30.797811508000166],[114.92347717400004,30.794733049000115],[114.92255401600005,30.793882369000073],[114.91991424500007,30.79527282700019],[114.90223693900009,30.782850265000093],[114.89543151800002,30.786077501000136],[114.89309692300003,30.78858184800015],[114.89006805400017,30.79101562500017],[114.88781738300021,30.794162750000055],[114.88610077000033,30.797321320000094],[114.88415527400015,30.799329757000123],[114.8808136,30.803131105000034],[114.8773345940001,30.80348777900008],[114.87364959700017,30.802463531000058],[114.87077331500018,30.80100441000019],[114.86794280900027,30.798627854000188],[114.86512756300012,30.795564653000156],[114.86338806100002,30.79253387600011],[114.86329650900008,30.787942886000057],[114.86351013200012,30.787073135000128],[114.85406494100005,30.76602935900013],[114.8487854010001,30.757734300000095],[114.82888793900008,30.73602104300005],[114.82494354200014,30.734300614000066],[114.81868743900021,30.73113441400011],[114.81322479300013,30.727991104000072],[114.80860137900004,30.723724366],[114.80447387700008,30.72039222799998],[114.80033111600007,30.717517853000118],[114.79199981800001,30.70626258800013],[114.79591369600017,30.699548721000156],[114.79558563100012,30.697906494000108],[114.79758453500028,30.688335418000065],[114.80218505800019,30.683200837000076],[114.80017852900016,30.676803590000187],[114.80210113600003,30.671092987999998],[114.80696105900006,30.66472053600017],[114.82021331800001,30.66734886200004],[114.82255554200003,30.667314530000002],[114.83031463600003,30.66720390300003],[114.83522033600025,30.657007218000043],[114.83547973600001,30.65648079000016],[114.83818054200005,30.643875122000054],[114.8317718520002,30.636045456000094],[114.82392120400006,30.63005065900012],[114.813941956,30.626110077000195],[114.80326843300021,30.628562927000132],[114.79185485900018,30.62757301300007],[114.77833557000007,30.62172508200001],[114.7712020880001,30.618640900000116],[114.7605285640002,30.617183686000146],[114.74160766700003,30.60749054000019],[114.71140289400012,30.596698762000013],[114.67248535200008,30.5795497900001],[114.63503265300005,30.559410095000036],[114.62402343700002,30.557752609000033],[114.604804994,30.561946868000064],[114.59066772400001,30.54680061300013],[114.57071685900007,30.534513473000118],[114.5608520510001,30.50855636600011],[114.56293487500034,30.49972152700019]]]},"properties":{"GID_2":"CHN.13.12_1","GID_0":"CHN","COUNTRY":"China","GID_1":"CHN.13_1","NAME_1":"Hubei","NL_NAME_1":"湖北","NAME_2":"Wuhan","VARNAME_2":"Wǔhàn","NL_NAME_2":"武汉市","TYPE_2":"Dìjíshì","ENGTYPE_2":"Prefecture City","CC_2":"NA","HASC_2":"NA","id":"420100","name":"武汉市","NAME":"武汉市","adcode":"420100","SOURCE":"GADM v4.1","GADM_GID":"CHN.13.12_1"}}]}