{
  "type": "FeatureCollection",
  "name": "wuhan-low-altitude-risk-zones",
  "meta": {
    "scope": "武汉市",
    "version": "uav-sim-2026q1",
    "note": "课程展示用仿真低空风险数据，非真实空域管制数据。"
  },
  "features": [
    {
      "type": "Feature",
      "id": "risk-zone-jianghan-crowd",
      "properties": {
        "name": "江汉路步行街人群密集风险区",
        "district": "江汉区",
        "riskLevel": "high",
        "riskScore": 88,
        "riskType": "crowd_density",
        "altitudeLimitM": 90,
        "ruleText": "夜间客流高峰时段建议绕飞或升高至限高内安全高度",
        "activeHours": "18:00-23:00",
        "source": "仿真：智眼客流 + 低空运行规则"
      },
      "geometry": {
        "type": "Polygon",
        "coordinates": [
          [
            [
              114.281011,
              30.602532
            ],
            [
              114.302989,
              30.602532
            ],
            [
              114.302989,
              30.589468
            ],
            [
              114.281011,
              30.589468
            ],
            [
              114.281011,
              30.602532
            ]
          ]
        ]
      }
    },
    {
      "type": "Feature",
      "id": "risk-zone-river-bridge",
      "properties": {
        "name": "武汉长江大桥跨江风场关注区",
        "district": "武昌区/汉阳区",
        "riskLevel": "medium",
        "riskScore": 71,
        "riskType": "cross_river_wind",
        "altitudeLimitM": 120,
        "ruleText": "跨江段需结合风速与桥梁净空进行动态校核",
        "activeHours": "全天",
        "source": "仿真：桥梁通勤 + DEM/水域环境"
      },
      "geometry": {
        "type": "Polygon",
        "coordinates": [
          [
            [
              114.258523,
              30.56491
            ],
            [
              114.325477,
              30.56491
            ],
            [
              114.325477,
              30.54509
            ],
            [
              114.258523,
              30.54509
            ],
            [
              114.258523,
              30.56491
            ]
          ]
        ]
      }
    },
    {
      "type": "Feature",
      "id": "risk-zone-optics-rail",
      "properties": {
        "name": "武汉东站站城融合限高协调区",
        "district": "东湖高新区",
        "riskLevel": "medium",
        "riskScore": 76,
        "riskType": "rail_hub_clearance",
        "altitudeLimitM": 110,
        "ruleText": "靠近铁路枢纽时优先走规划航廊并降低悬停时间",
        "activeHours": "06:30-22:30",
        "source": "仿真：站城客流 + 低空巡检"
      },
      "geometry": {
        "type": "Polygon",
        "coordinates": [
          [
            [
              114.405129,
              30.537261
            ],
            [
              114.444871,
              30.537261
            ],
            [
              114.444871,
              30.514739
            ],
            [
              114.405129,
              30.514739
            ],
            [
              114.405129,
              30.537261
            ]
          ]
        ]
      }
    },
    {
      "type": "Feature",
      "id": "risk-zone-tianhe-approach",
      "properties": {
        "name": "天河机场净空保护模拟区",
        "district": "黄陂区",
        "riskLevel": "restricted",
        "riskScore": 96,
        "riskType": "airport_clearance",
        "altitudeLimitM": 0,
        "ruleText": "演示系统中作为禁飞/审批区处理",
        "activeHours": "全天",
        "source": "仿真：机场净空保护"
      },
      "geometry": {
        "type": "Polygon",
        "coordinates": [
          [
            [
              114.260335,
              30.784
            ],
            [
              114.259716,
              30.790765
            ],
            [
              114.257872,
              30.797363
            ],
            [
              114.254849,
              30.803632
            ],
            [
              114.250722,
              30.809418
            ],
            [
              114.245592,
              30.814578
            ],
            [
              114.239586,
              30.818985
            ],
            [
              114.232852,
              30.82253
            ],
            [
              114.225554,
              30.825127
            ],
            [
              114.217874,
              30.826711
            ],
            [
              114.21,
              30.827243
            ],
            [
              114.202126,
              30.826711
            ],
            [
              114.194446,
              30.825127
            ],
            [
              114.187148,
              30.82253
            ],
            [
              114.180414,
              30.818985
            ],
            [
              114.174408,
              30.814578
            ],
            [
              114.169278,
              30.809418
            ],
            [
              114.165151,
              30.803632
            ],
            [
              114.162128,
              30.797363
            ],
            [
              114.160284,
              30.790765
            ],
            [
              114.159665,
              30.784
            ],
            [
              114.160284,
              30.777235
            ],
            [
              114.162128,
              30.770637
            ],
            [
              114.165151,
              30.764368
            ],
            [
              114.169278,
              30.758582
            ],
            [
              114.174408,
              30.753422
            ],
            [
              114.180414,
              30.749015
            ],
            [
              114.187148,
              30.74547
            ],
            [
              114.194446,
              30.742873
            ],
            [
              114.202126,
              30.741289
            ],
            [
              114.21,
              30.740757
            ],
            [
              114.217874,
              30.741289
            ],
            [
              114.225554,
              30.742873
            ],
            [
              114.232852,
              30.74547
            ],
            [
              114.239586,
              30.749015
            ],
            [
              114.245592,
              30.753422
            ],
            [
              114.250722,
              30.758582
            ],
            [
              114.254849,
              30.764368
            ],
            [
              114.257872,
              30.770637
            ],
            [
              114.259716,
              30.777235
            ],
            [
              114.260335,
              30.784
            ]
          ]
        ]
      }
    },
    {
      "type": "Feature",
      "id": "risk-zone-qingshan-industrial",
      "properties": {
        "name": "青山工业更新带巡检关注区",
        "district": "青山区",
        "riskLevel": "medium",
        "riskScore": 68,
        "riskType": "industrial_facility",
        "altitudeLimitM": 130,
        "ruleText": "工业设施上空需按巡检白名单航线运行",
        "activeHours": "08:00-20:00",
        "source": "仿真：产业设施 + 巡检需求"
      },
      "geometry": {
        "type": "Polygon",
        "coordinates": [
          [
            [
              114.408777,
              30.646811
            ],
            [
              114.463223,
              30.646811
            ],
            [
              114.463223,
              30.625189
            ],
            [
              114.408777,
              30.625189
            ],
            [
              114.408777,
              30.646811
            ]
          ]
        ]
      }
    }
  ]
}
