{
  "type": "FeatureCollection",
  "name": "backend-uav-routes-sim",
  "meta": {
    "crs": "EPSG:4326",
    "generatedAt": "2026-06-01T14:05:21.475Z",
    "note": "waypoints in source are [lat,lng], GeoJSON coordinates are [lng,lat]."
  },
  "features": [
    {
      "type": "Feature",
      "properties": {
        "id": "route-jianghan-night",
        "name": "江汉路夜间商圈航拍巡检",
        "district": "江汉路-循礼门",
        "scene": "夜间经济 / 商圈客流复核",
        "status": "已入库",
        "time": "2026-04-08 19:30",
        "altitude": 120,
        "speed": 8,
        "resolution": "5 cm",
        "quality": 90,
        "zhiyanSync": true,
        "participatesModel": true
      },
      "geometry": {
        "type": "LineString",
        "coordinates": [
          [
            114.2824,
            30.5989
          ],
          [
            114.2869,
            30.5956
          ],
          [
            114.2918,
            30.5912
          ],
          [
            114.2944,
            30.5864
          ],
          [
            114.2916,
            30.5828
          ]
        ]
      }
    },
    {
      "type": "Feature",
      "properties": {
        "id": "route-optics-valley",
        "name": "光谷-武汉东站低空建模航线",
        "district": "光谷",
        "scene": "三维建模 / 站城融合",
        "status": "待复核",
        "time": "2026-04-09 15:10",
        "altitude": 150,
        "speed": 7,
        "resolution": "LOD2",
        "quality": 76,
        "zhiyanSync": true,
        "participatesModel": true
      },
      "geometry": {
        "type": "LineString",
        "coordinates": [
          [
            114.3974,
            30.5128
          ],
          [
            114.4072,
            30.5074
          ],
          [
            114.4176,
            30.5016
          ],
          [
            114.4296,
            30.4928
          ],
          [
            114.4388,
            30.4868
          ]
        ]
      }
    },
    {
      "type": "Feature",
      "properties": {
        "id": "route-river-crossing",
        "name": "两江四岸通勤航拍观测",
        "district": "长江大桥-武昌滨江",
        "scene": "通勤流 / 江滩客流",
        "status": "已入库",
        "time": "2026-04-10 08:00",
        "altitude": 100,
        "speed": 9,
        "resolution": "8 cm",
        "quality": 82,
        "zhiyanSync": true,
        "participatesModel": true
      },
      "geometry": {
        "type": "LineString",
        "coordinates": [
          [
            114.2788,
            30.5598
          ],
          [
            114.2858,
            30.5542
          ],
          [
            114.2932,
            30.5488
          ],
          [
            114.3028,
            30.5505
          ],
          [
            114.3118,
            30.5542
          ]
        ]
      }
    }
  ]
}
