{"type":"FeatureCollection","name":"wuhan-building-density-preview","generatedAt":"2026-06-03T12:54:10.782Z","source":"data/geospatial/wuhan/buildings/manifest.json","features":[{"type":"Feature","id":"building-density-tile_0_0","properties":{"id":"tile_0_0","row":0,"col":0,"buildingCount":28995,"densityPerKm2":117,"densityRank":0.2834,"areaKm2":247.57,"source":"data/geospatial/wuhan/buildings/manifest.json"},"geometry":{"type":"Polygon","coordinates":[[[113.95,30.4],[114.15,30.4],[114.15,30.516667],[113.95,30.516667],[113.95,30.4]]]}},{"type":"Feature","id":"building-density-tile_0_1","properties":{"id":"tile_0_1","row":0,"col":1,"buildingCount":33961,"densityPerKm2":137,"densityRank":0.332,"areaKm2":247.57,"source":"data/geospatial/wuhan/buildings/manifest.json"},"geometry":{"type":"Polygon","coordinates":[[[114.15,30.4],[114.35,30.4],[114.35,30.516667],[114.15,30.516667],[114.15,30.4]]]}},{"type":"Feature","id":"building-density-tile_0_2","properties":{"id":"tile_0_2","row":0,"col":2,"buildingCount":38153,"densityPerKm2":154,"densityRank":0.373,"areaKm2":247.57,"source":"data/geospatial/wuhan/buildings/manifest.json"},"geometry":{"type":"Polygon","coordinates":[[[114.35,30.4],[114.55,30.4],[114.55,30.516667],[114.35,30.516667],[114.35,30.4]]]}},{"type":"Feature","id":"building-density-tile_1_0","properties":{"id":"tile_1_0","row":1,"col":0,"buildingCount":50722,"densityPerKm2":205,"densityRank":0.4958,"areaKm2":247.27,"source":"data/geospatial/wuhan/buildings/manifest.json"},"geometry":{"type":"Polygon","coordinates":[[[113.95,30.516667],[114.15,30.516667],[114.15,30.633333],[113.95,30.633333],[113.95,30.516667]]]}},{"type":"Feature","id":"building-density-tile_1_1","properties":{"id":"tile_1_1","row":1,"col":1,"buildingCount":102299,"densityPerKm2":414,"densityRank":1,"areaKm2":247.27,"source":"data/geospatial/wuhan/buildings/manifest.json"},"geometry":{"type":"Polygon","coordinates":[[[114.15,30.516667],[114.35,30.516667],[114.35,30.633333],[114.15,30.633333],[114.15,30.516667]]]}},{"type":"Feature","id":"building-density-tile_1_2","properties":{"id":"tile_1_2","row":1,"col":2,"buildingCount":49994,"densityPerKm2":202,"densityRank":0.4887,"areaKm2":247.27,"source":"data/geospatial/wuhan/buildings/manifest.json"},"geometry":{"type":"Polygon","coordinates":[[[114.35,30.516667],[114.55,30.516667],[114.55,30.633333],[114.35,30.633333],[114.35,30.516667]]]}},{"type":"Feature","id":"building-density-tile_2_0","properties":{"id":"tile_2_0","row":2,"col":0,"buildingCount":23278,"densityPerKm2":94,"densityRank":0.2275,"areaKm2":246.97,"source":"data/geospatial/wuhan/buildings/manifest.json"},"geometry":{"type":"Polygon","coordinates":[[[113.95,30.633333],[114.15,30.633333],[114.15,30.75],[113.95,30.75],[113.95,30.633333]]]}},{"type":"Feature","id":"building-density-tile_2_1","properties":{"id":"tile_2_1","row":2,"col":1,"buildingCount":50434,"densityPerKm2":204,"densityRank":0.493,"areaKm2":246.97,"source":"data/geospatial/wuhan/buildings/manifest.json"},"geometry":{"type":"Polygon","coordinates":[[[114.15,30.633333],[114.35,30.633333],[114.35,30.75],[114.15,30.75],[114.15,30.633333]]]}},{"type":"Feature","id":"building-density-tile_2_2","properties":{"id":"tile_2_2","row":2,"col":2,"buildingCount":29812,"densityPerKm2":121,"densityRank":0.2914,"areaKm2":246.97,"source":"data/geospatial/wuhan/buildings/manifest.json"},"geometry":{"type":"Polygon","coordinates":[[[114.35,30.633333],[114.55,30.633333],[114.55,30.75],[114.35,30.75],[114.35,30.633333]]]}}]}