{
  "type": "FeatureCollection",
  "name": "wuhan-uav-coverages",
  "features": [
    {
      "type": "Feature",
      "id": "route-jianghan-night-coverage",
      "properties": {
        "routeId": "route-jianghan-night",
        "routeName": "江汉路夜间商圈航拍巡检",
        "district": "江汉路-循礼门",
        "quality": 90,
        "source": "???????????"
      },
      "geometry": {
        "type": "Polygon",
        "coordinates": [
          [
            [
              114.279,
              30.601
            ],
            [
              114.298,
              30.601
            ],
            [
              114.298,
              30.58
            ],
            [
              114.279,
              30.58
            ],
            [
              114.279,
              30.601
            ]
          ]
        ]
      }
    },
    {
      "type": "Feature",
      "id": "route-optics-valley-coverage",
      "properties": {
        "routeId": "route-optics-valley",
        "routeName": "光谷-武汉东站低空建模航线",
        "district": "光谷",
        "quality": 76,
        "source": "???????????"
      },
      "geometry": {
        "type": "Polygon",
        "coordinates": [
          [
            [
              114.394,
              30.516
            ],
            [
              114.443,
              30.516
            ],
            [
              114.443,
              30.483
            ],
            [
              114.394,
              30.483
            ],
            [
              114.394,
              30.516
            ]
          ]
        ]
      }
    },
    {
      "type": "Feature",
      "id": "route-river-crossing-coverage",
      "properties": {
        "routeId": "route-river-crossing",
        "routeName": "两江四岸通勤航拍观测",
        "district": "长江大桥-武昌滨江",
        "quality": 82,
        "source": "???????????"
      },
      "geometry": {
        "type": "Polygon",
        "coordinates": [
          [
            [
              114.275,
              30.563
            ],
            [
              114.315,
              30.563
            ],
            [
              114.315,
              30.546
            ],
            [
              114.275,
              30.546
            ],
            [
              114.275,
              30.563
            ]
          ]
        ]
      }
    }
  ]
}
