{"type":"FeatureCollection","name":"hubei-city-units-mock","meta":{"crs":"EPSG:4326","generated":"2026-05-07T11:20:43.339Z","seed":20260408,"fields":["vitalityIdx 综合活力","nightEconomyIdx 夜经济","consumePotential 消费潜力","popDensity 人口密度示意","tier / tierLabel 城市层级（演示）"],"disclaimer":"湖北省各地单元为示意几何与随机指标，仅供界面演示。"},"features":[{"type":"Feature","properties":{"id":"420100","name":"武汉市","tier":1,"tierLabel":"核心城市","popDensity":687.4,"poiPerKm2":160.24,"poiCountEstimate":174912,"vitalityIdx":80,"econIdx":75,"popIdx":92,"nightEconomyIdx":91,"consumePotential":84,"trafficReachIdx":93,"inboundFlowIdx":64,"gdpProxyIdx":99,"popGrowthPct":2,"manufacturingShare":22.1,"serviceShare":60,"structureNote":"服务业占比偏高，消费型特征明显","note":"示意边界（球面圆），指标为模拟合成"},"geometry":{"type":"Polygon","coordinates":[[[114.3055,30.97051507448586],[114.38199015190493,30.964754370529853],[114.456129342446,30.947649342548022],[114.52564134941407,30.91972560785607],[114.58839674058967,30.881840617813367],[114.64247968510576,30.83515649371179],[114.68624723620992,30.78110336409821],[114.71837916034103,30.72133448732348],[114.73791682333128,30.65767469942465],[114.74429011882106,30.592063914387445],[114.73733190392521,30.52649751852364],[114.71727986439417,30.46296554492683],[114.68476614423956,30.403392493244397],[114.64079542916615,30.349579582337917],[114.58671246305336,30.303151098086563],[114.52416020275894,30.26550633509858],[114.45502998431394,30.237778438288164],[114.38140519191036,30.22080123585505],[114.3055,30.215084925514127],[114.22959480808964,30.22080123585505],[114.15597001568604,30.237778438288164],[114.08683979724105,30.26550633509858],[114.02428753694662,30.303151098086563],[113.97020457083386,30.349579582337917],[113.92623385576044,30.403392493244382],[113.8937201356058,30.46296554492683],[113.87366809607478,30.52649751852364],[113.86670988117895,30.592063914387445],[113.87308317666871,30.65767469942465],[113.89262083965895,30.72133448732348],[113.92475276379005,30.78110336409821],[113.96852031489425,30.83515649371179],[114.02260325941033,30.881840617813367],[114.08535865058592,30.91972560785607],[114.15487065755397,30.947649342548022],[114.22900984809505,30.964754370529853],[114.3055,30.97051507448586]]]}},{"type":"Feature","properties":{"id":"420200","name":"黄石市","tier":3,"tierLabel":"地级市","popDensity":2740.7,"poiPerKm2":133.17,"poiCountEstimate":231739,"vitalityIdx":86,"econIdx":66,"popIdx":75,"nightEconomyIdx":87,"consumePotential":62,"trafficReachIdx":70,"inboundFlowIdx":83,"gdpProxyIdx":79,"popGrowthPct":0.5,"manufacturingShare":31.6,"serviceShare":52.7,"structureNote":"二三产并重，制造与配套并存","note":"示意边界（球面圆），指标为模拟合成"},"geometry":{"type":"Polygon","coordinates":[[[115.0389,30.39785075330212],[115.07873072157595,30.394838937077107],[115.11734404368133,30.38589554819647],[115.15356043038237,30.371293901900977],[115.18627481443623,30.351480071806115],[115.21449073762867,30.3270590419973],[115.23735092033837,30.29877596548255],[115.25416329690081,30.267493142745778],[115.26442172912161,30.23416346645174],[115.26782080906324,30.199801182195504],[115.26426437332195,30.165450887957288],[115.25386756421966,30.13215573560069],[115.23695247971473,30.100925806767492],[115.21403764619016,30.07270761449976],[115.18582172142389,30.048355633389818],[115.15316198577375,30.02860668815355],[115.11704830646863,30.01405793669865],[115.07857336281857,30.00514907257945],[115.0389,30.00214924669787],[114.99922663718142,30.00514907257945],[114.96075169353136,30.01405793669865],[114.92463801422623,30.02860668815355],[114.89197827857609,30.048355633389818],[114.86376235380983,30.07270761449976],[114.84084752028525,30.100925806767492],[114.82393243578032,30.13215573560069],[114.81353562667803,30.165450887957288],[114.80997919093674,30.199801182195504],[114.81337827087837,30.23416346645174],[114.82363670309918,30.267493142745778],[114.84044907966162,30.29877596548255],[114.86330926237132,30.3270590419973],[114.89152518556376,30.351480071806115],[114.92423956961761,30.371293901900977],[114.96045595631867,30.38589554819647],[114.99906927842403,30.394838937077107],[115.0389,30.39785075330212]]]}},{"type":"Feature","properties":{"id":"420300","name":"十堰市","tier":3,"tierLabel":"地级市","popDensity":5910.3,"poiPerKm2":198.31,"poiCountEstimate":303318,"vitalityIdx":62,"econIdx":73,"popIdx":62,"nightEconomyIdx":51,"consumePotential":64,"trafficReachIdx":76,"inboundFlowIdx":49,"gdpProxyIdx":102,"popGrowthPct":0.4,"manufacturingShare":38.4,"serviceShare":43,"structureNote":"二三产并重，制造与配套并存","note":"示意边界（球面圆），指标为模拟合成"},"geometry":{"type":"Polygon","coordinates":[[[110.7989,32.926176129953184],[110.8602932823666,32.92165250672047],[110.91980287927463,32.90822044767624],[110.97560458223309,32.88629199919083],[111.02599104898874,32.856539441047104],[111.06942511744069,32.819874123315856],[111.10458724838783,32.777417877813335],[111.13041556959601,32.73046798459125],[111.14613731792275,32.6804568747212],[111.15129083334902,32.62890790078995],[111.14573762567959,32.57738860309755],[111.12966439070874,32.527462942890196],[111.1035751812377,32.48064396712145],[111.06827422797208,32.43834831726075],[111.0248401497623,32.40185390379154],[110.97459249037524,32.372261944953856],[110.91905167229078,32.35046441953572],[110.85989357178471,32.33711781509099],[110.7989,32.33262387004682],[110.73790642821531,32.33711781509099],[110.67874832770923,32.35046441953572],[110.62320750962479,32.372261944953856],[110.57295985023771,32.40185390379154],[110.52952577202794,32.43834831726075],[110.4942248187623,32.48064396712145],[110.46813560929127,32.527462942890196],[110.4520623743204,32.57738860309755],[110.44650916665098,32.62890790078995],[110.45166268207726,32.6804568747212],[110.467384430404,32.73046798459125],[110.49321275161219,32.777417877813335],[110.52837488255933,32.819874123315856],[110.57180895101128,32.856539441047104],[110.62219541776693,32.88629199919083],[110.67799712072538,32.90822044767624],[110.73750671763342,32.92165250672047],[110.7989,32.926176129953184]]]}},{"type":"Feature","properties":{"id":"420500","name":"宜昌市","tier":2,"tierLabel":"区域中心","popDensity":428.3,"poiPerKm2":25.82,"poiCountEstimate":287303,"vitalityIdx":70,"econIdx":99,"popIdx":84,"nightEconomyIdx":59,"consumePotential":99,"trafficReachIdx":81,"inboundFlowIdx":62,"gdpProxyIdx":79,"popGrowthPct":0.8,"manufacturingShare":36,"serviceShare":43,"structureNote":"二三产并重，制造与配套并存","note":"示意边界（球面圆），指标为模拟合成"},"geometry":{"type":"Polygon","coordinates":[[[111.28689999999999,31.015655778130743],[111.3524947051075,31.010720723019066],[111.41607657432844,30.996067012507844],[111.47569635889694,30.972144223336482],[111.52952974764052,30.939685860010464],[111.57593435207573,30.899686253075544],[111.61350040423363,30.85336935427803],[111.64109353429868,30.802150500713402],[111.65788834392171,30.747592439026818],[111.66339187455871,30.69135706405554],[111.65745646345206,30.635154430921187],[111.64028186068234,30.58069064601578],[111.61240683141119,30.52961623406675],[111.57469077590103,30.483476521135657],[111.52828615971227,30.44366547387534],[111.47460275631343,30.411384300952562],[111.41526486686908,30.387605960347617],[111.3520628025484,30.37304653273002],[111.28689999999999,30.36814422186926],[111.22173719745159,30.37304653273002],[111.1585351331309,30.387605960347617],[111.09919724368653,30.411384300952562],[111.04551384028773,30.44366547387534],[110.99910922409896,30.483476521135657],[110.9613931685888,30.52961623406675],[110.93351813931766,30.58069064601578],[110.91634353654791,30.635154430921187],[110.91040812544128,30.69135706405554],[110.91591165607828,30.747592439026818],[110.9327064657013,30.802150500713402],[110.96029959576634,30.85336935427803],[110.99786564792424,30.899686253075544],[111.04427025235947,30.939685860010464],[111.09810364110305,30.972144223336482],[111.15772342567153,30.996067012507844],[111.22130529489249,31.010720723019066],[111.28689999999999,31.015655778130743]]]}},{"type":"Feature","properties":{"id":"420600","name":"襄阳市","tier":2,"tierLabel":"区域中心","popDensity":2727.2,"poiPerKm2":5.6,"poiCountEstimate":234667,"vitalityIdx":96,"econIdx":95,"popIdx":94,"nightEconomyIdx":95,"consumePotential":60,"trafficReachIdx":74,"inboundFlowIdx":80,"gdpProxyIdx":83,"popGrowthPct":1.4,"manufacturingShare":35.9,"serviceShare":47.6,"structureNote":"二三产并重，制造与配套并存","note":"示意边界（球面圆），指标为模拟合成"},"geometry":{"type":"Polygon","coordinates":[[[112.14409999999998,32.384142210249124],[112.2143674068598,32.378931011726536],[112.28247618235936,32.363457526779385],[112.34633618445189,32.338197003487586],[112.40399180392937,32.30392475835973],[112.45368323880199,32.26169165970246],[112.49390091035181,32.212791029326766],[112.52343125774463,32.15871811444486],[112.54139253970214,32.1011235134613],[112.54725969951949,32.04176210979128],[112.54087778472837,31.982439173962558],[112.52246382951459,31.924955337284974],[112.49259748682269,31.87105212481055],[112.4522010249073,31.822359667974403],[112.40250957370372,31.780348106261567],[112.3450327195714,31.746284040858125],[112.28150870710631,31.721193229449586],[112.21385262119391,31.705830517141255],[112.14409999999998,31.700657789750885],[112.07434737880607,31.705830517141255],[112.00669129289366,31.721193229449586],[111.94316728042857,31.746284040858125],[111.88569042629624,31.780348106261567],[111.83599897509268,31.822359667974403],[111.79560251317729,31.87105212481055],[111.76573617048538,31.924955337284974],[111.74732221527161,31.982439173962558],[111.74094030048049,32.04176210979128],[111.74680746029783,32.1011235134613],[111.76476874225534,32.15871811444486],[111.79429908964815,32.212791029326766],[111.83451676119797,32.26169165970246],[111.8842081960706,32.30392475835973],[111.94186381554807,32.338197003487586],[112.00572381764061,32.363457526779385],[112.07383259314017,32.378931011726536],[112.14409999999998,32.384142210249124]]]}},{"type":"Feature","properties":{"id":"420700","name":"鄂州市","tier":4,"tierLabel":"中小城市 / 省直管","popDensity":3415.4,"poiPerKm2":158.74,"poiCountEstimate":261506,"vitalityIdx":69,"econIdx":59,"popIdx":89,"nightEconomyIdx":91,"consumePotential":96,"trafficReachIdx":53,"inboundFlowIdx":50,"gdpProxyIdx":63,"popGrowthPct":1.7,"manufacturingShare":21.1,"serviceShare":60.7,"structureNote":"服务业占比偏高，消费型特征明显","note":"示意边界（球面圆），指标为模拟合成"},"geometry":{"type":"Polygon","coordinates":[[[114.89489999999998,30.535791456947003],[114.9239091193033,30.53360221780706],[114.95203299502101,30.52710131009142],[114.97841374521063,30.516487097497347],[115.00224732289342,30.50208336859807],[115.02280824685919,30.484329342817094],[115.0394718020494,30.46376613432307],[115.05173301630873,30.441020108490854],[115.05922183822766,30.416783661269395],[115.06171407585353,30.39179402833552],[115.05913780168399,30.366810786228882],[115.05157507912286,30.342592740677045],[115.03925901355312,30.31987490788447],[115.02256627228893,30.299346283349564],[115.00200534787585,30.281629061141434],[114.97820095558168,30.26725991637466],[114.95187505654707,30.256673897085868],[114.92382508191895,30.250191391273457],[114.89489999999998,30.248008543052993],[114.86597491808104,30.250191391273457],[114.83792494345292,30.256673897085868],[114.8115990444183,30.26725991637466],[114.78779465212412,30.281629061141434],[114.76723372771104,30.299346283349564],[114.75054098644686,30.31987490788447],[114.73822492087713,30.342592740677045],[114.730662198316,30.366810786228882],[114.72808592414646,30.39179402833552],[114.73057816177233,30.416783661269395],[114.73806698369125,30.441020108490854],[114.75032819795058,30.46376613432307],[114.7669917531408,30.484329342817094],[114.78755267710656,30.50208336859807],[114.81138625478935,30.516487097497347],[114.83776700497897,30.52710131009142],[114.86589088069668,30.53360221780706],[114.89489999999998,30.535791456947003]]]}},{"type":"Feature","properties":{"id":"420800","name":"荆门市","tier":3,"tierLabel":"地级市","popDensity":2245.9,"poiPerKm2":206.34,"poiCountEstimate":274945,"vitalityIdx":66,"econIdx":70,"popIdx":76,"nightEconomyIdx":61,"consumePotential":51,"trafficReachIdx":96,"inboundFlowIdx":55,"gdpProxyIdx":85,"popGrowthPct":0.1,"manufacturingShare":19,"serviceShare":67.3,"structureNote":"服务业占比偏高，消费型特征明显","note":"示意边界（球面圆），指标为模拟合成"},"geometry":{"type":"Polygon","coordinates":[[[112.1993,31.287210049657247],[112.25046514507297,31.283374399203716],[112.30006353306494,31.27198491156702],[112.3465774956639,31.25339029592938],[112.38858586602788,31.22815958700523],[112.42480811405973,31.19706435961577],[112.45414374675414,31.16105467997066],[112.4757057186824,31.12122959932654],[112.48884684489823,31.07880316508848],[112.49317848434669,31.035067054329815],[112.488581049867,30.991351022199613],[112.47520618597913,30.948982402225123],[112.45347072518231,30.90924589862399],[112.4240427780077,30.873344875554974],[112.38782052555013,30.84236527898327],[112.34590446288571,30.817243228335425],[112.29956398761826,30.79873719234562],[112.25019934172407,30.78740552126316],[112.1993,30.783589950342762],[112.14840065827592,30.78740552126316],[112.09903601238175,30.79873719234562],[112.05269553711426,30.817243228335425],[112.01077947444986,30.84236527898327],[111.97455722199228,30.873344875554974],[111.94512927481766,30.90924589862399],[111.92339381402086,30.948982402225123],[111.91001895013301,30.991351022199613],[111.90542151565332,31.035067054329815],[111.90975315510177,31.07880316508848],[111.9228942813176,31.12122959932654],[111.94445625324586,31.16105467997066],[111.97379188594027,31.19706435961577],[112.01001413397212,31.22815958700523],[112.05202250433611,31.25339029592938],[112.09853646693504,31.27198491156702],[112.14813485492702,31.283374399203716],[112.1993,31.287210049657247]]]}},{"type":"Feature","properties":{"id":"420900","name":"孝感市","tier":3,"tierLabel":"地级市","popDensity":879.5,"poiPerKm2":166.97,"poiCountEstimate":136375,"vitalityIdx":79,"econIdx":84,"popIdx":99,"nightEconomyIdx":56,"consumePotential":70,"trafficReachIdx":78,"inboundFlowIdx":70,"gdpProxyIdx":79,"popGrowthPct":1.6,"manufacturingShare":21.3,"serviceShare":56.6,"structureNote":"二三产并重，制造与配套并存","note":"示意边界（球面圆），指标为模拟合成"},"geometry":{"type":"Polygon","coordinates":[[[113.91690000000001,31.194396481775616],[113.97166578156087,31.190286130621175],[114.02475367350381,31.178081020057725],[114.07453846483206,31.15815502271892],[114.11949848968594,31.13111820925121],[114.15826295208888,31.097797744074672],[114.18965413781024,31.059212060042075],[114.21272316504316,31.016539182662775],[114.2267781967469,30.9710802563148],[114.23140433888494,30.92421946332018],[114.22647476206677,30.877381618903907],[114.2121528924977,30.831988770559132],[114.18888580779544,30.78941713114567],[114.15738923400295,30.750955634840267],[114.11862476582122,30.71776732866567],[114.07377012018483,30.69085470514857],[114.02418338431897,30.671029949182078],[113.97136233602014,30.658890919617434],[113.91690000000001,30.65480351822439],[113.86243766397988,30.658890919617434],[113.80961661568104,30.671029949182078],[113.76002987981518,30.69085470514857],[113.71517523417879,30.71776732866567],[113.67641076599706,30.750955634840267],[113.64491419220458,30.78941713114567],[113.62164710750231,30.831988770559132],[113.60732523793324,30.877381618903907],[113.60239566111507,30.92421946332018],[113.60702180325312,30.9710802563148],[113.62107683495685,31.016539182662775],[113.64414586218977,31.059212060042075],[113.67553704791116,31.097797744074672],[113.71430151031407,31.13111820925121],[113.75926153516795,31.15815502271892],[113.8090463264962,31.178081020057725],[113.86213421843915,31.190286130621175],[113.91690000000001,31.194396481775616]]]}},{"type":"Feature","properties":{"id":"421000","name":"荆州市","tier":3,"tierLabel":"地级市","popDensity":183.7,"poiPerKm2":42.31,"poiCountEstimate":180780,"vitalityIdx":66,"econIdx":78,"popIdx":84,"nightEconomyIdx":94,"consumePotential":85,"trafficReachIdx":67,"inboundFlowIdx":66,"gdpProxyIdx":78,"popGrowthPct":-0.1,"manufacturingShare":23.2,"serviceShare":57.3,"structureNote":"二三产并重，制造与配套并存","note":"示意边界（球面圆），指标为模拟合成"},"geometry":{"type":"Polygon","coordinates":[[[112.2381,30.638269346012365],[112.29980778410662,30.63360953966792],[112.3596233005892,30.619773028980752],[112.41571390051894,30.59718403375885],[112.4663640951449,30.566534727091536],[112.51002904076779,30.52876348921687],[112.54538217533921,30.485025523944223],[112.5713554780242,30.436656839048858],[112.5871711413379,30.38513279848358],[112.59236379707889,30.332022609626623],[112.58679279987562,30.278941209995246],[112.57064442570162,30.227500065026476],[112.54442417102219,30.179258384489923],[112.50893962992454,30.135676214675073],[112.46527467522478,30.09807077273709],[112.41475587321847,30.067577265048534],[112.35891222213087,30.0451152795799],[112.29942942558543,30.031361669233043],[112.2381,30.026730653987638],[112.17677057441458,30.031361669233043],[112.11728777786914,30.0451152795799],[112.06144412678154,30.067577265048534],[112.01092532477526,30.09807077273709],[111.9672603700755,30.135676214675073],[111.93177582897783,30.179258384489923],[111.9055555742984,30.227500065026476],[111.88940720012438,30.278941209995246],[111.88383620292115,30.332022609626623],[111.8890288586621,30.38513279848358],[111.9048445219758,30.436656839048858],[111.93081782466079,30.485025523944223],[111.96617095923223,30.52876348921687],[112.00983590485512,30.566534727091536],[112.06048609948108,30.59718403375885],[112.1165766994108,30.619773028980752],[112.17639221589342,30.63360953966792],[112.2381,30.638269346012365]]]}},{"type":"Feature","properties":{"id":"421100","name":"黄冈市","tier":3,"tierLabel":"地级市","popDensity":767.4,"poiPerKm2":31.57,"poiCountEstimate":35254,"vitalityIdx":95,"econIdx":63,"popIdx":90,"nightEconomyIdx":66,"consumePotential":89,"trafficReachIdx":58,"inboundFlowIdx":86,"gdpProxyIdx":87,"popGrowthPct":1.4,"manufacturingShare":31.8,"serviceShare":55,"structureNote":"二三产并重，制造与配套并存","note":"示意边界（球面圆），指标为模拟合成"},"geometry":{"type":"Polygon","coordinates":[[[114.8723,30.777655778130743],[114.93773188910738,30.77272087860081],[115.0011561245573,30.758067615885317],[115.06062845340804,30.73414551220795],[115.1143291968161,30.701687988696484],[115.16062007590325,30.661689273888776],[115.19809477532154,30.61537321137102],[115.22562161676396,30.564155037098402],[115.24237706123307,30.509597415840314],[115.24786914012425,30.45336218965183],[115.24195030639872,30.3971593962087],[115.22481957626587,30.34269516173123],[115.19701418131893,30.29162006549455],[115.15939125891379,30.24547951613255],[115.11310036830277,30.20566758089854],[115.05954783022608,30.17338557500559],[115.00035405087765,30.149606556201487],[114.93730511261529,30.135046686279257],[114.8723,30.130144221869262],[114.8072948873847,30.135046686279257],[114.74424594912233,30.149606556201487],[114.6850521697739,30.17338557500559],[114.63149963169721,30.20566758089854],[114.5852087410862,30.24547951613255],[114.54758581868104,30.29162006549455],[114.5197804237341,30.34269516173123],[114.50264969360126,30.3971593962087],[114.49673085987571,30.45336218965183],[114.50222293876689,30.509597415840314],[114.51897838323603,30.564155037098402],[114.54650522467847,30.61537321137102],[114.58397992409675,30.661689273888776],[114.63027080318389,30.701687988696484],[114.68397154659192,30.73414551220795],[114.74344387544268,30.758067615885317],[114.8068681108926,30.77272087860081],[114.8723,30.777655778130743]]]}},{"type":"Feature","properties":{"id":"421200","name":"咸宁市","tier":3,"tierLabel":"地级市","popDensity":5755.2,"poiPerKm2":9.55,"poiCountEstimate":75507,"vitalityIdx":93,"econIdx":89,"popIdx":53,"nightEconomyIdx":67,"consumePotential":87,"trafficReachIdx":72,"inboundFlowIdx":73,"gdpProxyIdx":66,"popGrowthPct":0.5,"manufacturingShare":39.1,"serviceShare":42,"structureNote":"二三产并重，制造与配套并存","note":"示意边界（球面圆），指标为模拟合成"},"geometry":{"type":"Polygon","coordinates":[[[114.3225,30.09311004965725],[114.37303621444063,30.08927486943432],[114.42202548857317,30.077886735343423],[114.46796928210243,30.059294192131233],[114.50946421043679,30.034066022919863],[114.54524558407344,30.00297349453519],[114.57422629907889,29.966966346343835],[114.59552984256014,29.927143323629927],[114.60851641722334,29.884718225709676],[114.612801457676,29.8409825692686],[114.60826609236446,29.797266055826547],[114.5950593844065,29.754896078119796],[114.57359244982271,29.71515750488885],[114.544524793527,29.67925395001242],[114.50874341588155,29.64827166416382],[114.46733542269564,29.623147089832816],[114.42155501887667,29.604638998501994],[114.37278588204765,29.593305986733707],[114.3225,29.589489950342763],[114.27221411795234,29.593305986733707],[114.22344498112332,29.604638998501994],[114.17766457730437,29.623147089832816],[114.13625658411846,29.64827166416382],[114.100475206473,29.67925395001242],[114.0714075501773,29.71515750488885],[114.0499406155935,29.754896078119796],[114.03673390763554,29.797266055826547],[114.03219854232401,29.8409825692686],[114.03648358277665,29.884718225709676],[114.04947015743986,29.927143323629927],[114.07077370092112,29.966966346343835],[114.09975441592654,30.00297349453519],[114.1355357895632,30.034066022919863],[114.17703071789758,30.059294192131233],[114.22297451142683,30.077886735343423],[114.27196378555938,30.08927486943432],[114.3225,30.09311004965725]]]}},{"type":"Feature","properties":{"id":"421300","name":"随州市","tier":4,"tierLabel":"中小城市 / 省直管","popDensity":3145.5,"poiPerKm2":194.88,"poiCountEstimate":300179,"vitalityIdx":83,"econIdx":89,"popIdx":42,"nightEconomyIdx":67,"consumePotential":83,"trafficReachIdx":96,"inboundFlowIdx":62,"gdpProxyIdx":70,"popGrowthPct":0.9,"manufacturingShare":31.6,"serviceShare":51.5,"structureNote":"二三产并重，制造与配套并存","note":"示意边界（球面圆），指标为模拟合成"},"geometry":{"type":"Polygon","coordinates":[[[113.38250000000001,31.914930401479683],[113.42849231723407,31.91150647368785],[113.47307720175417,31.90133947549682],[113.51489120383731,31.884740486576028],[113.55265735221481,31.862217164464937],[113.58522473902826,31.834457915466782],[113.61160389579136,31.80231048424285],[113.63099683764,31.766755673648067],[113.64282086847832,31.728877057324386],[113.64672548102618,31.689827664330974],[113.64260193937938,31.65079469488721],[113.6305853845531,31.612963368394507],[113.61104954454599,31.577481010325002],[113.58459435125988,31.545422455777594],[113.55202696147595,31.51775778796472],[113.51433684507046,31.495323343660818],[113.47266574011414,31.478796808997586],[113.42827338255248,31.468677102160864],[113.38250000000001,31.465269598520322],[113.33672661744752,31.468677102160864],[113.29233425988585,31.478796808997586],[113.25066315492954,31.495323343660818],[113.21297303852404,31.51775778796472],[113.18040564874012,31.545422455777594],[113.153950455454,31.577481010325002],[113.1344146154469,31.612963368394507],[113.12239806062061,31.65079469488721],[113.1182745189738,31.689827664330974],[113.12217913152169,31.728877057324386],[113.13400316236,31.766755673648067],[113.15339610420862,31.80231048424285],[113.17977526097172,31.834457915466782],[113.21234264778518,31.862217164464937],[113.25010879616268,31.884740486576028],[113.29192279824585,31.90133947549682],[113.33650768276591,31.91150647368785],[113.38250000000001,31.914930401479683]]]}},{"type":"Feature","properties":{"id":"422800","name":"恩施土家族苗族自治州","tier":3,"tierLabel":"地级市","popDensity":5325.8,"poiPerKm2":208.31,"poiCountEstimate":165460,"vitalityIdx":64,"econIdx":96,"popIdx":100,"nightEconomyIdx":64,"consumePotential":85,"trafficReachIdx":81,"inboundFlowIdx":51,"gdpProxyIdx":91,"popGrowthPct":-0.1,"manufacturingShare":35.8,"serviceShare":50.2,"structureNote":"二三产并重，制造与配套并存","note":"示意边界（球面圆），指标为模拟合成"},"geometry":{"type":"Polygon","coordinates":[[[109.4885,30.64971507448587],[109.5647352327689,30.64395465544663],[109.6386276797422,30.626850447458104],[109.70790899276538,30.59892796785794],[109.77045702655356,30.561044515140104],[109.82436239487035,30.514362023655153],[109.86798754043825,30.460310423851407],[109.90001640191521,30.400542788985916],[109.91949319321834,30.33688380542724],[109.92584928079287,30.271273290870443],[109.91891762082605,30.205706600064666],[109.89893467279296,30.142173802722187],[109.86653011656824,30.082599498528076],[109.8227050538337,30.028785057490698],[109.7687996644867,29.9823549494376],[109.70645151564497,29.9447086636506],[109.63754589006585,29.916979527230502],[109.56415962085272,29.900001516458136],[109.4885,29.89428492551414],[109.41284037914731,29.900001516458136],[109.33945410993418,29.916979527230502],[109.27054848435505,29.9447086636506],[109.20820033551331,29.9823549494376],[109.1542949461663,30.028785057490698],[109.11046988343178,30.082599498528076],[109.07806532720704,30.142173802722187],[109.05808237917395,30.205706600064666],[109.05115071920714,30.271273290870443],[109.05750680678167,30.33688380542724],[109.07698359808481,30.400542788985916],[109.10901245956177,30.460310423851407],[109.15263760512968,30.514362023655153],[109.20654297344647,30.561044515140104],[109.26909100723464,30.59892796785794],[109.33837232025782,30.626850447458104],[109.41226476723114,30.64395465544663],[109.4885,30.64971507448587]]]}},{"type":"Feature","properties":{"id":"429004","name":"仙桃市","tier":4,"tierLabel":"中小城市 / 省直管","popDensity":2822.9,"poiPerKm2":160.96,"poiCountEstimate":320981,"vitalityIdx":93,"econIdx":72,"popIdx":72,"nightEconomyIdx":64,"consumePotential":68,"trafficReachIdx":70,"inboundFlowIdx":91,"gdpProxyIdx":91,"popGrowthPct":2.5,"manufacturingShare":40.5,"serviceShare":42.2,"structureNote":"二三产并重，制造与配套并存","note":"示意边界（球面圆），指标为模拟合成"},"geometry":{"type":"Polygon","coordinates":[[[113.454,30.488405024828626],[113.47937068913222,30.48648979484298],[113.50396758765154,30.480802520311766],[113.52704077023769,30.471516645553393],[113.54788727365441,30.458915295981107],[113.5658726852983,30.443382556516134],[113.58045053970962,30.425391655806003],[113.59117891937582,30.405490433063214],[113.59773375630304,30.384284547900517],[113.59991844603604,30.362418960796504],[113.59766951072224,30.340558260927484],[113.59105817709407,30.31936644800647],[113.58028786389727,30.299486785215752],[113.56568769694415,30.281522331746643],[113.54770228503867,30.266017736901684],[113.52687809376297,30.25344283467185],[113.50384684461659,30.244178520020956],[113.47930644305983,30.238505317868064],[113.454,30.236594975171382],[113.42869355694016,30.238505317868064],[113.4041531553834,30.244178520020956],[113.381121906237,30.25344283467185],[113.36029771496132,30.266017736901684],[113.34231230305583,30.281522331746643],[113.3277121361027,30.299486785215752],[113.3169418229059,30.31936644800647],[113.31033048927775,30.340558260927484],[113.30808155396393,30.362418960796504],[113.31026624369694,30.384284547900517],[113.31682108062415,30.405490433063214],[113.32754946029036,30.425391655806003],[113.34212731470167,30.443382556516134],[113.36011272634556,30.458915295981107],[113.3809592297623,30.471516645553393],[113.40403241234846,30.480802520311766],[113.42862931086776,30.48648979484298],[113.454,30.488405024828626]]]}},{"type":"Feature","properties":{"id":"429005","name":"潜江市","tier":4,"tierLabel":"中小城市 / 省直管","popDensity":1833,"poiPerKm2":51.79,"poiCountEstimate":200860,"vitalityIdx":89,"econIdx":79,"popIdx":100,"nightEconomyIdx":78,"consumePotential":69,"trafficReachIdx":63,"inboundFlowIdx":80,"gdpProxyIdx":56,"popGrowthPct":1.6,"manufacturingShare":31.6,"serviceShare":53.3,"structureNote":"二三产并重，制造与配套并存","note":"示意边界（球面圆），指标为模拟合成"},"geometry":{"type":"Polygon","coordinates":[[[112.8993,30.527805024828627],[112.92468097046965,30.525889790978763],[112.94928783215359,30.520202505322725],[112.972370351929,30.51091661352557],[112.99322527909584,30.49831524306229],[113.011217943115,30.482782481380738],[113.02580165819423,30.46479155981342],[113.03653433077893,30.444890320091194],[113.04309176622215,30.423684423874292],[113.04527728619078,30.401818832971387],[113.04302739335809,30.3799581370122],[113.03641334928264,30.35876633523339],[113.02563866008843,30.33888668947018],[113.01103258826144,30.320922256859703],[112.99303992397982,30.30541768419136],[112.97220735315867,30.292842802786634],[112.94916684990164,30.283578505104323],[112.92461659711236,30.2779053140234],[112.8993,30.275994975171372],[112.87398340288762,30.2779053140234],[112.84943315009833,30.283578505104323],[112.82639264684131,30.292842802786634],[112.80556007602016,30.30541768419136],[112.78756741173854,30.320922256859703],[112.77296133991157,30.33888668947018],[112.76218665071735,30.35876633523339],[112.75557260664189,30.3799581370122],[112.7533227138092,30.401818832971387],[112.75550823377786,30.423684423874292],[112.76206566922104,30.444890320091194],[112.77279834180575,30.46479155981342],[112.78738205688498,30.482782481380738],[112.80537472090415,30.49831524306229],[112.82622964807099,30.51091661352557],[112.84931216784639,30.520202505322725],[112.87391902953036,30.525889790978763],[112.8993,30.527805024828627]]]}},{"type":"Feature","properties":{"id":"429006","name":"天门市","tier":4,"tierLabel":"中小城市 / 省直管","popDensity":1486.6,"poiPerKm2":120.96,"poiCountEstimate":110860,"vitalityIdx":63,"econIdx":90,"popIdx":71,"nightEconomyIdx":58,"consumePotential":83,"trafficReachIdx":69,"inboundFlowIdx":66,"gdpProxyIdx":55,"popGrowthPct":0.8,"manufacturingShare":22.2,"serviceShare":55.5,"structureNote":"二三产并重，制造与配套并存","note":"示意边界（球面圆），指标为模拟合成"},"geometry":{"type":"Polygon","coordinates":[[[113.1669,30.81618467300619],[113.19781173863758,30.813858353581],[113.2277798707219,30.806950411357953],[113.25588999215778,30.79567169622041],[113.28128515115388,30.780366368856118],[113.3031922299943,30.761501265549484],[113.32094561536569,30.73965149585757],[113.33400741670891,30.715482737480826],[113.34198361988366,30.689730794437708],[113.34463570943092,30.663179065768492],[113.34188744966453,30.63663463026593],[113.33382667562812,30.610903687080057],[113.32070210317346,30.586767102411113],[113.30291531759856,30.56495679971345],[113.28100823817506,30.546133696424658],[113.25564647848918,30.530867836279775],[113.22759912796222,30.51962129519499],[113.19771556732263,30.512734353132544],[113.1669,30.51041532699381],[113.13608443267736,30.512734353132544],[113.1062008720378,30.51962129519499],[113.07815352151083,30.530867836279775],[113.05279176182493,30.546133696424658],[113.03088468240145,30.56495679971345],[113.01309789682654,30.586767102411113],[112.99997332437191,30.610903687080057],[112.99191255033548,30.63663463026593],[112.9891642905691,30.663179065768492],[112.99181638011633,30.689730794437708],[112.99979258329108,30.715482737480826],[113.01285438463434,30.73965149585757],[113.0306077700057,30.761501265549484],[113.05251484884613,30.780366368856118],[113.07791000784222,30.79567169622041],[113.10602012927811,30.806950411357953],[113.13598826136241,30.813858353581],[113.1669,30.81618467300619]]]}},{"type":"Feature","properties":{"id":"429021","name":"神农架林区","tier":4,"tierLabel":"中小城市 / 省直管","popDensity":4142.1,"poiPerKm2":148.45,"poiCountEstimate":395849,"vitalityIdx":97,"econIdx":51,"popIdx":85,"nightEconomyIdx":72,"consumePotential":90,"trafficReachIdx":62,"inboundFlowIdx":91,"gdpProxyIdx":84,"popGrowthPct":2.2,"manufacturingShare":33.7,"serviceShare":47.5,"structureNote":"二三产并重，制造与配套并存","note":"示意边界（球面圆），指标为模拟合成"},"geometry":{"type":"Polygon","coordinates":[[[110.6759,31.99671004965725],[110.7274570095496,31.992874114149195],[110.7774349174224,31.981483806000867],[110.82430413948838,31.962887934101715],[110.86663243090288,31.937655685713988],[110.903129392413,31.906558822390977],[110.93268618824462,31.87054760848019],[110.95440920892416,31.83072128069717],[110.9676466639663,31.788294036789747],[110.97200736965247,31.74455765099091],[110.96737128933748,31.70084191088846],[110.95389167237845,31.658474114059537],[110.93198890997976,31.618738864959912],[110.9023364724139,31.582839376379155],[110.86583950620819,31.551861409619224],[110.82360684933394,31.52674088834743],[110.77691736735636,31.508236097867837],[110.72718162609597,31.496905239204157],[110.6759,31.493089950342753],[110.62461837390401,31.496905239204157],[110.57488263264364,31.508236097867837],[110.52819315066604,31.52674088834743],[110.4859604937918,31.551861409619224],[110.4494635275861,31.582839376379155],[110.41981109002022,31.618738864959912],[110.39790832762154,31.658474114059537],[110.38442871066253,31.70084191088846],[110.37979263034752,31.74455765099091],[110.38415333603369,31.788294036789747],[110.39739079107584,31.83072128069717],[110.41911381175538,31.87054760848019],[110.44867060758698,31.906558822390977],[110.4851675690971,31.937655685713988],[110.5274958605116,31.962887934101715],[110.5743650825776,31.981483806000867],[110.6243429904504,31.992874114149195],[110.6759,31.99671004965725]]]}}]}