{"type":"FeatureCollection","name":"hubei-poi-sample-mock","meta":{"crs":"EPSG:4326","generated":"2026-05-07T11:20:43.339Z","seed":20260408,"provinceBoundary":"web/public/geo/hubei/hubei.shp（POI 已约束在省界内）","categoryKeys":["retail","food","office","life","culture","hotel","finance"],"disclaimer":"POI 为随机撒点；坐标已与湖北省界求交过滤。"},"features":[{"type":"Feature","properties":{"name":"武汉生活样点1","cityId":"420100","cityName":"武汉市","category":"生活服务","categoryKey":"life","importance":0.53},"geometry":{"type":"Point","coordinates":[114.06799692584806,30.60892861435638]}},{"type":"Feature","properties":{"name":"武汉商务样点2","cityId":"420100","cityName":"武汉市","category":"商务办公","categoryKey":"office","importance":0.81},"geometry":{"type":"Point","coordinates":[114.32519003588818,30.63627704685517]}},{"type":"Feature","properties":{"name":"武汉金融样点3","cityId":"420100","cityName":"武汉市","category":"金融网点","categoryKey":"finance","importance":0.75},"geometry":{"type":"Point","coordinates":[114.34421761015254,30.555077405646614]}},{"type":"Feature","properties":{"name":"武汉生活样点4","cityId":"420100","cityName":"武汉市","category":"生活服务","categoryKey":"life","importance":0.84},"geometry":{"type":"Point","coordinates":[114.2190331360992,30.404760261154472]}},{"type":"Feature","properties":{"name":"武汉生活样点5","cityId":"420100","cityName":"武汉市","category":"生活服务","categoryKey":"life","importance":0.97},"geometry":{"type":"Point","coordinates":[114.06661701578196,30.51051897717178]}},{"type":"Feature","properties":{"name":"武汉商务样点6","cityId":"420100","cityName":"武汉市","category":"商务办公","categoryKey":"office","importance":0.71},"geometry":{"type":"Point","coordinates":[114.20412209640737,30.639083915385676]}},{"type":"Feature","properties":{"name":"武汉住宿样点7","cityId":"420100","cityName":"武汉市","category":"住宿酒店","categoryKey":"hotel","importance":0.7},"geometry":{"type":"Point","coordinates":[114.61161252452182,30.539514384619824]}},{"type":"Feature","properties":{"name":"武汉零售样点8","cityId":"420100","cityName":"武汉市","category":"零售购物","categoryKey":"retail","importance":0.41},"geometry":{"type":"Point","coordinates":[114.2437311422327,30.752742911570188]}},{"type":"Feature","properties":{"name":"武汉零售样点9","cityId":"420100","cityName":"武汉市","category":"零售购物","categoryKey":"retail","importance":0.48},"geometry":{"type":"Point","coordinates":[114.26949064809136,30.627288377238294]}},{"type":"Feature","properties":{"name":"武汉商务样点10","cityId":"420100","cityName":"武汉市","category":"商务办公","categoryKey":"office","importance":0.39},"geometry":{"type":"Point","coordinates":[114.40125606759356,30.581724598638232]}},{"type":"Feature","properties":{"name":"武汉餐饮样点11","cityId":"420100","cityName":"武汉市","category":"餐饮美食","categoryKey":"food","importance":0.95},"geometry":{"type":"Point","coordinates":[114.32817501836156,30.510933657716457]}},{"type":"Feature","properties":{"name":"武汉零售样点12","cityId":"420100","cityName":"武汉市","category":"零售购物","categoryKey":"retail","importance":0.58},"geometry":{"type":"Point","coordinates":[114.08826797129785,30.43167886257374]}},{"type":"Feature","properties":{"name":"武汉餐饮样点13","cityId":"420100","cityName":"武汉市","category":"餐饮美食","categoryKey":"food","importance":0.39},"geometry":{"type":"Point","coordinates":[114.49847526720059,30.460725839870765]}},{"type":"Feature","properties":{"name":"武汉住宿样点14","cityId":"420100","cityName":"武汉市","category":"住宿酒店","categoryKey":"hotel","importance":0.84},"geometry":{"type":"Point","coordinates":[114.27200129969269,30.332135521835202]}},{"type":"Feature","properties":{"name":"武汉零售样点15","cityId":"420100","cityName":"武汉市","category":"零售购物","categoryKey":"retail","importance":0.86},"geometry":{"type":"Point","coordinates":[114.36793621271694,30.537649999102275]}},{"type":"Feature","properties":{"name":"武汉金融样点1","cityId":"420100","cityName":"武汉市","category":"金融网点","categoryKey":"finance","importance":0.78},"geometry":{"type":"Point","coordinates":[114.41784810851529,31.01344285129699]}},{"type":"Feature","properties":{"name":"黄冈住宿样点2","cityId":"421100","cityName":"黄冈市","category":"住宿酒店","categoryKey":"hotel","importance":0.84},"geometry":{"type":"Point","coordinates":[114.90515828534853,30.874741838089683]}},{"type":"Feature","properties":{"name":"武汉零售样点3","cityId":"420100","cityName":"武汉市","category":"零售购物","categoryKey":"retail","importance":0.9},"geometry":{"type":"Point","coordinates":[114.28949315769358,30.80041816942184]}},{"type":"Feature","properties":{"name":"武汉住宿样点4","cityId":"420100","cityName":"武汉市","category":"住宿酒店","categoryKey":"hotel","importance":0.5},"geometry":{"type":"Point","coordinates":[114.09102301434324,30.31374240167659]}},{"type":"Feature","properties":{"name":"武汉商务样点5","cityId":"420100","cityName":"武汉市","category":"商务办公","categoryKey":"office","importance":0.37},"geometry":{"type":"Point","coordinates":[114.6110053145576,30.79480705238797]}},{"type":"Feature","properties":{"name":"孝感餐饮样点6","cityId":"420900","cityName":"孝感市","category":"餐饮美食","categoryKey":"food","importance":0.41},"geometry":{"type":"Point","coordinates":[114.3880715958989,31.28525428731609]}},{"type":"Feature","properties":{"name":"咸宁文体样点7","cityId":"421200","cityName":"咸宁市","category":"文体休闲","categoryKey":"culture","importance":0.63},"geometry":{"type":"Point","coordinates":[114.35267682768459,30.20674309179006]}},{"type":"Feature","properties":{"name":"武汉生活样点8","cityId":"420100","cityName":"武汉市","category":"生活服务","categoryKey":"life","importance":0.58},"geometry":{"type":"Point","coordinates":[114.27367317632775,30.386973922058587]}},{"type":"Feature","properties":{"name":"黄冈零售样点9","cityId":"421100","cityName":"黄冈市","category":"零售购物","categoryKey":"retail","importance":0.82},"geometry":{"type":"Point","coordinates":[114.54871012228031,30.322511192835265]}},{"type":"Feature","properties":{"name":"武汉餐饮样点10","cityId":"420100","cityName":"武汉市","category":"餐饮美食","categoryKey":"food","importance":0.45},"geometry":{"type":"Point","coordinates":[114.06362308430909,30.48610590850562]}},{"type":"Feature","properties":{"name":"武汉金融样点11","cityId":"420100","cityName":"武汉市","category":"金融网点","categoryKey":"finance","importance":0.64},"geometry":{"type":"Point","coordinates":[114.31109177655372,30.49316727951573]}},{"type":"Feature","properties":{"name":"武汉生活样点12","cityId":"420100","cityName":"武汉市","category":"生活服务","categoryKey":"life","importance":0.39},"geometry":{"type":"Point","coordinates":[114.49356322879625,30.85531153845053]}},{"type":"Feature","properties":{"name":"武汉零售样点13","cityId":"420100","cityName":"武汉市","category":"零售购物","categoryKey":"retail","importance":0.64},"geometry":{"type":"Point","coordinates":[114.17105993496757,30.331692287567293]}},{"type":"Feature","properties":{"name":"黄冈生活样点14","cityId":"421100","cityName":"黄冈市","category":"生活服务","categoryKey":"life","importance":0.54},"geometry":{"type":"Point","coordinates":[114.97139024259144,30.965005462475368]}},{"type":"Feature","properties":{"name":"武汉零售样点15","cityId":"420100","cityName":"武汉市","category":"零售购物","categoryKey":"retail","importance":0.55},"geometry":{"type":"Point","coordinates":[114.2739849073885,30.310005058486528]}},{"type":"Feature","properties":{"name":"武汉零售样点16","cityId":"420100","cityName":"武汉市","category":"零售购物","categoryKey":"retail","importance":0.44},"geometry":{"type":"Point","coordinates":[114.47558364407207,31.13119984770977]}},{"type":"Feature","properties":{"name":"孝感生活样点17","cityId":"420900","cityName":"孝感市","category":"生活服务","categoryKey":"life","importance":0.8},"geometry":{"type":"Point","coordinates":[114.40487525642865,31.118344231276428]}},{"type":"Feature","properties":{"name":"武汉金融样点18","cityId":"420100","cityName":"武汉市","category":"金融网点","categoryKey":"finance","importance":0.94},"geometry":{"type":"Point","coordinates":[114.13860567494287,30.59193719702402]}},{"type":"Feature","properties":{"name":"武汉住宿样点19","cityId":"420100","cityName":"武汉市","category":"住宿酒店","categoryKey":"hotel","importance":0.94},"geometry":{"type":"Point","coordinates":[114.41614299905183,30.79579007279752]}},{"type":"Feature","properties":{"name":"黄冈餐饮样点1","cityId":"421100","cityName":"黄冈市","category":"餐饮美食","categoryKey":"food","importance":0.99},"geometry":{"type":"Point","coordinates":[114.5905287831903,30.51644028498947]}},{"type":"Feature","properties":{"name":"黄冈餐饮样点2","cityId":"421100","cityName":"黄冈市","category":"餐饮美食","categoryKey":"food","importance":0.4},"geometry":{"type":"Point","coordinates":[114.73353559293835,30.678331542787348]}},{"type":"Feature","properties":{"name":"武汉零售样点3","cityId":"420100","cityName":"武汉市","category":"零售购物","categoryKey":"retail","importance":0.43},"geometry":{"type":"Point","coordinates":[114.5602044025859,30.89278063115556]}},{"type":"Feature","properties":{"name":"武汉零售样点4","cityId":"420100","cityName":"武汉市","category":"零售购物","categoryKey":"retail","importance":0.98},"geometry":{"type":"Point","coordinates":[114.30552551135231,30.475403545737265]}},{"type":"Feature","properties":{"name":"黄冈商务样点5","cityId":"421100","cityName":"黄冈市","category":"商务办公","categoryKey":"office","importance":0.99},"geometry":{"type":"Point","coordinates":[114.91410141426876,30.837678853080835]}},{"type":"Feature","properties":{"name":"孝感商务样点6","cityId":"420900","cityName":"孝感市","category":"商务办公","categoryKey":"office","importance":0.86},"geometry":{"type":"Point","coordinates":[114.32135352730857,31.23266635757764]}},{"type":"Feature","properties":{"name":"孝感文体样点7","cityId":"420900","cityName":"孝感市","category":"文体休闲","categoryKey":"culture","importance":0.42},"geometry":{"type":"Point","coordinates":[114.35642442104806,31.2282171062214]}},{"type":"Feature","properties":{"name":"武汉生活样点8","cityId":"420100","cityName":"武汉市","category":"生活服务","categoryKey":"life","importance":0.83},"geometry":{"type":"Point","coordinates":[114.49884004352607,30.724726222724502]}},{"type":"Feature","properties":{"name":"武汉文体样点9","cityId":"420100","cityName":"武汉市","category":"文体休闲","categoryKey":"culture","importance":0.53},"geometry":{"type":"Point","coordinates":[114.28611277799843,30.84949144619229]}},{"type":"Feature","properties":{"name":"武汉生活样点10","cityId":"420100","cityName":"武汉市","category":"生活服务","categoryKey":"life","importance":0.44},"geometry":{"type":"Point","coordinates":[114.2571474744737,30.232355393175858]}},{"type":"Feature","properties":{"name":"黄冈生活样点11","cityId":"421100","cityName":"黄冈市","category":"生活服务","categoryKey":"life","importance":0.93},"geometry":{"type":"Point","coordinates":[114.60544039755392,30.471374353981805]}},{"type":"Feature","properties":{"name":"武汉文体样点12","cityId":"420100","cityName":"武汉市","category":"文体休闲","categoryKey":"culture","importance":0.51},"geometry":{"type":"Point","coordinates":[114.49477081701029,31.078375455064254]}},{"type":"Feature","properties":{"name":"仙桃商务样点13","cityId":"429004","cityName":"仙桃市","category":"商务办公","categoryKey":"office","importance":0.39},"geometry":{"type":"Point","coordinates":[113.81651972410093,30.42624811509682]}},{"type":"Feature","properties":{"name":"咸宁住宿样点14","cityId":"421200","cityName":"咸宁市","category":"住宿酒店","categoryKey":"hotel","importance":0.82},"geometry":{"type":"Point","coordinates":[114.33037408414245,30.10661450864462]}},{"type":"Feature","properties":{"name":"武汉零售样点15","cityId":"420100","cityName":"武汉市","category":"零售购物","categoryKey":"retail","importance":0.51},"geometry":{"type":"Point","coordinates":[114.21715145002788,30.365324119731604]}},{"type":"Feature","properties":{"name":"武汉金融样点1","cityId":"420100","cityName":"武汉市","category":"金融网点","categoryKey":"finance","importance":0.92},"geometry":{"type":"Point","coordinates":[114.34922482426289,30.9913472592052]}},{"type":"Feature","properties":{"name":"仙桃零售样点2","cityId":"429004","cityName":"仙桃市","category":"零售购物","categoryKey":"retail","importance":0.8},"geometry":{"type":"Point","coordinates":[113.84007520827699,30.317181844318284]}},{"type":"Feature","properties":{"name":"武汉金融样点3","cityId":"420100","cityName":"武汉市","category":"金融网点","categoryKey":"finance","importance":0.8},"geometry":{"type":"Point","coordinates":[114.11565870228125,30.665676004443956]}},{"type":"Feature","properties":{"name":"武汉文体样点4","cityId":"420100","cityName":"武汉市","category":"文体休闲","categoryKey":"culture","importance":0.46},"geometry":{"type":"Point","coordinates":[114.37744619819414,30.295983221631257]}},{"type":"Feature","properties":{"name":"仙桃零售样点5","cityId":"429004","cityName":"仙桃市","category":"零售购物","categoryKey":"retail","importance":0.86},"geometry":{"type":"Point","coordinates":[113.81503281937889,30.28489208426111]}},{"type":"Feature","properties":{"name":"仙桃零售样点6","cityId":"429004","cityName":"仙桃市","category":"零售购物","categoryKey":"retail","importance":0.67},"geometry":{"type":"Point","coordinates":[113.80990750379159,30.354476446823618]}},{"type":"Feature","properties":{"name":"武汉餐饮样点7","cityId":"420100","cityName":"武汉市","category":"餐饮美食","categoryKey":"food","importance":0.96},"geometry":{"type":"Point","coordinates":[113.94684312227822,30.317316626198387]}},{"type":"Feature","properties":{"name":"武汉文体样点8","cityId":"420100","cityName":"武汉市","category":"文体休闲","categoryKey":"culture","importance":0.86},"geometry":{"type":"Point","coordinates":[114.49966395226774,30.260271509532597]}},{"type":"Feature","properties":{"name":"武汉零售样点9","cityId":"420100","cityName":"武汉市","category":"零售购物","categoryKey":"retail","importance":0.51},"geometry":{"type":"Point","coordinates":[114.49747583025626,31.084715692474592]}},{"type":"Feature","properties":{"name":"咸宁文体样点10","cityId":"421200","cityName":"咸宁市","category":"文体休闲","categoryKey":"culture","importance":0.55},"geometry":{"type":"Point","coordinates":[114.33334515415667,30.076927936105605]}},{"type":"Feature","properties":{"name":"孝感文体样点11","cityId":"420900","cityName":"孝感市","category":"文体休闲","categoryKey":"culture","importance":0.77},"geometry":{"type":"Point","coordinates":[113.89440152786577,30.521166301946195]}},{"type":"Feature","properties":{"name":"武汉生活样点12","cityId":"420100","cityName":"武汉市","category":"生活服务","categoryKey":"life","importance":0.37},"geometry":{"type":"Point","coordinates":[114.12762411731381,30.236343485634386]}},{"type":"Feature","properties":{"name":"孝感金融样点13","cityId":"420900","cityName":"孝感市","category":"金融网点","categoryKey":"finance","importance":0.53},"geometry":{"type":"Point","coordinates":[114.29892974367978,31.33447586683679]}},{"type":"Feature","properties":{"name":"武汉文体样点1","cityId":"420100","cityName":"武汉市","category":"文体休闲","categoryKey":"culture","importance":0.64},"geometry":{"type":"Point","coordinates":[114.46380196770673,30.79376320977654]}},{"type":"Feature","properties":{"name":"孝感餐饮样点2","cityId":"420900","cityName":"孝感市","category":"餐饮美食","categoryKey":"food","importance":0.66},"geometry":{"type":"Point","coordinates":[114.19038792198722,31.26250609772265]}},{"type":"Feature","properties":{"name":"咸宁商务样点3","cityId":"421200","cityName":"咸宁市","category":"商务办公","categoryKey":"office","importance":0.41},"geometry":{"type":"Point","coordinates":[114.34402494865277,30.13489153630472]}},{"type":"Feature","properties":{"name":"黄冈生活样点4","cityId":"421100","cityName":"黄冈市","category":"生活服务","categoryKey":"life","importance":0.35},"geometry":{"type":"Point","coordinates":[114.56023047726936,30.327898207280054]}},{"type":"Feature","properties":{"name":"武汉生活样点5","cityId":"420100","cityName":"武汉市","category":"生活服务","categoryKey":"life","importance":0.89},"geometry":{"type":"Point","coordinates":[114.66700275701616,30.91600685415934]}},{"type":"Feature","properties":{"name":"武汉住宿样点6","cityId":"420100","cityName":"武汉市","category":"住宿酒店","categoryKey":"hotel","importance":0.98},"geometry":{"type":"Point","coordinates":[113.9305964347278,30.34100800246048]}},{"type":"Feature","properties":{"name":"黄冈餐饮样点7","cityId":"421100","cityName":"黄冈市","category":"餐饮美食","categoryKey":"food","importance":0.6},"geometry":{"type":"Point","coordinates":[114.6035329386424,30.518427789703793]}},{"type":"Feature","properties":{"name":"武汉商务样点8","cityId":"420100","cityName":"武汉市","category":"商务办公","categoryKey":"office","importance":0.79},"geometry":{"type":"Point","coordinates":[114.45068955724449,30.99466451848803]}},{"type":"Feature","properties":{"name":"武汉文体样点9","cityId":"420100","cityName":"武汉市","category":"文体休闲","categoryKey":"culture","importance":0.55},"geometry":{"type":"Point","coordinates":[113.90710103591533,30.388721474755393]}},{"type":"Feature","properties":{"name":"武汉餐饮样点10","cityId":"420100","cityName":"武汉市","category":"餐饮美食","categoryKey":"food","importance":0.82},"geometry":{"type":"Point","coordinates":[114.19748031007676,30.36096035514633]}},{"type":"Feature","properties":{"name":"武汉金融样点11","cityId":"420100","cityName":"武汉市","category":"金融网点","categoryKey":"finance","importance":0.48},"geometry":{"type":"Point","coordinates":[114.39331976319347,30.61009915251273]}},{"type":"Feature","properties":{"name":"孝感餐饮样点12","cityId":"420900","cityName":"孝感市","category":"餐饮美食","categoryKey":"food","importance":0.43},"geometry":{"type":"Point","coordinates":[114.33006938439206,31.12641494075222]}},{"type":"Feature","properties":{"name":"黄冈商务样点13","cityId":"421100","cityName":"黄冈市","category":"商务办公","categoryKey":"office","importance":0.47},"geometry":{"type":"Point","coordinates":[114.9591383320104,30.886802853531744]}},{"type":"Feature","properties":{"name":"咸宁零售样点14","cityId":"421200","cityName":"咸宁市","category":"零售购物","categoryKey":"retail","importance":0.82},"geometry":{"type":"Point","coordinates":[114.48955048592002,30.155513535363138]}},{"type":"Feature","properties":{"name":"武汉商务样点15","cityId":"420100","cityName":"武汉市","category":"商务办公","categoryKey":"office","importance":0.64},"geometry":{"type":"Point","coordinates":[114.37847971217974,30.491064486697415]}},{"type":"Feature","properties":{"name":"武汉餐饮样点16","cityId":"420100","cityName":"武汉市","category":"餐饮美食","categoryKey":"food","importance":0.47},"geometry":{"type":"Point","coordinates":[114.33931340612229,30.90447581177894]}},{"type":"Feature","properties":{"name":"武汉文体样点17","cityId":"420100","cityName":"武汉市","category":"文体休闲","categoryKey":"culture","importance":0.6},"geometry":{"type":"Point","coordinates":[114.12139263536326,30.288986439027052]}},{"type":"Feature","properties":{"name":"武汉住宿样点1","cityId":"420100","cityName":"武汉市","category":"住宿酒店","categoryKey":"hotel","importance":0.56},"geometry":{"type":"Point","coordinates":[114.56663025431112,30.680904697575034]}},{"type":"Feature","properties":{"name":"咸宁金融样点2","cityId":"421200","cityName":"咸宁市","category":"金融网点","categoryKey":"finance","importance":0.41},"geometry":{"type":"Point","coordinates":[114.27601625886217,30.15886157471888]}},{"type":"Feature","properties":{"name":"武汉金融样点3","cityId":"420100","cityName":"武汉市","category":"金融网点","categoryKey":"finance","importance":0.81},"geometry":{"type":"Point","coordinates":[114.22399877283264,30.71867077009995]}},{"type":"Feature","properties":{"name":"孝感住宿样点4","cityId":"420900","cityName":"孝感市","category":"住宿酒店","categoryKey":"hotel","importance":0.53},"geometry":{"type":"Point","coordinates":[114.35902441457306,31.07372419212067]}},{"type":"Feature","properties":{"name":"咸宁零售样点5","cityId":"421200","cityName":"咸宁市","category":"零售购物","categoryKey":"retail","importance":0.63},"geometry":{"type":"Point","coordinates":[114.31771358486759,30.098299240268066]}},{"type":"Feature","properties":{"name":"黄冈文体样点6","cityId":"421100","cityName":"黄冈市","category":"文体休闲","categoryKey":"culture","importance":0.96},"geometry":{"type":"Point","coordinates":[114.70819247373338,30.96462557722993]}},{"type":"Feature","properties":{"name":"武汉生活样点7","cityId":"420100","cityName":"武汉市","category":"生活服务","categoryKey":"life","importance":0.57},"geometry":{"type":"Point","coordinates":[114.34503217117705,30.343664344628586]}},{"type":"Feature","properties":{"name":"武汉金融样点8","cityId":"420100","cityName":"武汉市","category":"金融网点","categoryKey":"finance","importance":0.91},"geometry":{"type":"Point","coordinates":[114.36105272120095,30.360964680722883]}},{"type":"Feature","properties":{"name":"黄冈金融样点9","cityId":"421100","cityName":"黄冈市","category":"金融网点","categoryKey":"finance","importance":0.49},"geometry":{"type":"Point","coordinates":[114.9453959885272,30.82477340874088]}},{"type":"Feature","properties":{"name":"黄冈金融样点10","cityId":"421100","cityName":"黄冈市","category":"金融网点","categoryKey":"finance","importance":0.69},"geometry":{"type":"Point","coordinates":[114.83073854767314,30.80904373269378]}},{"type":"Feature","properties":{"name":"武汉文体样点11","cityId":"420100","cityName":"武汉市","category":"文体休闲","categoryKey":"culture","importance":0.84},"geometry":{"type":"Point","coordinates":[114.55696172500555,30.844467060706947]}},{"type":"Feature","properties":{"name":"武汉零售样点12","cityId":"420100","cityName":"武汉市","category":"零售购物","categoryKey":"retail","importance":0.58},"geometry":{"type":"Point","coordinates":[114.25526956736256,30.380135399100443]}},{"type":"Feature","properties":{"name":"武汉住宿样点13","cityId":"420100","cityName":"武汉市","category":"住宿酒店","categoryKey":"hotel","importance":0.99},"geometry":{"type":"Point","coordinates":[114.61387192140793,30.821823646514105]}},{"type":"Feature","properties":{"name":"黄冈商务样点14","cityId":"421100","cityName":"黄冈市","category":"商务办公","categoryKey":"office","importance":0.49},"geometry":{"type":"Point","coordinates":[114.90701004230539,30.907836097698464]}},{"type":"Feature","properties":{"name":"孝感金融样点15","cityId":"420900","cityName":"孝感市","category":"金融网点","categoryKey":"finance","importance":0.58},"geometry":{"type":"Point","coordinates":[114.30851402186809,31.237619056848427]}},{"type":"Feature","properties":{"name":"武汉餐饮样点16","cityId":"420100","cityName":"武汉市","category":"餐饮美食","categoryKey":"food","importance":0.83},"geometry":{"type":"Point","coordinates":[113.9366357577167,30.459097578897932]}},{"type":"Feature","properties":{"name":"武汉住宿样点17","cityId":"420100","cityName":"武汉市","category":"住宿酒店","categoryKey":"hotel","importance":0.53},"geometry":{"type":"Point","coordinates":[113.96696415368939,30.41013190582707]}},{"type":"Feature","properties":{"name":"咸宁生活样点1","cityId":"421200","cityName":"咸宁市","category":"生活服务","categoryKey":"life","importance":0.44},"geometry":{"type":"Point","coordinates":[114.27157483278725,30.03617237456141]}},{"type":"Feature","properties":{"name":"孝感金融样点2","cityId":"420900","cityName":"孝感市","category":"金融网点","categoryKey":"finance","importance":0.9},"geometry":{"type":"Point","coordinates":[113.97986945940019,30.63576693062505]}},{"type":"Feature","properties":{"name":"孝感生活样点3","cityId":"420900","cityName":"孝感市","category":"生活服务","categoryKey":"life","importance":0.6},"geometry":{"type":"Point","coordinates":[113.91415240128352,30.740853327443283]}},{"type":"Feature","properties":{"name":"咸宁金融样点4","cityId":"421200","cityName":"咸宁市","category":"金融网点","categoryKey":"finance","importance":0.99},"geometry":{"type":"Point","coordinates":[114.3586625150133,30.108433813021367]}},{"type":"Feature","properties":{"name":"武汉生活样点5","cityId":"420100","cityName":"武汉市","category":"生活服务","categoryKey":"life","importance":0.74},"geometry":{"type":"Point","coordinates":[114.34303516052815,30.902883212078198]}},{"type":"Feature","properties":{"name":"武汉零售样点6","cityId":"420100","cityName":"武汉市","category":"零售购物","categoryKey":"retail","importance":0.36},"geometry":{"type":"Point","coordinates":[114.50834981307595,30.87538651039099]}},{"type":"Feature","properties":{"name":"武汉生活样点7","cityId":"420100","cityName":"武汉市","category":"生活服务","categoryKey":"life","importance":0.5},"geometry":{"type":"Point","coordinates":[114.56185232187454,30.971015385546636]}},{"type":"Feature","properties":{"name":"黄冈餐饮样点8","cityId":"421100","cityName":"黄冈市","category":"餐饮美食","categoryKey":"food","importance":0.95},"geometry":{"type":"Point","coordinates":[114.92423750034257,30.83630555787515]}},{"type":"Feature","properties":{"name":"武汉金融样点9","cityId":"420100","cityName":"武汉市","category":"金融网点","categoryKey":"finance","importance":0.4},"geometry":{"type":"Point","coordinates":[114.47197456148513,30.407816394590462]}},{"type":"Feature","properties":{"name":"武汉零售样点10","cityId":"420100","cityName":"武汉市","category":"零售购物","categoryKey":"retail","importance":0.7},"geometry":{"type":"Point","coordinates":[114.53178639347102,30.981525215596534]}},{"type":"Feature","properties":{"name":"武汉商务样点11","cityId":"420100","cityName":"武汉市","category":"商务办公","categoryKey":"office","importance":0.83},"geometry":{"type":"Point","coordinates":[114.29322601497977,30.769877645040346]}},{"type":"Feature","properties":{"name":"武汉金融样点12","cityId":"420100","cityName":"武汉市","category":"金融网点","categoryKey":"finance","importance":0.73},"geometry":{"type":"Point","coordinates":[114.28330097805103,30.304871225900126]}},{"type":"Feature","properties":{"name":"武汉零售样点13","cityId":"420100","cityName":"武汉市","category":"零售购物","categoryKey":"retail","importance":0.65},"geometry":{"type":"Point","coordinates":[114.53726051041797,30.51639806629931]}},{"type":"Feature","properties":{"name":"武汉文体样点14","cityId":"420100","cityName":"武汉市","category":"文体休闲","categoryKey":"culture","importance":0.85},"geometry":{"type":"Point","coordinates":[113.97460662539724,30.572561115037068]}},{"type":"Feature","properties":{"name":"武汉金融样点15","cityId":"420100","cityName":"武汉市","category":"金融网点","categoryKey":"finance","importance":0.72},"geometry":{"type":"Point","coordinates":[114.51609176976454,31.139244608911618]}},{"type":"Feature","properties":{"name":"武汉金融样点16","cityId":"420100","cityName":"武汉市","category":"金融网点","categoryKey":"finance","importance":0.5},"geometry":{"type":"Point","coordinates":[114.44382692992272,30.647845753299396]}},{"type":"Feature","properties":{"name":"武汉零售样点17","cityId":"420100","cityName":"武汉市","category":"零售购物","categoryKey":"retail","importance":0.77},"geometry":{"type":"Point","coordinates":[114.43916811258539,31.043458749712613]}},{"type":"Feature","properties":{"name":"武汉文体样点1","cityId":"420100","cityName":"武汉市","category":"文体休闲","categoryKey":"culture","importance":0.86},"geometry":{"type":"Point","coordinates":[114.10768588969526,30.543590918190475]}},{"type":"Feature","properties":{"name":"孝感住宿样点2","cityId":"420900","cityName":"孝感市","category":"住宿酒店","categoryKey":"hotel","importance":0.62},"geometry":{"type":"Point","coordinates":[114.00899116322287,30.77924337006838]}},{"type":"Feature","properties":{"name":"孝感零售样点3","cityId":"420900","cityName":"孝感市","category":"零售购物","categoryKey":"retail","importance":0.97},"geometry":{"type":"Point","coordinates":[114.05595771734613,30.77009999291066]}},{"type":"Feature","properties":{"name":"孝感零售样点4","cityId":"420900","cityName":"孝感市","category":"零售购物","categoryKey":"retail","importance":0.48},"geometry":{"type":"Point","coordinates":[113.98919702515,30.772892117573775]}},{"type":"Feature","properties":{"name":"孝感生活样点5","cityId":"420900","cityName":"孝感市","category":"生活服务","categoryKey":"life","importance":0.52},"geometry":{"type":"Point","coordinates":[114.09153613291016,30.75823581612174]}},{"type":"Feature","properties":{"name":"孝感文体样点6","cityId":"420900","cityName":"孝感市","category":"文体休闲","categoryKey":"culture","importance":0.42},"geometry":{"type":"Point","coordinates":[113.95732636858232,30.72409672856369]}},{"type":"Feature","properties":{"name":"孝感文体样点7","cityId":"420900","cityName":"孝感市","category":"文体休闲","categoryKey":"culture","importance":0.91},"geometry":{"type":"Point","coordinates":[113.9598431696506,30.719434760730977]}},{"type":"Feature","properties":{"name":"武汉金融样点8","cityId":"420100","cityName":"武汉市","category":"金融网点","categoryKey":"finance","importance":0.5},"geometry":{"type":"Point","coordinates":[114.02891326541004,30.490675489124413]}},{"type":"Feature","properties":{"name":"黄冈金融样点9","cityId":"421100","cityName":"黄冈市","category":"金融网点","categoryKey":"finance","importance":0.62},"geometry":{"type":"Point","coordinates":[114.72822100073208,30.711892994803893]}},{"type":"Feature","properties":{"name":"武汉餐饮样点10","cityId":"420100","cityName":"武汉市","category":"餐饮美食","categoryKey":"food","importance":0.92},"geometry":{"type":"Point","coordinates":[113.92932168969578,30.400154423093262]}},{"type":"Feature","properties":{"name":"孝感零售样点11","cityId":"420900","cityName":"孝感市","category":"零售购物","categoryKey":"retail","importance":0.68},"geometry":{"type":"Point","coordinates":[113.98270181288842,30.733782417690584]}},{"type":"Feature","properties":{"name":"孝感商务样点12","cityId":"420900","cityName":"孝感市","category":"商务办公","categoryKey":"office","importance":0.97},"geometry":{"type":"Point","coordinates":[113.97462150608675,30.76476854167809]}},{"type":"Feature","properties":{"name":"孝感金融样点13","cityId":"420900","cityName":"孝感市","category":"金融网点","categoryKey":"finance","importance":0.68},"geometry":{"type":"Point","coordinates":[114.04902130182707,30.77110427151781]}},{"type":"Feature","properties":{"name":"孝感生活样点14","cityId":"420900","cityName":"孝感市","category":"生活服务","categoryKey":"life","importance":0.53},"geometry":{"type":"Point","coordinates":[114.04702487821062,30.77062562628477]}},{"type":"Feature","properties":{"name":"孝感商务样点15","cityId":"420900","cityName":"孝感市","category":"商务办公","categoryKey":"office","importance":0.5},"geometry":{"type":"Point","coordinates":[114.00880614851256,30.78424901250899]}},{"type":"Feature","properties":{"name":"孝感商务样点16","cityId":"420900","cityName":"孝感市","category":"商务办公","categoryKey":"office","importance":0.42},"geometry":{"type":"Point","coordinates":[113.9340064814162,30.75362481368163]}},{"type":"Feature","properties":{"name":"武汉住宿样点1","cityId":"420100","cityName":"武汉市","category":"住宿酒店","categoryKey":"hotel","importance":0.45},"geometry":{"type":"Point","coordinates":[114.03998456971601,30.390109981912243]}},{"type":"Feature","properties":{"name":"仙桃餐饮样点2","cityId":"429004","cityName":"仙桃市","category":"餐饮美食","categoryKey":"food","importance":0.47},"geometry":{"type":"Point","coordinates":[113.78653235663667,30.33693915456328]}},{"type":"Feature","properties":{"name":"孝感商务样点3","cityId":"420900","cityName":"孝感市","category":"商务办公","categoryKey":"office","importance":0.46},"geometry":{"type":"Point","coordinates":[113.87897966883745,30.49776365913436]}},{"type":"Feature","properties":{"name":"武汉文体样点4","cityId":"420100","cityName":"武汉市","category":"文体休闲","categoryKey":"culture","importance":0.43},"geometry":{"type":"Point","coordinates":[114.6166926635224,30.847089905664667]}},{"type":"Feature","properties":{"name":"孝感生活样点5","cityId":"420900","cityName":"孝感市","category":"生活服务","categoryKey":"life","importance":0.51},"geometry":{"type":"Point","coordinates":[114.29489478669292,31.051650541626948]}},{"type":"Feature","properties":{"name":"咸宁文体样点6","cityId":"421200","cityName":"咸宁市","category":"文体休闲","categoryKey":"culture","importance":0.44},"geometry":{"type":"Point","coordinates":[114.43278256901743,30.105042089782415]}},{"type":"Feature","properties":{"name":"武汉住宿样点7","cityId":"420100","cityName":"武汉市","category":"住宿酒店","categoryKey":"hotel","importance":0.53},"geometry":{"type":"Point","coordinates":[114.1356610075087,30.395471017294913]}},{"type":"Feature","properties":{"name":"孝感文体样点8","cityId":"420900","cityName":"孝感市","category":"文体休闲","categoryKey":"culture","importance":0.75},"geometry":{"type":"Point","coordinates":[114.24421010555088,30.96474538147308]}},{"type":"Feature","properties":{"name":"武汉住宿样点9","cityId":"420100","cityName":"武汉市","category":"住宿酒店","categoryKey":"hotel","importance":0.6},"geometry":{"type":"Point","coordinates":[114.42790061660725,30.863212185066196]}},{"type":"Feature","properties":{"name":"武汉生活样点10","cityId":"420100","cityName":"武汉市","category":"生活服务","categoryKey":"life","importance":0.52},"geometry":{"type":"Point","coordinates":[114.42846855533485,30.33025085294482]}},{"type":"Feature","properties":{"name":"咸宁住宿样点11","cityId":"421200","cityName":"咸宁市","category":"住宿酒店","categoryKey":"hotel","importance":0.69},"geometry":{"type":"Point","coordinates":[114.2963592226305,30.12337432753751]}},{"type":"Feature","properties":{"name":"仙桃住宿样点12","cityId":"429004","cityName":"仙桃市","category":"住宿酒店","categoryKey":"hotel","importance":0.37},"geometry":{"type":"Point","coordinates":[113.7755785051452,30.377515049281246]}},{"type":"Feature","properties":{"name":"武汉餐饮样点13","cityId":"420100","cityName":"武汉市","category":"餐饮美食","categoryKey":"food","importance":0.47},"geometry":{"type":"Point","coordinates":[114.38558560119448,30.96598908860175]}},{"type":"Feature","properties":{"name":"孝感商务样点14","cityId":"420900","cityName":"孝感市","category":"商务办公","categoryKey":"office","importance":0.9},"geometry":{"type":"Point","coordinates":[113.92984128952952,30.552556980529797]}},{"type":"Feature","properties":{"name":"咸宁金融样点1","cityId":"421200","cityName":"咸宁市","category":"金融网点","categoryKey":"finance","importance":0.57},"geometry":{"type":"Point","coordinates":[114.37290604794849,30.135659308156164]}},{"type":"Feature","properties":{"name":"武汉住宿样点2","cityId":"420100","cityName":"武汉市","category":"住宿酒店","categoryKey":"hotel","importance":0.49},"geometry":{"type":"Point","coordinates":[114.32405137853517,30.841944608858213]}},{"type":"Feature","properties":{"name":"黄冈生活样点3","cityId":"421100","cityName":"黄冈市","category":"生活服务","categoryKey":"life","importance":0.72},"geometry":{"type":"Point","coordinates":[114.74854233296021,30.661146629616844]}},{"type":"Feature","properties":{"name":"武汉零售样点4","cityId":"420100","cityName":"武汉市","category":"零售购物","categoryKey":"retail","importance":0.76},"geometry":{"type":"Point","coordinates":[114.26441013691661,30.595256540180173]}},{"type":"Feature","properties":{"name":"黄冈商务样点5","cityId":"421100","cityName":"黄冈市","category":"商务办公","categoryKey":"office","importance":0.63},"geometry":{"type":"Point","coordinates":[114.72544925936923,30.65298822947049]}},{"type":"Feature","properties":{"name":"黄冈餐饮样点6","cityId":"421100","cityName":"黄冈市","category":"餐饮美食","categoryKey":"food","importance":0.56},"geometry":{"type":"Point","coordinates":[114.62053552883233,30.480482773174558]}},{"type":"Feature","properties":{"name":"黄冈文体样点7","cityId":"421100","cityName":"黄冈市","category":"文体休闲","categoryKey":"culture","importance":0.48},"geometry":{"type":"Point","coordinates":[114.68030343182507,30.723328156325422]}},{"type":"Feature","properties":{"name":"黄冈餐饮样点8","cityId":"421100","cityName":"黄冈市","category":"餐饮美食","categoryKey":"food","importance":0.77},"geometry":{"type":"Point","coordinates":[114.78976860310561,30.66323494342823]}},{"type":"Feature","properties":{"name":"黄冈文体样点9","cityId":"421100","cityName":"黄冈市","category":"文体休闲","categoryKey":"culture","importance":0.87},"geometry":{"type":"Point","coordinates":[114.72476805415292,30.645843930680492]}},{"type":"Feature","properties":{"name":"黄冈商务样点10","cityId":"421100","cityName":"黄冈市","category":"商务办公","categoryKey":"office","importance":0.82},"geometry":{"type":"Point","coordinates":[114.78087982612921,30.636838166635076]}},{"type":"Feature","properties":{"name":"黄冈餐饮样点11","cityId":"421100","cityName":"黄冈市","category":"餐饮美食","categoryKey":"food","importance":0.44},"geometry":{"type":"Point","coordinates":[114.73784147825403,30.733257543392575]}},{"type":"Feature","properties":{"name":"黄冈餐饮样点12","cityId":"421100","cityName":"黄冈市","category":"餐饮美食","categoryKey":"food","importance":0.9},"geometry":{"type":"Point","coordinates":[114.7553981774459,30.6309285217869]}},{"type":"Feature","properties":{"name":"孝感零售样点13","cityId":"420900","cityName":"孝感市","category":"零售购物","categoryKey":"retail","importance":0.65},"geometry":{"type":"Point","coordinates":[114.26592954097563,30.95511544376154]}},{"type":"Feature","properties":{"name":"黄冈餐饮样点14","cityId":"421100","cityName":"黄冈市","category":"餐饮美食","categoryKey":"food","importance":0.41},"geometry":{"type":"Point","coordinates":[114.84508389067081,30.63952149374433]}},{"type":"Feature","properties":{"name":"武汉餐饮样点15","cityId":"420100","cityName":"武汉市","category":"餐饮美食","categoryKey":"food","importance":0.89},"geometry":{"type":"Point","coordinates":[114.12745356580592,30.28762974350902]}},{"type":"Feature","properties":{"name":"黄冈商务样点16","cityId":"421100","cityName":"黄冈市","category":"商务办公","categoryKey":"office","importance":0.55},"geometry":{"type":"Point","coordinates":[114.68656242782237,30.631464806721567]}},{"type":"Feature","properties":{"name":"武汉商务样点17","cityId":"420100","cityName":"武汉市","category":"商务办公","categoryKey":"office","importance":0.64},"geometry":{"type":"Point","coordinates":[114.53772946805293,30.952371486873446]}},{"type":"Feature","properties":{"name":"黄冈生活样点18","cityId":"421100","cityName":"黄冈市","category":"生活服务","categoryKey":"life","importance":0.64},"geometry":{"type":"Point","coordinates":[114.78983291782632,30.707993767958083]}},{"type":"Feature","properties":{"name":"黄冈餐饮样点19","cityId":"421100","cityName":"黄冈市","category":"餐饮美食","categoryKey":"food","importance":0.92},"geometry":{"type":"Point","coordinates":[114.83863209255978,30.648965909294095]}},{"type":"Feature","properties":{"name":"黄冈金融样点20","cityId":"421100","cityName":"黄冈市","category":"金融网点","categoryKey":"finance","importance":0.76},"geometry":{"type":"Point","coordinates":[114.73997926727867,30.60029896573482]}},{"type":"Feature","properties":{"name":"黄冈住宿样点21","cityId":"421100","cityName":"黄冈市","category":"住宿酒店","categoryKey":"hotel","importance":0.41},"geometry":{"type":"Point","coordinates":[114.73941422765147,30.715550925243797]}},{"type":"Feature","properties":{"name":"武汉生活样点22","cityId":"420100","cityName":"武汉市","category":"生活服务","categoryKey":"life","importance":0.55},"geometry":{"type":"Point","coordinates":[114.20363001089305,30.42204021321716]}},{"type":"Feature","properties":{"name":"黄冈生活样点1","cityId":"421100","cityName":"黄冈市","category":"生活服务","categoryKey":"life","importance":0.65},"geometry":{"type":"Point","coordinates":[114.94187290380533,31.023616968382342]}},{"type":"Feature","properties":{"name":"咸宁生活样点2","cityId":"421200","cityName":"咸宁市","category":"生活服务","categoryKey":"life","importance":0.73},"geometry":{"type":"Point","coordinates":[114.31984686035146,30.036920863755327]}},{"type":"Feature","properties":{"name":"武汉文体样点3","cityId":"420100","cityName":"武汉市","category":"文体休闲","categoryKey":"culture","importance":0.71},"geometry":{"type":"Point","coordinates":[114.24668084615921,30.75386353259996]}},{"type":"Feature","properties":{"name":"仙桃生活样点4","cityId":"429004","cityName":"仙桃市","category":"生活服务","categoryKey":"life","importance":0.84},"geometry":{"type":"Point","coordinates":[113.87770005417178,30.431880537223748]}},{"type":"Feature","properties":{"name":"武汉餐饮样点5","cityId":"420100","cityName":"武汉市","category":"餐饮美食","categoryKey":"food","importance":0.43},"geometry":{"type":"Point","coordinates":[114.04127260724533,30.38188160068249]}},{"type":"Feature","properties":{"name":"咸宁零售样点6","cityId":"421200","cityName":"咸宁市","category":"零售购物","categoryKey":"retail","importance":0.69},"geometry":{"type":"Point","coordinates":[114.26174930234878,30.018092026216323]}},{"type":"Feature","properties":{"name":"武汉餐饮样点7","cityId":"420100","cityName":"武汉市","category":"餐饮美食","categoryKey":"food","importance":0.37},"geometry":{"type":"Point","coordinates":[114.21652996235125,30.410749322167202]}},{"type":"Feature","properties":{"name":"黄冈文体样点8","cityId":"421100","cityName":"黄冈市","category":"文体休闲","categoryKey":"culture","importance":0.81},"geometry":{"type":"Point","coordinates":[115.05526493070998,30.90703282059945]}},{"type":"Feature","properties":{"name":"武汉文体样点9","cityId":"420100","cityName":"武汉市","category":"文体休闲","categoryKey":"culture","importance":0.42},"geometry":{"type":"Point","coordinates":[114.04510115027952,30.448934831075416]}},{"type":"Feature","properties":{"name":"武汉文体样点10","cityId":"420100","cityName":"武汉市","category":"文体休闲","categoryKey":"culture","importance":0.96},"geometry":{"type":"Point","coordinates":[114.26184580286808,30.751349196838262]}},{"type":"Feature","properties":{"name":"武汉商务样点11","cityId":"420100","cityName":"武汉市","category":"商务办公","categoryKey":"office","importance":0.95},"geometry":{"type":"Point","coordinates":[114.16224949657915,30.732995922009277]}},{"type":"Feature","properties":{"name":"武汉零售样点12","cityId":"420100","cityName":"武汉市","category":"零售购物","categoryKey":"retail","importance":0.41},"geometry":{"type":"Point","coordinates":[113.93101991846935,30.51888634943136]}},{"type":"Feature","properties":{"name":"咸宁餐饮样点13","cityId":"421200","cityName":"咸宁市","category":"餐饮美食","categoryKey":"food","importance":0.83},"geometry":{"type":"Point","coordinates":[114.2491065742039,30.000992195413833]}},{"type":"Feature","properties":{"name":"孝感住宿样点14","cityId":"420900","cityName":"孝感市","category":"住宿酒店","categoryKey":"hotel","importance":0.94},"geometry":{"type":"Point","coordinates":[114.10571930598698,30.755633476726274]}},{"type":"Feature","properties":{"name":"咸宁金融样点15","cityId":"421200","cityName":"咸宁市","category":"金融网点","categoryKey":"finance","importance":0.52},"geometry":{"type":"Point","coordinates":[114.45775965176152,29.999956996889807]}},{"type":"Feature","properties":{"name":"咸宁住宿样点16","cityId":"421200","cityName":"咸宁市","category":"住宿酒店","categoryKey":"hotel","importance":0.65},"geometry":{"type":"Point","coordinates":[114.34744850729271,30.044895294763194]}},{"type":"Feature","properties":{"name":"武汉生活样点17","cityId":"420100","cityName":"武汉市","category":"生活服务","categoryKey":"life","importance":0.78},"geometry":{"type":"Point","coordinates":[114.50092769975741,30.4962475622151]}},{"type":"Feature","properties":{"name":"咸宁生活样点18","cityId":"421200","cityName":"咸宁市","category":"生活服务","categoryKey":"life","importance":0.99},"geometry":{"type":"Point","coordinates":[114.44174653361848,30.017808154138343]}},{"type":"Feature","properties":{"name":"咸宁文体样点19","cityId":"421200","cityName":"咸宁市","category":"文体休闲","categoryKey":"culture","importance":0.36},"geometry":{"type":"Point","coordinates":[114.38347410630038,30.041381023184442]}},{"type":"Feature","properties":{"name":"孝感生活样点20","cityId":"420900","cityName":"孝感市","category":"生活服务","categoryKey":"life","importance":0.7},"geometry":{"type":"Point","coordinates":[114.16573073064883,30.88401248590039]}},{"type":"Feature","properties":{"name":"孝感住宿样点21","cityId":"420900","cityName":"孝感市","category":"住宿酒店","categoryKey":"hotel","importance":0.57},"geometry":{"type":"Point","coordinates":[114.23581913617801,31.074831716669316]}},{"type":"Feature","properties":{"name":"咸宁餐饮样点22","cityId":"421200","cityName":"咸宁市","category":"餐饮美食","categoryKey":"food","importance":0.49},"geometry":{"type":"Point","coordinates":[114.2711543759013,30.035625095553353]}},{"type":"Feature","properties":{"name":"武汉文体样点1","cityId":"420100","cityName":"武汉市","category":"文体休闲","categoryKey":"culture","importance":0.85},"geometry":{"type":"Point","coordinates":[114.0534528106002,30.276342966407423]}},{"type":"Feature","properties":{"name":"武汉零售样点2","cityId":"420100","cityName":"武汉市","category":"零售购物","categoryKey":"retail","importance":0.66},"geometry":{"type":"Point","coordinates":[114.51356329045312,30.719560751885318]}},{"type":"Feature","properties":{"name":"武汉零售样点3","cityId":"420100","cityName":"武汉市","category":"零售购物","categoryKey":"retail","importance":0.42},"geometry":{"type":"Point","coordinates":[113.8911581880692,30.48840289465933]}},{"type":"Feature","properties":{"name":"黄冈餐饮样点4","cityId":"421100","cityName":"黄冈市","category":"餐饮美食","categoryKey":"food","importance":0.81},"geometry":{"type":"Point","coordinates":[114.59531708724322,30.340165135333283]}},{"type":"Feature","properties":{"name":"武汉餐饮样点5","cityId":"420100","cityName":"武汉市","category":"餐饮美食","categoryKey":"food","importance":0.6},"geometry":{"type":"Point","coordinates":[113.95196479278593,30.555416638731607]}},{"type":"Feature","properties":{"name":"咸宁住宿样点6","cityId":"421200","cityName":"咸宁市","category":"住宿酒店","categoryKey":"hotel","importance":0.55},"geometry":{"type":"Point","coordinates":[114.47501726068549,30.206563718261712]}},{"type":"Feature","properties":{"name":"武汉生活样点7","cityId":"420100","cityName":"武汉市","category":"生活服务","categoryKey":"life","importance":0.65},"geometry":{"type":"Point","coordinates":[114.55750385303695,30.93512019666611]}},{"type":"Feature","properties":{"name":"黄冈文体样点8","cityId":"421100","cityName":"黄冈市","category":"文体休闲","categoryKey":"culture","importance":0.53},"geometry":{"type":"Point","coordinates":[114.9741082759975,30.933733769817632]}},{"type":"Feature","properties":{"name":"武汉生活样点9","cityId":"420100","cityName":"武汉市","category":"生活服务","categoryKey":"life","importance":0.58},"geometry":{"type":"Point","coordinates":[114.13760554699599,30.55565851193125]}},{"type":"Feature","properties":{"name":"武汉住宿样点10","cityId":"420100","cityName":"武汉市","category":"住宿酒店","categoryKey":"hotel","importance":0.87},"geometry":{"type":"Point","coordinates":[114.39306596063686,30.680531471325732]}},{"type":"Feature","properties":{"name":"黄冈零售样点11","cityId":"421100","cityName":"黄冈市","category":"零售购物","categoryKey":"retail","importance":0.43},"geometry":{"type":"Point","coordinates":[114.73060651873719,30.596119017754457]}},{"type":"Feature","properties":{"name":"武汉零售样点12","cityId":"420100","cityName":"武汉市","category":"零售购物","categoryKey":"retail","importance":0.52},"geometry":{"type":"Point","coordinates":[114.24723347201983,30.661827920725397]}},{"type":"Feature","properties":{"name":"武汉文体样点13","cityId":"420100","cityName":"武汉市","category":"文体休闲","categoryKey":"culture","importance":0.7},"geometry":{"type":"Point","coordinates":[114.25743116443492,30.825417037485096]}},{"type":"Feature","properties":{"name":"孝感金融样点14","cityId":"420900","cityName":"孝感市","category":"金融网点","categoryKey":"finance","importance":0.52},"geometry":{"type":"Point","coordinates":[114.23064473244833,30.997776487729]}},{"type":"Feature","properties":{"name":"仙桃餐饮样点15","cityId":"429004","cityName":"仙桃市","category":"餐饮美食","categoryKey":"food","importance":0.97},"geometry":{"type":"Point","coordinates":[113.83843445710961,30.34054314023144]}},{"type":"Feature","properties":{"name":"武汉餐饮样点16","cityId":"420100","cityName":"武汉市","category":"餐饮美食","categoryKey":"food","importance":0.97},"geometry":{"type":"Point","coordinates":[114.30624059792875,30.895116125214127]}},{"type":"Feature","properties":{"name":"武汉生活样点17","cityId":"420100","cityName":"武汉市","category":"生活服务","categoryKey":"life","importance":0.85},"geometry":{"type":"Point","coordinates":[114.64247164014925,30.886006381267592]}},{"type":"Feature","properties":{"name":"黄冈金融样点18","cityId":"421100","cityName":"黄冈市","category":"金融网点","categoryKey":"finance","importance":0.66},"geometry":{"type":"Point","coordinates":[114.78335442026774,30.940695104861586]}},{"type":"Feature","properties":{"name":"黄冈餐饮样点19","cityId":"421100","cityName":"黄冈市","category":"餐饮美食","categoryKey":"food","importance":0.59},"geometry":{"type":"Point","coordinates":[114.6041428102372,30.538023202760865]}},{"type":"Feature","properties":{"name":"武汉餐饮样点1","cityId":"420100","cityName":"武汉市","category":"餐饮美食","categoryKey":"food","importance":0.44},"geometry":{"type":"Point","coordinates":[114.35642059580198,30.507204721438555]}},{"type":"Feature","properties":{"name":"武汉文体样点2","cityId":"420100","cityName":"武汉市","category":"文体休闲","categoryKey":"culture","importance":0.62},"geometry":{"type":"Point","coordinates":[114.38855264492122,30.934621827504102]}},{"type":"Feature","properties":{"name":"武汉生活样点3","cityId":"420100","cityName":"武汉市","category":"生活服务","categoryKey":"life","importance":0.94},"geometry":{"type":"Point","coordinates":[114.20353340953959,30.446948871603396]}},{"type":"Feature","properties":{"name":"黄冈零售样点4","cityId":"421100","cityName":"黄冈市","category":"零售购物","categoryKey":"retail","importance":0.84},"geometry":{"type":"Point","coordinates":[114.85059433162007,30.91761659963273]}},{"type":"Feature","properties":{"name":"武汉餐饮样点5","cityId":"420100","cityName":"武汉市","category":"餐饮美食","categoryKey":"food","importance":0.72},"geometry":{"type":"Point","coordinates":[114.16844450300502,30.549399924761175]}},{"type":"Feature","properties":{"name":"武汉零售样点6","cityId":"420100","cityName":"武汉市","category":"零售购物","categoryKey":"retail","importance":0.67},"geometry":{"type":"Point","coordinates":[114.4864041373559,31.013217065404948]}},{"type":"Feature","properties":{"name":"黄冈商务样点7","cityId":"421100","cityName":"黄冈市","category":"商务办公","categoryKey":"office","importance":0.55},"geometry":{"type":"Point","coordinates":[114.7758060815361,30.817663514270528]}},{"type":"Feature","properties":{"name":"仙桃零售样点8","cityId":"429004","cityName":"仙桃市","category":"零售购物","categoryKey":"retail","importance":0.65},"geometry":{"type":"Point","coordinates":[113.84061220236632,30.307205923679255]}},{"type":"Feature","properties":{"name":"黄冈生活样点9","cityId":"421100","cityName":"黄冈市","category":"生活服务","categoryKey":"life","importance":0.68},"geometry":{"type":"Point","coordinates":[114.72303429301215,30.69398214831917]}},{"type":"Feature","properties":{"name":"武汉商务样点10","cityId":"420100","cityName":"武汉市","category":"商务办公","categoryKey":"office","importance":0.99},"geometry":{"type":"Point","coordinates":[114.12219379527559,30.505053269692024]}},{"type":"Feature","properties":{"name":"孝感金融样点11","cityId":"420900","cityName":"孝感市","category":"金融网点","categoryKey":"finance","importance":0.97},"geometry":{"type":"Point","coordinates":[114.27626302786035,31.17507069324709]}},{"type":"Feature","properties":{"name":"黄冈住宿样点12","cityId":"421100","cityName":"黄冈市","category":"住宿酒店","categoryKey":"hotel","importance":0.49},"geometry":{"type":"Point","coordinates":[114.8268896442199,30.6638468708613]}},{"type":"Feature","properties":{"name":"咸宁文体样点13","cityId":"421200","cityName":"咸宁市","category":"文体休闲","categoryKey":"culture","importance":0.98},"geometry":{"type":"Point","coordinates":[114.27394328603913,30.122627507525323]}},{"type":"Feature","properties":{"name":"孝感餐饮样点1","cityId":"420900","cityName":"孝感市","category":"餐饮美食","categoryKey":"food","importance":0.73},"geometry":{"type":"Point","coordinates":[114.45880579070584,31.177542126497055]}},{"type":"Feature","properties":{"name":"武汉零售样点2","cityId":"420100","cityName":"武汉市","category":"零售购物","categoryKey":"retail","importance":1},"geometry":{"type":"Point","coordinates":[114.2104824445169,30.752303746288028]}},{"type":"Feature","properties":{"name":"黄冈商务样点3","cityId":"421100","cityName":"黄冈市","category":"商务办公","categoryKey":"office","importance":0.4},"geometry":{"type":"Point","coordinates":[114.57273554071573,30.378772597152995]}},{"type":"Feature","properties":{"name":"武汉金融样点4","cityId":"420100","cityName":"武汉市","category":"金融网点","categoryKey":"finance","importance":0.67},"geometry":{"type":"Point","coordinates":[114.31104964585667,30.549299669064677]}},{"type":"Feature","properties":{"name":"武汉生活样点5","cityId":"420100","cityName":"武汉市","category":"生活服务","categoryKey":"life","importance":0.89},"geometry":{"type":"Point","coordinates":[114.20384459303553,30.73467714563398]}},{"type":"Feature","properties":{"name":"武汉金融样点6","cityId":"420100","cityName":"武汉市","category":"金融网点","categoryKey":"finance","importance":0.82},"geometry":{"type":"Point","coordinates":[113.97126053995974,30.531061351123743]}},{"type":"Feature","properties":{"name":"武汉文体样点7","cityId":"420100","cityName":"武汉市","category":"文体休闲","categoryKey":"culture","importance":0.77},"geometry":{"type":"Point","coordinates":[114.25200857703081,30.293563589971967]}},{"type":"Feature","properties":{"name":"武汉住宿样点8","cityId":"420100","cityName":"武汉市","category":"住宿酒店","categoryKey":"hotel","importance":0.45},"geometry":{"type":"Point","coordinates":[114.50502578053059,30.826754218485515]}},{"type":"Feature","properties":{"name":"孝感文体样点9","cityId":"420900","cityName":"孝感市","category":"文体休闲","categoryKey":"culture","importance":0.54},"geometry":{"type":"Point","coordinates":[114.24297006617273,31.05100350058068]}},{"type":"Feature","properties":{"name":"孝感商务样点10","cityId":"420900","cityName":"孝感市","category":"商务办公","categoryKey":"office","importance":0.6},"geometry":{"type":"Point","coordinates":[114.17172084731126,31.016598747809795]}},{"type":"Feature","properties":{"name":"武汉零售样点11","cityId":"420100","cityName":"武汉市","category":"零售购物","categoryKey":"retail","importance":0.38},"geometry":{"type":"Point","coordinates":[114.42462729049115,30.514852884601282]}},{"type":"Feature","properties":{"name":"孝感商务样点12","cityId":"420900","cityName":"孝感市","category":"商务办公","categoryKey":"office","importance":0.4},"geometry":{"type":"Point","coordinates":[114.18907687870664,30.875995022142725]}},{"type":"Feature","properties":{"name":"武汉餐饮样点13","cityId":"420100","cityName":"武汉市","category":"餐饮美食","categoryKey":"food","importance":0.48},"geometry":{"type":"Point","coordinates":[113.98101585555952,30.437521337299238]}},{"type":"Feature","properties":{"name":"黄冈零售样点14","cityId":"421100","cityName":"黄冈市","category":"零售购物","categoryKey":"retail","importance":0.67},"geometry":{"type":"Point","coordinates":[114.71195336826527,30.90018804018779]}},{"type":"Feature","properties":{"name":"武汉住宿样点1","cityId":"420100","cityName":"武汉市","category":"住宿酒店","categoryKey":"hotel","importance":0.85},"geometry":{"type":"Point","coordinates":[114.42187973675765,31.059713103903444]}},{"type":"Feature","properties":{"name":"武汉商务样点2","cityId":"420100","cityName":"武汉市","category":"商务办公","categoryKey":"office","importance":0.74},"geometry":{"type":"Point","coordinates":[113.95013622463719,30.341682125433707]}},{"type":"Feature","properties":{"name":"武汉商务样点3","cityId":"420100","cityName":"武汉市","category":"商务办公","categoryKey":"office","importance":0.9},"geometry":{"type":"Point","coordinates":[114.42232940662252,30.353749939552994]}},{"type":"Feature","properties":{"name":"武汉文体样点4","cityId":"420100","cityName":"武汉市","category":"文体休闲","categoryKey":"culture","importance":0.77},"geometry":{"type":"Point","coordinates":[114.2350750212796,30.392515828895345]}},{"type":"Feature","properties":{"name":"武汉零售样点5","cityId":"420100","cityName":"武汉市","category":"零售购物","categoryKey":"retail","importance":0.87},"geometry":{"type":"Point","coordinates":[114.38511974524927,30.839721781695644]}},{"type":"Feature","properties":{"name":"武汉生活样点6","cityId":"420100","cityName":"武汉市","category":"生活服务","categoryKey":"life","importance":0.41},"geometry":{"type":"Point","coordinates":[113.91037447347132,30.490388074380306]}},{"type":"Feature","properties":{"name":"孝感金融样点7","cityId":"420900","cityName":"孝感市","category":"金融网点","categoryKey":"finance","importance":0.57},"geometry":{"type":"Point","coordinates":[114.23124147758159,30.89953822950211]}},{"type":"Feature","properties":{"name":"孝感零售样点8","cityId":"420900","cityName":"孝感市","category":"零售购物","categoryKey":"retail","importance":0.6},"geometry":{"type":"Point","coordinates":[114.4129985629502,31.27908243464829]}},{"type":"Feature","properties":{"name":"黄冈商务样点9","cityId":"421100","cityName":"黄冈市","category":"商务办公","categoryKey":"office","importance":0.48},"geometry":{"type":"Point","coordinates":[114.64680501064967,30.640179956614507]}},{"type":"Feature","properties":{"name":"孝感文体样点10","cityId":"420900","cityName":"孝感市","category":"文体休闲","categoryKey":"culture","importance":0.43},"geometry":{"type":"Point","coordinates":[114.3960104629987,31.18617260388582]}},{"type":"Feature","properties":{"name":"武汉金融样点11","cityId":"420100","cityName":"武汉市","category":"金融网点","categoryKey":"finance","importance":0.39},"geometry":{"type":"Point","coordinates":[114.53298002215423,30.670908032835907]}},{"type":"Feature","properties":{"name":"武汉住宿样点12","cityId":"420100","cityName":"武汉市","category":"住宿酒店","categoryKey":"hotel","importance":0.78},"geometry":{"type":"Point","coordinates":[114.45735863212438,30.54779706093104]}},{"type":"Feature","properties":{"name":"武汉商务样点1","cityId":"420100","cityName":"武汉市","category":"商务办公","categoryKey":"office","importance":0.8},"geometry":{"type":"Point","coordinates":[114.20014374436546,30.833636200087064]}},{"type":"Feature","properties":{"name":"咸宁餐饮样点2","cityId":"421200","cityName":"咸宁市","category":"餐饮美食","categoryKey":"food","importance":0.95},"geometry":{"type":"Point","coordinates":[114.46637609304925,30.0101717195616]}},{"type":"Feature","properties":{"name":"武汉金融样点3","cityId":"420100","cityName":"武汉市","category":"金融网点","categoryKey":"finance","importance":0.97},"geometry":{"type":"Point","coordinates":[114.67786475025378,30.903586561779882]}},{"type":"Feature","properties":{"name":"武汉文体样点4","cityId":"420100","cityName":"武汉市","category":"文体休闲","categoryKey":"culture","importance":0.56},"geometry":{"type":"Point","coordinates":[114.59700364309096,30.591487630036266]}},{"type":"Feature","properties":{"name":"武汉金融样点5","cityId":"420100","cityName":"武汉市","category":"金融网点","categoryKey":"finance","importance":0.94},"geometry":{"type":"Point","coordinates":[113.9583804996284,30.347621947071218]}},{"type":"Feature","properties":{"name":"武汉零售样点6","cityId":"420100","cityName":"武汉市","category":"零售购物","categoryKey":"retail","importance":0.56},"geometry":{"type":"Point","coordinates":[114.52293965073214,30.745295328670423]}},{"type":"Feature","properties":{"name":"武汉商务样点7","cityId":"420100","cityName":"武汉市","category":"商务办公","categoryKey":"office","importance":0.42},"geometry":{"type":"Point","coordinates":[114.13999081321762,30.575888682524994]}},{"type":"Feature","properties":{"name":"黄冈零售样点8","cityId":"421100","cityName":"黄冈市","category":"零售购物","categoryKey":"retail","importance":0.78},"geometry":{"type":"Point","coordinates":[114.61448590953403,30.60993003890066]}},{"type":"Feature","properties":{"name":"黄冈住宿样点9","cityId":"421100","cityName":"黄冈市","category":"住宿酒店","categoryKey":"hotel","importance":0.36},"geometry":{"type":"Point","coordinates":[114.75404315950891,30.620403525616453]}},{"type":"Feature","properties":{"name":"孝感文体样点10","cityId":"420900","cityName":"孝感市","category":"文体休闲","categoryKey":"culture","importance":0.56},"geometry":{"type":"Point","coordinates":[114.31161934289358,31.241723970013897]}},{"type":"Feature","properties":{"name":"黄冈金融样点11","cityId":"421100","cityName":"黄冈市","category":"金融网点","categoryKey":"finance","importance":0.52},"geometry":{"type":"Point","coordinates":[114.75583091272192,30.903779031301557]}},{"type":"Feature","properties":{"name":"武汉零售样点12","cityId":"420100","cityName":"武汉市","category":"零售购物","categoryKey":"retail","importance":0.42},"geometry":{"type":"Point","coordinates":[114.41302546781257,30.76440866826042]}},{"type":"Feature","properties":{"name":"武汉商务样点13","cityId":"420100","cityName":"武汉市","category":"商务办公","categoryKey":"office","importance":0.44},"geometry":{"type":"Point","coordinates":[114.39137470665085,30.526167900617047]}},{"type":"Feature","properties":{"name":"孝感金融样点1","cityId":"420900","cityName":"孝感市","category":"金融网点","categoryKey":"finance","importance":0.77},"geometry":{"type":"Point","coordinates":[114.0468662179302,30.726660185506045]}},{"type":"Feature","properties":{"name":"咸宁住宿样点2","cityId":"421200","cityName":"咸宁市","category":"住宿酒店","categoryKey":"hotel","importance":0.62},"geometry":{"type":"Point","coordinates":[114.21999843928465,30.04074482236952]}},{"type":"Feature","properties":{"name":"武汉文体样点3","cityId":"420100","cityName":"武汉市","category":"文体休闲","categoryKey":"culture","importance":0.35},"geometry":{"type":"Point","coordinates":[114.15502954419222,30.395067153570565]}},{"type":"Feature","properties":{"name":"武汉餐饮样点4","cityId":"420100","cityName":"武汉市","category":"餐饮美食","categoryKey":"food","importance":0.98},"geometry":{"type":"Point","coordinates":[114.373145447784,30.414468885672292]}},{"type":"Feature","properties":{"name":"黄冈餐饮样点5","cityId":"421100","cityName":"黄冈市","category":"餐饮美食","categoryKey":"food","importance":0.63},"geometry":{"type":"Point","coordinates":[114.6188502760571,30.638464478714397]}},{"type":"Feature","properties":{"name":"黄冈住宿样点6","cityId":"421100","cityName":"黄冈市","category":"住宿酒店","categoryKey":"hotel","importance":0.99},"geometry":{"type":"Point","coordinates":[114.8971519344976,30.902900850785734]}},{"type":"Feature","properties":{"name":"武汉零售样点7","cityId":"420100","cityName":"武汉市","category":"零售购物","categoryKey":"retail","importance":0.43},"geometry":{"type":"Point","coordinates":[114.26044308342705,30.46044661010489]}},{"type":"Feature","properties":{"name":"武汉文体样点8","cityId":"420100","cityName":"武汉市","category":"文体休闲","categoryKey":"culture","importance":0.38},"geometry":{"type":"Point","coordinates":[114.31212147974512,30.405505222542025]}},{"type":"Feature","properties":{"name":"武汉零售样点9","cityId":"420100","cityName":"武汉市","category":"零售购物","categoryKey":"retail","importance":0.62},"geometry":{"type":"Point","coordinates":[114.10776905981359,30.672362706049572]}},{"type":"Feature","properties":{"name":"武汉生活样点10","cityId":"420100","cityName":"武汉市","category":"生活服务","categoryKey":"life","importance":0.4},"geometry":{"type":"Point","coordinates":[114.16063181314546,30.352594594486757]}},{"type":"Feature","properties":{"name":"武汉金融样点11","cityId":"420100","cityName":"武汉市","category":"金融网点","categoryKey":"finance","importance":0.97},"geometry":{"type":"Point","coordinates":[114.40428281762775,30.948525206369688]}},{"type":"Feature","properties":{"name":"武汉金融样点12","cityId":"420100","cityName":"武汉市","category":"金融网点","categoryKey":"finance","importance":0.65},"geometry":{"type":"Point","coordinates":[114.11187713934517,30.524339032136783]}},{"type":"Feature","properties":{"name":"武汉文体样点13","cityId":"420100","cityName":"武汉市","category":"文体休闲","categoryKey":"culture","importance":0.69},"geometry":{"type":"Point","coordinates":[114.33329083508421,30.311427989091705]}},{"type":"Feature","properties":{"name":"黄冈文体样点14","cityId":"421100","cityName":"黄冈市","category":"文体休闲","categoryKey":"culture","importance":0.66},"geometry":{"type":"Point","coordinates":[114.64364339353762,30.69388990759485]}}]}